{"type": "FeatureCollection", "features": [{"type": "Feature", "geometry": {"type": "LineString", "coordinates": [[-87.64, 41.882], [-87.64213636363637, 41.883590909090906], [-87.64427272727272, 41.88518181818181]]}, "properties": {"objectid": 1, "st_name": "MILWAUKEE AVE", "displayroute": "BIKE LANE"}}, {"type": "Feature", "geometry": {"type": "LineString", "coordinates": [[-87.64427272727272, 41.88518181818181], [-87.64640909090909, 41.88677272727273], [-87.64854545454546, 41.888363636363636]]}, "properties": {"objectid": 2, "st_name": "MILWAUKEE AVE", "displayroute": "BIKE LANE"}}, {"type": "Feature", "geometry": {"type": "LineString", "coordinates": [[-87.64854545454546, 41.888363636363636], [-87.65068181818182, 41.88995454545454], [-87.65281818181818, 41.89154545454545]]}, "properties": {"objectid": 3, "st_name": "MILWAUKEE AVE", "displayroute": "BIKE LANE"}}, {"type": "Feature", "geometry": {"type": "LineString", "coordinates": [[-87.65281818181818, 41.89154545454545], [-87.65495454545454, 41.893136363636366], [-87.65709090909091, 41.89472727272727]]}, "properties": {"objectid": 4, "st_name": "MILWAUKEE AVE", "displayroute": "BIKE LANE"}}, {"type": "Feature", "geometry": {"type": "LineString", "coordinates": [[-87.65709090909091, 41.89472727272727], [-87.65922727272728, 41.89631818181818], [-87.66136363636363, 41.89790909090909]]}, "properties": {"objectid": 5, "st_name": "MILWAUKEE AVE", "displayroute": "BIKE LANE"}}, {"type": "Feature", "geometry": {"type": "LineString", "coordinates": [[-87.66136363636363, 41.89790909090909], [-87.6635, 41.8995], [-87.66563636363637, 41.90109090909091]]}, "properties": {"objectid": 6, "st_name": "MILWAUKEE AVE", "displayroute": "BIKE LANE"}}, {"type": "Feature", "geometry": {"type": "LineString", "coordinates": [[-87.66563636363637, 41.90109090909091], [-87.66777272727272, 41.90268181818182], [-87.66990909090909, 41.904272727272726]]}, "properties": {"objectid": 7, "st_name": "MILWAUKEE AVE", "displayroute": "BIKE LANE"}}, {"type": "Feature", "geometry": {"type": "LineString", "coordinates": [[-87.66990909090909, 41.904272727272726], [-87.67204545454545, 41.905863636363634], [-87.67418181818182, 41.90745454545455]]}, "properties": {"objectid": 8, "st_name": "MILWAUKEE AVE", "displayroute": "BIKE LANE"}}, {"type": "Feature", "geometry": {"type": "LineString", "coordinates": [[-87.67418181818182, 41.90745454545455], [-87.67631818181817, 41.909045454545456], [-87.67845454545454, 41.910636363636364]]}, "properties": {"objectid": 9, "st_name": "MILWAUKEE AVE", "displayroute": "BIKE LANE"}}, {"type": "Feature", "geometry": {"type": "LineString", "coordinates": [[-87.67845454545454, 41.910636363636364], [-87.68059090909091, 41.91222727272727], [-87.68272727272728, 41.913818181818186]]}, "properties": {"objectid": 10, "st_name": "MILWAUKEE AVE", "displayroute": "BIKE LANE"}}, {"type": "Feature", "geometry": {"type": "LineString", "coordinates": [[-87.68272727272728, 41.913818181818186], [-87.68486363636363, 41.915409090909094], [-87.687, 41.917]]}, "properties": {"objectid": 11, "st_name": "MILWAUKEE AVE", "displayroute": "BIKE LANE"}}, {"type": "Feature", "geometry": {"type": "LineString", "coordinates": [[-87.687, 41.917], [-87.68943333333333, 41.91843333333333], [-87.69186666666667, 41.91986666666667]]}, "properties": {"objectid": 12, "st_name": "MILWAUKEE AVE", "displayroute": "BIKE LANE"}}, {"type": "Feature", "geometry": {"type": "LineString", "coordinates": [[-87.69186666666667, 41.91986666666667], [-87.6943, 41.9213], [-87.69673333333333, 41.92273333333333]]}, "properties": {"objectid": 13, "st_name": "MILWAUKEE AVE", "displayroute": "BIKE LANE"}}, {"type": "Feature", "geometry": {"type": "LineString", "coordinates": [[-87.69673333333333, 41.92273333333333], [-87.69916666666667, 41.924166666666665], [-87.7016, 41.9256]]}, "properties": {"objectid": 14, "st_name": "MILWAUKEE AVE", "displayroute": "BIKE LANE"}}, {"type": "Feature", "geometry": {"type": "LineString", "coordinates": [[-87.7016, 41.9256], [-87.70403333333333, 41.927033333333334], [-87.70646666666667, 41.928466666666665]]}, "properties": {"objectid": 15, "st_name": "MILWAUKEE AVE", "displayroute": "BIKE LANE"}}, {"type": "Feature", "geometry": {"type": "LineString", "coordinates": [[-87.70646666666667, 41.928466666666665], [-87.7089, 41.9299], [-87.71133333333333, 41.931333333333335]]}, "properties": {"objectid": 16, "st_name": "MILWAUKEE AVE", "displayroute": "BIKE LANE"}}, {"type": "Feature", "geometry": {"type": "LineString", "coordinates": [[-87.71133333333333, 41.931333333333335], [-87.71376666666667, 41.932766666666666], [-87.7162, 41.934200000000004]]}, "properties": {"objectid": 17, "st_name": "MILWAUKEE AVE", "displayroute": "BIKE LANE"}}, {"type": "Feature", "geometry": {"type": "LineString", "coordinates": [[-87.7162, 41.934200000000004], [-87.71863333333333, 41.935633333333335], [-87.72106666666667, 41.93706666666667]]}, "properties": {"objectid": 18, "st_name": "MILWAUKEE AVE", "displayroute": "BIKE LANE"}}, {"type": "Feature", "geometry": {"type": "LineString", "coordinates": [[-87.72106666666667, 41.93706666666667], [-87.7235, 41.938500000000005], [-87.72593333333333, 41.939933333333336]]}, "properties": {"objectid": 19, "st_name": "MILWAUKEE AVE", "displayroute": "BIKE LANE"}}, {"type": "Feature", "geometry": {"type": "LineString", "coordinates": [[-87.72593333333333, 41.939933333333336], [-87.72836666666667, 41.94136666666667], [-87.7308, 41.9428]]}, "properties": {"objectid": 20, "st_name": "MILWAUKEE AVE", "displayroute": "BIKE LANE"}}, {"type": "Feature", "geometry": {"type": "LineString", "coordinates": [[-87.7308, 41.9428], [-87.73323333333333, 41.94423333333334], [-87.73566666666667, 41.94566666666667]]}, "properties": {"objectid": 21, "st_name": "MILWAUKEE AVE", "displayroute": "BIKE LANE"}}, {"type": "Feature", "geometry": {"type": "LineString", "coordinates": [[-87.73566666666667, 41.94566666666667], [-87.7381, 41.9471], [-87.74053333333333, 41.94853333333334]]}, "properties": {"objectid": 22, "st_name": "MILWAUKEE AVE", "displayroute": "BIKE LANE"}}, {"type": "Feature", "geometry": {"type": "LineString", "coordinates": [[-87.74053333333333, 41.94853333333334], [-87.74296666666667, 41.94996666666667], [-87.7454, 41.9514]]}, "properties": {"objectid": 23, "st_name": "MILWAUKEE AVE", "displayroute": "BIKE LANE"}}, {"type": "Feature", "geometry": {"type": "LineString", "coordinates": [[-87.7454, 41.9514], [-87.74783333333333, 41.95283333333333], [-87.75026666666668, 41.95426666666667]]}, "properties": {"objectid": 24, "st_name": "MILWAUKEE AVE", "displayroute": "BIKE LANE"}}, {"type": "Feature", "geometry": {"type": "LineString", "coordinates": [[-87.75026666666668, 41.95426666666667], [-87.7527, 41.9557], [-87.75513333333333, 41.95713333333333]]}, "properties": {"objectid": 25, "st_name": "MILWAUKEE AVE", "displayroute": "BIKE LANE"}}, {"type": "Feature", "geometry": {"type": "LineString", "coordinates": [[-87.75513333333333, 41.95713333333333], [-87.75756666666668, 41.95856666666667], [-87.76, 41.96]]}, "properties": {"objectid": 26, "st_name": "MILWAUKEE AVE", "displayroute": "BIKE LANE"}}, {"type": "Feature", "geometry": {"type": "LineString", "coordinates": [[-87.676, 41.87], [-87.67606521739131, 41.87228260869565], [-87.6761304347826, 41.8745652173913]]}, "properties": {"objectid": 27, "st_name": "DAMEN AVE", "displayroute": "BIKE LANE"}}, {"type": "Feature", "geometry": {"type": "LineString", "coordinates": [[-87.6761304347826, 41.8745652173913], [-87.67619565217392, 41.87684782608695], [-87.67626086956523, 41.87913043478261]]}, "properties": {"objectid": 28, "st_name": "DAMEN AVE", "displayroute": "BIKE LANE"}}, {"type": "Feature", "geometry": {"type": "LineString", "coordinates": [[-87.67626086956523, 41.87913043478261], [-87.67632608695652, 41.88141304347826], [-87.67639130434783, 41.88369565217391]]}, "properties": {"objectid": 29, "st_name": "DAMEN AVE", "displayroute": "BIKE LANE"}}, {"type": "Feature", "geometry": {"type": "LineString", "coordinates": [[-87.67639130434783, 41.88369565217391], [-87.67645652173913, 41.885978260869564], [-87.67652173913044, 41.888260869565215]]}, "properties": {"objectid": 30, "st_name": "DAMEN AVE", "displayroute": "BIKE LANE"}}, {"type": "Feature", "geometry": {"type": "LineString", "coordinates": [[-87.67652173913044, 41.888260869565215], [-87.67658695652175, 41.89054347826087], [-87.67665217391304, 41.89282608695652]]}, "properties": {"objectid": 31, "st_name": "DAMEN AVE", "displayroute": "BIKE LANE"}}, {"type": "Feature", "geometry": {"type": "LineString", "coordinates": [[-87.67665217391304, 41.89282608695652], [-87.67671739130435, 41.89510869565217], [-87.67678260869566, 41.89739130434783]]}, "properties": {"objectid": 32, "st_name": "DAMEN AVE", "displayroute": "BIKE LANE"}}, {"type": "Feature", "geometry": {"type": "LineString", "coordinates": [[-87.67678260869566, 41.89739130434783], [-87.67684782608696, 41.89967391304348], [-87.67691304347827, 41.90195652173913]]}, "properties": {"objectid": 33, "st_name": "DAMEN AVE", "displayroute": "BIKE LANE"}}, {"type": "Feature", "geometry": {"type": "LineString", "coordinates": [[-87.67691304347827, 41.90195652173913], [-87.67697826086956, 41.90423913043478], [-87.67704347826087, 41.90652173913043]]}, "properties": {"objectid": 34, "st_name": "DAMEN AVE", "displayroute": "BIKE LANE"}}, {"type": "Feature", "geometry": {"type": "LineString", "coordinates": [[-87.67704347826087, 41.90652173913043], [-87.67710869565218, 41.908804347826084], [-87.67717391304348, 41.911086956521736]]}, "properties": {"objectid": 35, "st_name": "DAMEN AVE", "displayroute": "BIKE LANE"}}, {"type": "Feature", "geometry": {"type": "LineString", "coordinates": [[-87.67717391304348, 41.911086956521736], [-87.67723913043478, 41.91336956521739], [-87.6773043478261, 41.915652173913045]]}, "properties": {"objectid": 36, "st_name": "DAMEN AVE", "displayroute": "BIKE LANE"}}, {"type": "Feature", "geometry": {"type": "LineString", "coordinates": [[-87.6773043478261, 41.915652173913045], [-87.67736956521739, 41.9179347826087], [-87.6774347826087, 41.92021739130435]]}, "properties": {"objectid": 37, "st_name": "DAMEN AVE", "displayroute": "BIKE LANE"}}, {"type": "Feature", "geometry": {"type": "LineString", "coordinates": [[-87.6774347826087, 41.92021739130435], [-87.67750000000001, 41.9225], [-87.6775652173913, 41.92478260869565]]}, "properties": {"objectid": 38, "st_name": "DAMEN AVE", "displayroute": "BIKE LANE"}}, {"type": "Feature", "geometry": {"type": "LineString", "coordinates": [[-87.6775652173913, 41.92478260869565], [-87.67763043478261, 41.9270652173913], [-87.67769565217391, 41.92934782608695]]}, "properties": {"objectid": 39, "st_name": "DAMEN AVE", "displayroute": "BIKE LANE"}}, {"type": "Feature", "geometry": {"type": "LineString", "coordinates": [[-87.67769565217391, 41.92934782608695], [-87.67776086956522, 41.93163043478261], [-87.67782608695653, 41.93391304347826]]}, "properties": {"objectid": 40, "st_name": "DAMEN AVE", "displayroute": "BIKE LANE"}}, {"type": "Feature", "geometry": {"type": "LineString", "coordinates": [[-87.67782608695653, 41.93391304347826], [-87.67789130434782, 41.936195652173915], [-87.67795652173913, 41.938478260869566]]}, "properties": {"objectid": 41, "st_name": "DAMEN AVE", "displayroute": "BIKE LANE"}}, {"type": "Feature", "geometry": {"type": "LineString", "coordinates": [[-87.67795652173913, 41.938478260869566], [-87.67802173913044, 41.94076086956522], [-87.67808695652174, 41.94304347826087]]}, "properties": {"objectid": 42, "st_name": "DAMEN AVE", "displayroute": "BIKE LANE"}}, {"type": "Feature", "geometry": {"type": "LineString", "coordinates": [[-87.67808695652174, 41.94304347826087], [-87.67815217391305, 41.94532608695652], [-87.67821739130434, 41.94760869565217]]}, "properties": {"objectid": 43, "st_name": "DAMEN AVE", "displayroute": "BIKE LANE"}}, {"type": "Feature", "geometry": {"type": "LineString", "coordinates": [[-87.67821739130434, 41.94760869565217], [-87.67828260869565, 41.94989130434783], [-87.67834782608696, 41.95217391304348]]}, "properties": {"objectid": 44, "st_name": "DAMEN AVE", "displayroute": "BIKE LANE"}}, {"type": "Feature", "geometry": {"type": "LineString", "coordinates": [[-87.67834782608696, 41.95217391304348], [-87.67841304347826, 41.95445652173913], [-87.67847826086957, 41.956739130434784]]}, "properties": {"objectid": 45, "st_name": "DAMEN AVE", "displayroute": "BIKE LANE"}}, {"type": "Feature", "geometry": {"type": "LineString", "coordinates": [[-87.67847826086957, 41.956739130434784], [-87.67854347826088, 41.959021739130435], [-87.67860869565217, 41.961304347826086]]}, "properties": {"objectid": 46, "st_name": "DAMEN AVE", "displayroute": "BIKE LANE"}}, {"type": "Feature", "geometry": {"type": "LineString", "coordinates": [[-87.67860869565217, 41.961304347826086], [-87.67867391304348, 41.96358695652174], [-87.67873913043478, 41.96586956521739]]}, "properties": {"objectid": 47, "st_name": "DAMEN AVE", "displayroute": "BIKE LANE"}}, {"type": "Feature", "geometry": {"type": "LineString", "coordinates": [[-87.67873913043478, 41.96586956521739], [-87.67880434782609, 41.96815217391305], [-87.6788695652174, 41.9704347826087]]}, "properties": {"objectid": 48, "st_name": "DAMEN AVE", "displayroute": "BIKE LANE"}}, {"type": "Feature", "geometry": {"type": "LineString", "coordinates": [[-87.6788695652174, 41.9704347826087], [-87.67893478260869, 41.97271739130435], [-87.679, 41.975]]}, "properties": {"objectid": 49, "st_name": "DAMEN AVE", "displayroute": "BIKE LANE"}}, {"type": "Feature", "geometry": {"type": "LineString", "coordinates": [[-87.646, 41.845], [-87.64606521739131, 41.84728260869565], [-87.6461304347826, 41.8495652173913]]}, "properties": {"objectid": 50, "st_name": "HALSTED ST", "displayroute": "BIKE LANE"}}, {"type": "Feature", "geometry": {"type": "LineString", "coordinates": [[-87.6461304347826, 41.8495652173913], [-87.64619565217392, 41.85184782608695], [-87.64626086956522, 41.85413043478261]]}, "properties": {"objectid": 51, "st_name": "HALSTED ST", "displayroute": "BIKE LANE"}}, {"type": "Feature", "geometry": {"type": "LineString", "coordinates": [[-87.64626086956522, 41.85413043478261], [-87.64632608695652, 41.85641304347826], [-87.64639130434783, 41.858695652173914]]}, "properties": {"objectid": 52, "st_name": "HALSTED ST", "displayroute": "BIKE LANE"}}, {"type": "Feature", "geometry": {"type": "LineString", "coordinates": [[-87.64639130434783, 41.858695652173914], [-87.64645652173913, 41.860978260869565], [-87.64652173913043, 41.86326086956522]]}, "properties": {"objectid": 53, "st_name": "HALSTED ST", "displayroute": "BIKE LANE"}}, {"type": "Feature", "geometry": {"type": "LineString", "coordinates": [[-87.64652173913043, 41.86326086956522], [-87.64658695652174, 41.86554347826087], [-87.64665217391304, 41.86782608695652]]}, "properties": {"objectid": 54, "st_name": "HALSTED ST", "displayroute": "BIKE LANE"}}, {"type": "Feature", "geometry": {"type": "LineString", "coordinates": [[-87.64665217391304, 41.86782608695652], [-87.64671739130435, 41.87010869565217], [-87.64678260869566, 41.87239130434783]]}, "properties": {"objectid": 55, "st_name": "HALSTED ST", "displayroute": "BIKE LANE"}}, {"type": "Feature", "geometry": {"type": "LineString", "coordinates": [[-87.64678260869566, 41.87239130434783], [-87.64684782608695, 41.87467391304348], [-87.64691304347826, 41.87695652173913]]}, "properties": {"objectid": 56, "st_name": "HALSTED ST", "displayroute": "BIKE LANE"}}, {"type": "Feature", "geometry": {"type": "LineString", "coordinates": [[-87.64691304347826, 41.87695652173913], [-87.64697826086956, 41.87923913043478], [-87.64704347826087, 41.881521739130434]]}, "properties": {"objectid": 57, "st_name": "HALSTED ST", "displayroute": "BIKE LANE"}}, {"type": "Feature", "geometry": {"type": "LineString", "coordinates": [[-87.64704347826087, 41.881521739130434], [-87.64710869565218, 41.883804347826086], [-87.64717391304347, 41.88608695652174]]}, "properties": {"objectid": 58, "st_name": "HALSTED ST", "displayroute": "BIKE LANE"}}, {"type": "Feature", "geometry": {"type": "LineString", "coordinates": [[-87.64717391304347, 41.88608695652174], [-87.64723913043478, 41.88836956521739], [-87.6473043478261, 41.89065217391305]]}, "properties": {"objectid": 59, "st_name": "HALSTED ST", "displayroute": "BIKE LANE"}}, {"type": "Feature", "geometry": {"type": "LineString", "coordinates": [[-87.6473043478261, 41.89065217391305], [-87.64736956521739, 41.8929347826087], [-87.6474347826087, 41.89521739130435]]}, "properties": {"objectid": 60, "st_name": "HALSTED ST", "displayroute": "BIKE LANE"}}, {"type": "Feature", "geometry": {"type": "LineString", "coordinates": [[-87.6474347826087, 41.89521739130435], [-87.64750000000001, 41.8975], [-87.6475652173913, 41.89978260869565]]}, "properties": {"objectid": 61, "st_name": "HALSTED ST", "displayroute": "BIKE LANE"}}, {"type": "Feature", "geometry": {"type": "LineString", "coordinates": [[-87.6475652173913, 41.89978260869565], [-87.64763043478261, 41.9020652173913], [-87.64769565217391, 41.904347826086955]]}, "properties": {"objectid": 62, "st_name": "HALSTED ST", "displayroute": "BIKE LANE"}}, {"type": "Feature", "geometry": {"type": "LineString", "coordinates": [[-87.64769565217391, 41.904347826086955], [-87.64776086956522, 41.90663043478261], [-87.64782608695653, 41.908913043478265]]}, "properties": {"objectid": 63, "st_name": "HALSTED ST", "displayroute": "BIKE LANE"}}, {"type": "Feature", "geometry": {"type": "LineString", "coordinates": [[-87.64782608695653, 41.908913043478265], [-87.64789130434782, 41.911195652173916], [-87.64795652173913, 41.91347826086957]]}, "properties": {"objectid": 64, "st_name": "HALSTED ST", "displayroute": "BIKE LANE"}}, {"type": "Feature", "geometry": {"type": "LineString", "coordinates": [[-87.64795652173913, 41.91347826086957], [-87.64802173913044, 41.91576086956522], [-87.64808695652174, 41.91804347826087]]}, "properties": {"objectid": 65, "st_name": "HALSTED ST", "displayroute": "BIKE LANE"}}, {"type": "Feature", "geometry": {"type": "LineString", "coordinates": [[-87.64808695652174, 41.91804347826087], [-87.64815217391305, 41.92032608695652], [-87.64821739130434, 41.92260869565217]]}, "properties": {"objectid": 66, "st_name": "HALSTED ST", "displayroute": "BIKE LANE"}}, {"type": "Feature", "geometry": {"type": "LineString", "coordinates": [[-87.64821739130434, 41.92260869565217], [-87.64828260869565, 41.92489130434783], [-87.64834782608696, 41.92717391304348]]}, "properties": {"objectid": 67, "st_name": "HALSTED ST", "displayroute": "BIKE LANE"}}, {"type": "Feature", "geometry": {"type": "LineString", "coordinates": [[-87.64834782608696, 41.92717391304348], [-87.64841304347826, 41.929456521739134], [-87.64847826086957, 41.931739130434785]]}, "properties": {"objectid": 68, "st_name": "HALSTED ST", "displayroute": "BIKE LANE"}}, {"type": "Feature", "geometry": {"type": "LineString", "coordinates": [[-87.64847826086957, 41.931739130434785], [-87.64854347826088, 41.934021739130436], [-87.64860869565217, 41.93630434782609]]}, "properties": {"objectid": 69, "st_name": "HALSTED ST", "displayroute": "BIKE LANE"}}, {"type": "Feature", "geometry": {"type": "LineString", "coordinates": [[-87.64860869565217, 41.93630434782609], [-87.64867391304348, 41.93858695652174], [-87.64873913043478, 41.94086956521739]]}, "properties": {"objectid": 70, "st_name": "HALSTED ST", "displayroute": "BIKE LANE"}}, {"type": "Feature", "geometry": {"type": "LineString", "coordinates": [[-87.64873913043478, 41.94086956521739], [-87.64880434782609, 41.94315217391305], [-87.6488695652174, 41.9454347826087]]}, "properties": {"objectid": 71, "st_name": "HALSTED ST", "displayroute": "BIKE LANE"}}, {"type": "Feature", "geometry": {"type": "LineString", "coordinates": [[-87.6488695652174, 41.9454347826087], [-87.64893478260869, 41.94771739130435], [-87.649, 41.95]]}, "properties": {"objectid": 72, "st_name": "HALSTED ST", "displayroute": "BIKE LANE"}}, {"type": "Feature", "geometry": {"type": "LineString", "coordinates": [[-87.631, 41.9], [-87.63185294117648, 41.90220588235294], [-87.63270588235294, 41.904411764705884]]}, "properties": {"objectid": 73, "st_name": "CLARK ST", "displayroute": "PROTECTED BIKE LANE"}}, {"type": "Feature", "geometry": {"type": "LineString", "coordinates": [[-87.63270588235294, 41.904411764705884], [-87.63355882352941, 41.90661764705882], [-87.63441176470589, 41.90882352941176]]}, "properties": {"objectid": 74, "st_name": "CLARK ST", "displayroute": "PROTECTED BIKE LANE"}}, {"type": "Feature", "geometry": {"type": "LineString", "coordinates": [[-87.63441176470589, 41.90882352941176], [-87.63526470588235, 41.9110294117647], [-87.63611764705882, 41.91323529411765]]}, "properties": {"objectid": 75, "st_name": "CLARK ST", "displayroute": "PROTECTED BIKE LANE"}}, {"type": "Feature", "geometry": {"type": "LineString", "coordinates": [[-87.63611764705882, 41.91323529411765], [-87.6369705882353, 41.91544117647059], [-87.63782352941176, 41.917647058823526]]}, "properties": {"objectid": 76, "st_name": "CLARK ST", "displayroute": "PROTECTED BIKE LANE"}}, {"type": "Feature", "geometry": {"type": "LineString", "coordinates": [[-87.63782352941176, 41.917647058823526], [-87.63867647058824, 41.91985294117647], [-87.6395294117647, 41.92205882352941]]}, "properties": {"objectid": 77, "st_name": "CLARK ST", "displayroute": "PROTECTED BIKE LANE"}}, {"type": "Feature", "geometry": {"type": "LineString", "coordinates": [[-87.6395294117647, 41.92205882352941], [-87.64038235294117, 41.92426470588235], [-87.64123529411765, 41.9264705882353]]}, "properties": {"objectid": 78, "st_name": "CLARK ST", "displayroute": "PROTECTED BIKE LANE"}}, {"type": "Feature", "geometry": {"type": "LineString", "coordinates": [[-87.64123529411765, 41.9264705882353], [-87.64208823529411, 41.928676470588236], [-87.64294117647059, 41.930882352941175]]}, "properties": {"objectid": 79, "st_name": "CLARK ST", "displayroute": "PROTECTED BIKE LANE"}}, {"type": "Feature", "geometry": {"type": "LineString", "coordinates": [[-87.64294117647059, 41.930882352941175], [-87.64379411764706, 41.933088235294115], [-87.64464705882352, 41.93529411764706]]}, "properties": {"objectid": 80, "st_name": "CLARK ST", "displayroute": "PROTECTED BIKE LANE"}}, {"type": "Feature", "geometry": {"type": "LineString", "coordinates": [[-87.64464705882352, 41.93529411764706], [-87.6455, 41.9375], [-87.64635294117647, 41.93970588235294]]}, "properties": {"objectid": 81, "st_name": "CLARK ST", "displayroute": "PROTECTED BIKE LANE"}}, {"type": "Feature", "geometry": {"type": "LineString", "coordinates": [[-87.64635294117647, 41.93970588235294], [-87.64720588235294, 41.941911764705885], [-87.64805882352941, 41.944117647058825]]}, "properties": {"objectid": 82, "st_name": "CLARK ST", "displayroute": "PROTECTED BIKE LANE"}}, {"type": "Feature", "geometry": {"type": "LineString", "coordinates": [[-87.64805882352941, 41.944117647058825], [-87.64891176470589, 41.946323529411764], [-87.64976470588235, 41.9485294117647]]}, "properties": {"objectid": 83, "st_name": "CLARK ST", "displayroute": "PROTECTED BIKE LANE"}}, {"type": "Feature", "geometry": {"type": "LineString", "coordinates": [[-87.64976470588235, 41.9485294117647], [-87.65061764705882, 41.95073529411765], [-87.6514705882353, 41.95294117647059]]}, "properties": {"objectid": 84, "st_name": "CLARK ST", "displayroute": "PROTECTED BIKE LANE"}}, {"type": "Feature", "geometry": {"type": "LineString", "coordinates": [[-87.6514705882353, 41.95294117647059], [-87.65232352941176, 41.95514705882353], [-87.65317647058824, 41.957352941176474]]}, "properties": {"objectid": 85, "st_name": "CLARK ST", "displayroute": "PROTECTED BIKE LANE"}}, {"type": "Feature", "geometry": {"type": "LineString", "coordinates": [[-87.65317647058824, 41.957352941176474], [-87.6540294117647, 41.95955882352941], [-87.65488235294117, 41.96176470588235]]}, "properties": {"objectid": 86, "st_name": "CLARK ST", "displayroute": "PROTECTED BIKE LANE"}}, {"type": "Feature", "geometry": {"type": "LineString", "coordinates": [[-87.65488235294117, 41.96176470588235], [-87.65573529411765, 41.9639705882353], [-87.65658823529411, 41.96617647058824]]}, "properties": {"objectid": 87, "st_name": "CLARK ST", "displayroute": "PROTECTED BIKE LANE"}}, {"type": "Feature", "geometry": {"type": "LineString", "coordinates": [[-87.65658823529411, 41.96617647058824], [-87.65744117647058, 41.96838235294118], [-87.65829411764706, 41.970588235294116]]}, "properties": {"objectid": 88, "st_name": "CLARK ST", "displayroute": "PROTECTED BIKE LANE"}}, {"type": "Feature", "geometry": {"type": "LineString", "coordinates": [[-87.65829411764706, 41.970588235294116], [-87.65914705882352, 41.97279411764706], [-87.66, 41.975]]}, "properties": {"objectid": 89, "st_name": "CLARK ST", "displayroute": "PROTECTED BIKE LANE"}}, {"type": "Feature", "geometry": {"type": "LineString", "coordinates": [[-87.629, 41.87], [-87.629, 41.87230769230769], [-87.629, 41.87461538461538]]}, "properties": {"objectid": 90, "st_name": "DEARBORN ST", "displayroute": "PROTECTED BIKE LANE"}}, {"type": "Feature", "geometry": {"type": "LineString", "coordinates": [[-87.629, 41.87461538461538], [-87.629, 41.87692307692308], [-87.629, 41.879230769230766]]}, "properties": {"objectid": 91, "st_name": "DEARBORN ST", "displayroute": "PROTECTED BIKE LANE"}}, {"type": "Feature", "geometry": {"type": "LineString", "coordinates": [[-87.629, 41.879230769230766], [-87.629, 41.88153846153846], [-87.629, 41.88384615384615]]}, "properties": {"objectid": 92, "st_name": "DEARBORN ST", "displayroute": "PROTECTED BIKE LANE"}}, {"type": "Feature", "geometry": {"type": "LineString", "coordinates": [[-87.629, 41.88384615384615], [-87.629, 41.886153846153846], [-87.629, 41.888461538461534]]}, "properties": {"objectid": 93, "st_name": "DEARBORN ST", "displayroute": "PROTECTED BIKE LANE"}}, {"type": "Feature", "geometry": {"type": "LineString", "coordinates": [[-87.629, 41.888461538461534], [-87.629, 41.89076923076923], [-87.629, 41.89307692307692]]}, "properties": {"objectid": 94, "st_name": "DEARBORN ST", "displayroute": "PROTECTED BIKE LANE"}}, {"type": "Feature", "geometry": {"type": "LineString", "coordinates": [[-87.629, 41.89307692307692], [-87.629, 41.895384615384614], [-87.629, 41.8976923076923]]}, "properties": {"objectid": 95, "st_name": "DEARBORN ST", "displayroute": "PROTECTED BIKE LANE"}}, {"type": "Feature", "geometry": {"type": "LineString", "coordinates": [[-87.629, 41.8976923076923], [-87.629, 41.9]]}, "properties": {"objectid": 96, "st_name": "DEARBORN ST", "displayroute": "PROTECTED BIKE LANE"}}, {"type": "Feature", "geometry": {"type": "LineString", "coordinates": [[-87.66, 41.9], [-87.66199999999999, 41.90175], [-87.664, 41.9035]]}, "properties": {"objectid": 97, "st_name": "ELSTON AVE", "displayroute": "BUFFERED BIKE LANE"}}, {"type": "Feature", "geometry": {"type": "LineString", "coordinates": [[-87.664, 41.9035], [-87.666, 41.905249999999995], [-87.66799999999999, 41.907]]}, "properties": {"objectid": 98, "st_name": "ELSTON AVE", "displayroute": "BUFFERED BIKE LANE"}}, {"type": "Feature", "geometry": {"type": "LineString", "coordinates": [[-87.66799999999999, 41.907], [-87.67, 41.90875], [-87.672, 41.9105]]}, "properties": {"objectid": 99, "st_name": "ELSTON AVE", "displayroute": "BUFFERED BIKE LANE"}}, {"type": "Feature", "geometry": {"type": "LineString", "coordinates": [[-87.672, 41.9105], [-87.67399999999999, 41.91225], [-87.676, 41.914]]}, "properties": {"objectid": 100, "st_name": "ELSTON AVE", "displayroute": "BUFFERED BIKE LANE"}}, {"type": "Feature", "geometry": {"type": "LineString", "coordinates": [[-87.676, 41.914], [-87.678, 41.915749999999996], [-87.67999999999999, 41.9175]]}, "properties": {"objectid": 101, "st_name": "ELSTON AVE", "displayroute": "BUFFERED BIKE LANE"}}, {"type": "Feature", "geometry": {"type": "LineString", "coordinates": [[-87.67999999999999, 41.9175], [-87.682, 41.91925], [-87.684, 41.921]]}, "properties": {"objectid": 102, "st_name": "ELSTON AVE", "displayroute": "BUFFERED BIKE LANE"}}, {"type": "Feature", "geometry": {"type": "LineString", "coordinates": [[-87.684, 41.921], [-87.68599999999999, 41.92275], [-87.688, 41.9245]]}, "properties": {"objectid": 103, "st_name": "ELSTON AVE", "displayroute": "BUFFERED BIKE LANE"}}, {"type": "Feature", "geometry": {"type": "LineString", "coordinates": [[-87.688, 41.9245], [-87.69, 41.926249999999996], [-87.692, 41.928]]}, "properties": {"objectid": 104, "st_name": "ELSTON AVE", "displayroute": "BUFFERED BIKE LANE"}}, {"type": "Feature", "geometry": {"type": "LineString", "coordinates": [[-87.692, 41.928], [-87.694, 41.92975], [-87.696, 41.9315]]}, "properties": {"objectid": 105, "st_name": "ELSTON AVE", "displayroute": "BUFFERED BIKE LANE"}}, {"type": "Feature", "geometry": {"type": "LineString", "coordinates": [[-87.696, 41.9315], [-87.698, 41.93325], [-87.69999999999999, 41.935]]}, "properties": {"objectid": 106, "st_name": "ELSTON AVE", "displayroute": "BUFFERED BIKE LANE"}}, {"type": "Feature", "geometry": {"type": "LineString", "coordinates": [[-87.69999999999999, 41.935], [-87.702, 41.936749999999996], [-87.704, 41.9385]]}, "properties": {"objectid": 107, "st_name": "ELSTON AVE", "displayroute": "BUFFERED BIKE LANE"}}, {"type": "Feature", "geometry": {"type": "LineString", "coordinates": [[-87.704, 41.9385], [-87.70599999999999, 41.94025], [-87.708, 41.942]]}, "properties": {"objectid": 108, "st_name": "ELSTON AVE", "displayroute": "BUFFERED BIKE LANE"}}, {"type": "Feature", "geometry": {"type": "LineString", "coordinates": [[-87.708, 41.942], [-87.71, 41.94375], [-87.71199999999999, 41.945499999999996]]}, "properties": {"objectid": 109, "st_name": "ELSTON AVE", "displayroute": "BUFFERED BIKE LANE"}}, {"type": "Feature", "geometry": {"type": "LineString", "coordinates": [[-87.71199999999999, 41.945499999999996], [-87.714, 41.94725], [-87.716, 41.949]]}, "properties": {"objectid": 110, "st_name": "ELSTON AVE", "displayroute": "BUFFERED BIKE LANE"}}, {"type": "Feature", "geometry": {"type": "LineString", "coordinates": [[-87.716, 41.949], [-87.71799999999999, 41.95075], [-87.72, 41.9525]]}, "properties": {"objectid": 111, "st_name": "ELSTON AVE", "displayroute": "BUFFERED BIKE LANE"}}, {"type": "Feature", "geometry": {"type": "LineString", "coordinates": [[-87.72, 41.9525], [-87.722, 41.95425], [-87.72399999999999, 41.955999999999996]]}, "properties": {"objectid": 112, "st_name": "ELSTON AVE", "displayroute": "BUFFERED BIKE LANE"}}, {"type": "Feature", "geometry": {"type": "LineString", "coordinates": [[-87.72399999999999, 41.955999999999996], [-87.726, 41.95775], [-87.728, 41.9595]]}, "properties": {"objectid": 113, "st_name": "ELSTON AVE", "displayroute": "BUFFERED BIKE LANE"}}, {"type": "Feature", "geometry": {"type": "LineString", "coordinates": [[-87.728, 41.9595], [-87.72999999999999, 41.96125], [-87.732, 41.963]]}, "properties": {"objectid": 114, "st_name": "ELSTON AVE", "displayroute": "BUFFERED BIKE LANE"}}, {"type": "Feature", "geometry": {"type": "LineString", "coordinates": [[-87.732, 41.963], [-87.734, 41.96475], [-87.73599999999999, 41.966499999999996]]}, "properties": {"objectid": 115, "st_name": "ELSTON AVE", "displayroute": "BUFFERED BIKE LANE"}}, {"type": "Feature", "geometry": {"type": "LineString", "coordinates": [[-87.73599999999999, 41.966499999999996], [-87.738, 41.96825], [-87.74, 41.97]]}, "properties": {"objectid": 116, "st_name": "ELSTON AVE", "displayroute": "BUFFERED BIKE LANE"}}, {"type": "Feature", "geometry": {"type": "LineString", "coordinates": [[-87.56, 41.75], [-87.56106382978723, 41.75212765957447], [-87.56212765957447, 41.75425531914894]]}, "properties": {"objectid": 117, "st_name": "LAKEFRONT TRAIL", "displayroute": "OFF-STREET TRAIL"}}, {"type": "Feature", "geometry": {"type": "LineString", "coordinates": [[-87.56212765957447, 41.75425531914894], [-87.5631914893617, 41.7563829787234], [-87.56425531914894, 41.75851063829787]]}, "properties": {"objectid": 118, "st_name": "LAKEFRONT TRAIL", "displayroute": "OFF-STREET TRAIL"}}, {"type": "Feature", "geometry": {"type": "LineString", "coordinates": [[-87.56425531914894, 41.75851063829787], [-87.56531914893617, 41.76063829787234], [-87.56638297872341, 41.76276595744681]]}, "properties": {"objectid": 119, "st_name": "LAKEFRONT TRAIL", "displayroute": "OFF-STREET TRAIL"}}, {"type": "Feature", "geometry": {"type": "LineString", "coordinates": [[-87.56638297872341, 41.76276595744681], [-87.56744680851064, 41.76489361702128], [-87.56851063829788, 41.76702127659574]]}, "properties": {"objectid": 120, "st_name": "LAKEFRONT TRAIL", "displayroute": "OFF-STREET TRAIL"}}, {"type": "Feature", "geometry": {"type": "LineString", "coordinates": [[-87.56851063829788, 41.76702127659574], [-87.56957446808511, 41.76914893617021], [-87.57063829787234, 41.77127659574468]]}, "properties": {"objectid": 121, "st_name": "LAKEFRONT TRAIL", "displayroute": "OFF-STREET TRAIL"}}, {"type": "Feature", "geometry": {"type": "LineString", "coordinates": [[-87.57063829787234, 41.77127659574468], [-87.57170212765958, 41.77340425531915], [-87.5727659574468, 41.77553191489362]]}, "properties": {"objectid": 122, "st_name": "LAKEFRONT TRAIL", "displayroute": "OFF-STREET TRAIL"}}, {"type": "Feature", "geometry": {"type": "LineString", "coordinates": [[-87.5727659574468, 41.77553191489362], [-87.57382978723405, 41.77765957446809], [-87.57489361702127, 41.77978723404255]]}, "properties": {"objectid": 123, "st_name": "LAKEFRONT TRAIL", "displayroute": "OFF-STREET TRAIL"}}, {"type": "Feature", "geometry": {"type": "LineString", "coordinates": [[-87.57489361702127, 41.77978723404255], [-87.57595744680852, 41.78191489361702], [-87.57702127659574, 41.78404255319149]]}, "properties": {"objectid": 124, "st_name": "LAKEFRONT TRAIL", "displayroute": "OFF-STREET TRAIL"}}, {"type": "Feature", "geometry": {"type": "LineString", "coordinates": [[-87.57702127659574, 41.78404255319149], [-87.57808510638299, 41.78617021276596], [-87.57914893617021, 41.78829787234043]]}, "properties": {"objectid": 125, "st_name": "LAKEFRONT TRAIL", "displayroute": "OFF-STREET TRAIL"}}, {"type": "Feature", "geometry": {"type": "LineString", "coordinates": [[-87.57914893617021, 41.78829787234043], [-87.58021276595744, 41.79042553191489], [-87.58127659574468, 41.79255319148936]]}, "properties": {"objectid": 126, "st_name": "LAKEFRONT TRAIL", "displayroute": "OFF-STREET TRAIL"}}, {"type": "Feature", "geometry": {"type": "LineString", "coordinates": [[-87.58127659574468, 41.79255319148936], [-87.58234042553191, 41.79468085106383], [-87.58340425531915, 41.7968085106383]]}, "properties": {"objectid": 127, "st_name": "LAKEFRONT TRAIL", "displayroute": "OFF-STREET TRAIL"}}, {"type": "Feature", "geometry": {"type": "LineString", "coordinates": [[-87.58340425531915, 41.7968085106383], [-87.58446808510638, 41.79893617021277], [-87.58553191489362, 41.80106382978723]]}, "properties": {"objectid": 128, "st_name": "LAKEFRONT TRAIL", "displayroute": "OFF-STREET TRAIL"}}, {"type": "Feature", "geometry": {"type": "LineString", "coordinates": [[-87.58553191489362, 41.80106382978723], [-87.58659574468085, 41.8031914893617], [-87.58765957446809, 41.80531914893617]]}, "properties": {"objectid": 129, "st_name": "LAKEFRONT TRAIL", "displayroute": "OFF-STREET TRAIL"}}, {"type": "Feature", "geometry": {"type": "LineString", "coordinates": [[-87.58765957446809, 41.80531914893617], [-87.58872340425532, 41.80744680851064], [-87.58978723404256, 41.80957446808511]]}, "properties": {"objectid": 130, "st_name": "LAKEFRONT TRAIL", "displayroute": "OFF-STREET TRAIL"}}, {"type": "Feature", "geometry": {"type": "LineString", "coordinates": [[-87.58978723404256, 41.80957446808511], [-87.59085106382979, 41.81170212765957], [-87.59191489361702, 41.81382978723404]]}, "properties": {"objectid": 131, "st_name": "LAKEFRONT TRAIL", "displayroute": "OFF-STREET TRAIL"}}, {"type": "Feature", "geometry": {"type": "LineString", "coordinates": [[-87.59191489361702, 41.81382978723404], [-87.59297872340426, 41.81595744680851], [-87.59404255319149, 41.81808510638298]]}, "properties": {"objectid": 132, "st_name": "LAKEFRONT TRAIL", "displayroute": "OFF-STREET TRAIL"}}, {"type": "Feature", "geometry": {"type": "LineString", "coordinates": [[-87.59404255319149, 41.81808510638298], [-87.59510638297873, 41.82021276595745], [-87.59617021276595, 41.82234042553191]]}, "properties": {"objectid": 133, "st_name": "LAKEFRONT TRAIL", "displayroute": "OFF-STREET TRAIL"}}, {"type": "Feature", "geometry": {"type": "LineString", "coordinates": [[-87.59617021276595, 41.82234042553191], [-87.5972340425532, 41.82446808510638], [-87.59829787234042, 41.82659574468085]]}, "properties": {"objectid": 134, "st_name": "LAKEFRONT TRAIL", "displayroute": "OFF-STREET TRAIL"}}, {"type": "Feature", "geometry": {"type": "LineString", "coordinates": [[-87.59829787234042, 41.82659574468085], [-87.59936170212767, 41.82872340425532], [-87.6004255319149, 41.83085106382979]]}, "properties": {"objectid": 135, "st_name": "LAKEFRONT TRAIL", "displayroute": "OFF-STREET TRAIL"}}, {"type": "Feature", "geometry": {"type": "LineString", "coordinates": [[-87.6004255319149, 41.83085106382979], [-87.60148936170212, 41.83297872340426], [-87.60255319148936, 41.83510638297872]]}, "properties": {"objectid": 136, "st_name": "LAKEFRONT TRAIL", "displayroute": "OFF-STREET TRAIL"}}, {"type": "Feature", "geometry": {"type": "LineString", "coordinates": [[-87.60255319148936, 41.83510638297872], [-87.60361702127659, 41.83723404255319], [-87.60468085106383, 41.83936170212766]]}, "properties": {"objectid": 137, "st_name": "LAKEFRONT TRAIL", "displayroute": "OFF-STREET TRAIL"}}, {"type": "Feature", "geometry": {"type": "LineString", "coordinates": [[-87.60468085106383, 41.83936170212766], [-87.60574468085106, 41.84148936170213], [-87.6068085106383, 41.8436170212766]]}, "properties": {"objectid": 138, "st_name": "LAKEFRONT TRAIL", "displayroute": "OFF-STREET TRAIL"}}, {"type": "Feature", "geometry": {"type": "LineString", "coordinates": [[-87.6068085106383, 41.8436170212766], [-87.60787234042553, 41.84574468085106], [-87.60893617021277, 41.84787234042553]]}, "properties": {"objectid": 139, "st_name": "LAKEFRONT TRAIL", "displayroute": "OFF-STREET TRAIL"}}, {"type": "Feature", "geometry": {"type": "LineString", "coordinates": [[-87.60893617021277, 41.84787234042553], [-87.61, 41.85], [-87.61076271186441, 41.85220338983051]]}, "properties": {"objectid": 140, "st_name": "LAKEFRONT TRAIL", "displayroute": "OFF-STREET TRAIL"}}, {"type": "Feature", "geometry": {"type": "LineString", "coordinates": [[-87.61076271186441, 41.85220338983051], [-87.6115254237288, 41.85440677966102], [-87.61228813559322, 41.856610169491525]]}, "properties": {"objectid": 141, "st_name": "LAKEFRONT TRAIL", "displayroute": "OFF-STREET TRAIL"}}, {"type": "Feature", "geometry": {"type": "LineString", "coordinates": [[-87.61228813559322, 41.856610169491525], [-87.61305084745763, 41.85881355932204], [-87.61381355932204, 41.86101694915254]]}, "properties": {"objectid": 142, "st_name": "LAKEFRONT TRAIL", "displayroute": "OFF-STREET TRAIL"}}, {"type": "Feature", "geometry": {"type": "LineString", "coordinates": [[-87.61381355932204, 41.86101694915254], [-87.61457627118644, 41.863220338983055], [-87.61533898305085, 41.86542372881356]]}, "properties": {"objectid": 143, "st_name": "LAKEFRONT TRAIL", "displayroute": "OFF-STREET TRAIL"}}, {"type": "Feature", "geometry": {"type": "LineString", "coordinates": [[-87.61533898305085, 41.86542372881356], [-87.61610169491526, 41.867627118644066], [-87.61686440677965, 41.86983050847458]]}, "properties": {"objectid": 144, "st_name": "LAKEFRONT TRAIL", "displayroute": "OFF-STREET TRAIL"}}, {"type": "Feature", "geometry": {"type": "LineString", "coordinates": [[-87.61686440677965, 41.86983050847458], [-87.61762711864407, 41.872033898305084], [-87.61838983050848, 41.874237288135596]]}, "properties": {"objectid": 145, "st_name": "LAKEFRONT TRAIL", "displayroute": "OFF-STREET TRAIL"}}, {"type": "Feature", "geometry": {"type": "LineString", "coordinates": [[-87.61838983050848, 41.874237288135596], [-87.61915254237289, 41.8764406779661], [-87.61991525423728, 41.878644067796614]]}, "properties": {"objectid": 146, "st_name": "LAKEFRONT TRAIL", "displayroute": "OFF-STREET TRAIL"}}, {"type": "Feature", "geometry": {"type": "LineString", "coordinates": [[-87.61991525423728, 41.878644067796614], [-87.6206779661017, 41.88084745762712], [-87.6214406779661, 41.883050847457625]]}, "properties": {"objectid": 147, "st_name": "LAKEFRONT TRAIL", "displayroute": "OFF-STREET TRAIL"}}, {"type": "Feature", "geometry": {"type": "LineString", "coordinates": [[-87.6214406779661, 41.883050847457625], [-87.6222033898305, 41.88525423728814], [-87.62296610169491, 41.88745762711864]]}, "properties": {"objectid": 148, "st_name": "LAKEFRONT TRAIL", "displayroute": "OFF-STREET TRAIL"}}, {"type": "Feature", "geometry": {"type": "LineString", "coordinates": [[-87.62296610169491, 41.88745762711864], [-87.62372881355932, 41.889661016949155], [-87.62449152542374, 41.89186440677966]]}, "properties": {"objectid": 149, "st_name": "LAKEFRONT TRAIL", "displayroute": "OFF-STREET TRAIL"}}, {"type": "Feature", "geometry": {"type": "LineString", "coordinates": [[-87.62449152542374, 41.89186440677966], [-87.62525423728813, 41.894067796610166], [-87.62601694915254, 41.89627118644068]]}, "properties": {"objectid": 150, "st_name": "LAKEFRONT TRAIL", "displayroute": "OFF-STREET TRAIL"}}, {"type": "Feature", "geometry": {"type": "LineString", "coordinates": [[-87.62601694915254, 41.89627118644068], [-87.62677966101695, 41.898474576271184], [-87.62754237288135, 41.900677966101696]]}, "properties": {"objectid": 151, "st_name": "LAKEFRONT TRAIL", "displayroute": "OFF-STREET TRAIL"}}, {"type": "Feature", "geometry": {"type": "LineString", "coordinates": [[-87.62754237288135, 41.900677966101696], [-87.62830508474576, 41.9028813559322], [-87.62906779661017, 41.905084745762714]]}, "properties": {"objectid": 152, "st_name": "LAKEFRONT TRAIL", "displayroute": "OFF-STREET TRAIL"}}, {"type": "Feature", "geometry": {"type": "LineString", "coordinates": [[-87.62906779661017, 41.905084745762714], [-87.62983050847458, 41.90728813559322], [-87.63059322033898, 41.909491525423725]]}, "properties": {"objectid": 153, "st_name": "LAKEFRONT TRAIL", "displayroute": "OFF-STREET TRAIL"}}, {"type": "Feature", "geometry": {"type": "LineString", "coordinates": [[-87.63059322033898, 41.909491525423725], [-87.63135593220339, 41.91169491525424], [-87.6321186440678, 41.91389830508474]]}, "properties": {"objectid": 154, "st_name": "LAKEFRONT TRAIL", "displayroute": "OFF-STREET TRAIL"}}, {"type": "Feature", "geometry": {"type": "LineString", "coordinates": [[-87.6321186440678, 41.91389830508474], [-87.6328813559322, 41.916101694915255], [-87.63364406779661, 41.91830508474576]]}, "properties": {"objectid": 155, "st_name": "LAKEFRONT TRAIL", "displayroute": "OFF-STREET TRAIL"}}, {"type": "Feature", "geometry": {"type": "LineString", "coordinates": [[-87.63364406779661, 41.91830508474576], [-87.63440677966102, 41.92050847457627], [-87.63516949152542, 41.92271186440678]]}, "properties": {"objectid": 156, "st_name": "LAKEFRONT TRAIL", "displayroute": "OFF-STREET TRAIL"}}, {"type": "Feature", "geometry": {"type": "LineString", "coordinates": [[-87.63516949152542, 41.92271186440678], [-87.63593220338983, 41.924915254237284], [-87.63669491525424, 41.9271186440678]]}, "properties": {"objectid": 157, "st_name": "LAKEFRONT TRAIL", "displayroute": "OFF-STREET TRAIL"}}, {"type": "Feature", "geometry": {"type": "LineString", "coordinates": [[-87.63669491525424, 41.9271186440678], [-87.63745762711865, 41.9293220338983], [-87.63822033898305, 41.931525423728814]]}, "properties": {"objectid": 158, "st_name": "LAKEFRONT TRAIL", "displayroute": "OFF-STREET TRAIL"}}, {"type": "Feature", "geometry": {"type": "LineString", "coordinates": [[-87.63822033898305, 41.931525423728814], [-87.63898305084746, 41.93372881355932], [-87.63974576271187, 41.93593220338983]]}, "properties": {"objectid": 159, "st_name": "LAKEFRONT TRAIL", "displayroute": "OFF-STREET TRAIL"}}, {"type": "Feature", "geometry": {"type": "LineString", "coordinates": [[-87.63974576271187, 41.93593220338983], [-87.64050847457627, 41.93813559322034], [-87.64127118644068, 41.94033898305084]]}, "properties": {"objectid": 160, "st_name": "LAKEFRONT TRAIL", "displayroute": "OFF-STREET TRAIL"}}, {"type": "Feature", "geometry": {"type": "LineString", "coordinates": [[-87.64127118644068, 41.94033898305084], [-87.64203389830509, 41.942542372881356], [-87.6427966101695, 41.94474576271186]]}, "properties": {"objectid": 161, "st_name": "LAKEFRONT TRAIL", "displayroute": "OFF-STREET TRAIL"}}, {"type": "Feature", "geometry": {"type": "LineString", "coordinates": [[-87.6427966101695, 41.94474576271186], [-87.6435593220339, 41.94694915254237], [-87.6443220338983, 41.94915254237288]]}, "properties": {"objectid": 162, "st_name": "LAKEFRONT TRAIL", "displayroute": "OFF-STREET TRAIL"}}, {"type": "Feature", "geometry": {"type": "LineString", "coordinates": [[-87.6443220338983, 41.94915254237288], [-87.64508474576272, 41.951355932203384], [-87.64584745762711, 41.9535593220339]]}, "properties": {"objectid": 163, "st_name": "LAKEFRONT TRAIL", "displayroute": "OFF-STREET TRAIL"}}, {"type": "Feature", "geometry": {"type": "LineString", "coordinates": [[-87.64584745762711, 41.9535593220339], [-87.64661016949152, 41.9557627118644], [-87.64737288135593, 41.957966101694915]]}, "properties": {"objectid": 164, "st_name": "LAKEFRONT TRAIL", "displayroute": "OFF-STREET TRAIL"}}, {"type": "Feature", "geometry": {"type": "LineString", "coordinates": [[-87.64737288135593, 41.957966101694915], [-87.64813559322035, 41.96016949152542], [-87.64889830508474, 41.96237288135593]]}, "properties": {"objectid": 165, "st_name": "LAKEFRONT TRAIL", "displayroute": "OFF-STREET TRAIL"}}, {"type": "Feature", "geometry": {"type": "LineString", "coordinates": [[-87.64889830508474, 41.96237288135593], [-87.64966101694915, 41.96457627118644], [-87.65042372881356, 41.96677966101694]]}, "properties": {"objectid": 166, "st_name": "LAKEFRONT TRAIL", "displayroute": "OFF-STREET TRAIL"}}, {"type": "Feature", "geometry": {"type": "LineString", "coordinates": [[-87.65042372881356, 41.96677966101694], [-87.65118644067796, 41.968983050847456], [-87.65194915254237, 41.97118644067796]]}, "properties": {"objectid": 167, "st_name": "LAKEFRONT TRAIL", "displayroute": "OFF-STREET TRAIL"}}, {"type": "Feature", "geometry": {"type": "LineString", "coordinates": [[-87.65194915254237, 41.97118644067796], [-87.65271186440678, 41.973389830508474], [-87.6534745762712, 41.97559322033898]]}, "properties": {"objectid": 168, "st_name": "LAKEFRONT TRAIL", "displayroute": "OFF-STREET TRAIL"}}, {"type": "Feature", "geometry": {"type": "LineString", "coordinates": [[-87.6534745762712, 41.97559322033898], [-87.65423728813559, 41.97779661016949], [-87.655, 41.98]]}, "properties": {"objectid": 169, "st_name": "LAKEFRONT TRAIL", "displayroute": "OFF-STREET TRAIL"}}, {"type": "Feature", "geometry": {"type": "LineString", "coordinates": [[-87.64, 41.889], [-87.64307692307692, 41.889], [-87.64615384615385, 41.889]]}, "properties": {"objectid": 170, "st_name": "KINZIE ST", "displayroute": "PROTECTED BIKE LANE"}}, {"type": "Feature", "geometry": {"type": "LineString", "coordinates": [[-87.64615384615385, 41.889], [-87.64923076923077, 41.889], [-87.6523076923077, 41.889]]}, "properties": {"objectid": 171, "st_name": "KINZIE ST", "displayroute": "PROTECTED BIKE LANE"}}, {"type": "Feature", "geometry": {"type": "LineString", "coordinates": [[-87.6523076923077, 41.889], [-87.65538461538462, 41.889], [-87.65846153846154, 41.889]]}, "properties": {"objectid": 172, "st_name": "KINZIE ST", "displayroute": "PROTECTED BIKE LANE"}}, {"type": "Feature", "geometry": {"type": "LineString", "coordinates": [[-87.65846153846154, 41.889], [-87.66153846153847, 41.889], [-87.66461538461539, 41.889]]}, "properties": {"objectid": 173, "st_name": "KINZIE ST", "displayroute": "PROTECTED BIKE LANE"}}, {"type": "Feature", "geometry": {"type": "LineString", "coordinates": [[-87.66461538461539, 41.889], [-87.6676923076923, 41.889], [-87.67076923076924, 41.889]]}, "properties": {"objectid": 174, "st_name": "KINZIE ST", "displayroute": "PROTECTED BIKE LANE"}}, {"type": "Feature", "geometry": {"type": "LineString", "coordinates": [[-87.67076923076924, 41.889], [-87.67384615384616, 41.889], [-87.67692307692309, 41.889]]}, "properties": {"objectid": 175, "st_name": "KINZIE ST", "displayroute": "PROTECTED BIKE LANE"}}, {"type": "Feature", "geometry": {"type": "LineString", "coordinates": [[-87.67692307692309, 41.889], [-87.68, 41.889]]}, "properties": {"objectid": 176, "st_name": "KINZIE ST", "displayroute": "PROTECTED BIKE LANE"}}, {"type": "Feature", "geometry": {"type": "LineString", "coordinates": [[-87.58, 41.795], [-87.5830303030303, 41.795], [-87.5860606060606, 41.795]]}, "properties": {"objectid": 177, "st_name": "55TH ST", "displayroute": "BUFFERED BIKE LANE"}}, {"type": "Feature", "geometry": {"type": "LineString", "coordinates": [[-87.5860606060606, 41.795], [-87.58909090909091, 41.795], [-87.59212121212121, 41.795]]}, "properties": {"objectid": 178, "st_name": "55TH ST", "displayroute": "BUFFERED BIKE LANE"}}, {"type": "Feature", "geometry": {"type": "LineString", "coordinates": [[-87.59212121212121, 41.795], [-87.59515151515151, 41.795], [-87.59818181818181, 41.795]]}, "properties": {"objectid": 179, "st_name": "55TH ST", "displayroute": "BUFFERED BIKE LANE"}}, {"type": "Feature", "geometry": {"type": "LineString", "coordinates": [[-87.59818181818181, 41.795], [-87.60121212121211, 41.795], [-87.60424242424243, 41.795]]}, "properties": {"objectid": 180, "st_name": "55TH ST", "displayroute": "BUFFERED BIKE LANE"}}, {"type": "Feature", "geometry": {"type": "LineString", "coordinates": [[-87.60424242424243, 41.795], [-87.60727272727273, 41.795], [-87.61030303030303, 41.795]]}, "properties": {"objectid": 181, "st_name": "55TH ST", "displayroute": "BUFFERED BIKE LANE"}}, {"type": "Feature", "geometry": {"type": "LineString", "coordinates": [[-87.61030303030303, 41.795], [-87.61333333333333, 41.795], [-87.61636363636364, 41.795]]}, "properties": {"objectid": 182, "st_name": "55TH ST", "displayroute": "BUFFERED BIKE LANE"}}, {"type": "Feature", "geometry": {"type": "LineString", "coordinates": [[-87.61636363636364, 41.795], [-87.61939393939394, 41.795], [-87.62242424242424, 41.795]]}, "properties": {"objectid": 183, "st_name": "55TH ST", "displayroute": "BUFFERED BIKE LANE"}}, {"type": "Feature", "geometry": {"type": "LineString", "coordinates": [[-87.62242424242424, 41.795], [-87.62545454545455, 41.795], [-87.62848484848485, 41.795]]}, "properties": {"objectid": 184, "st_name": "55TH ST", "displayroute": "BUFFERED BIKE LANE"}}, {"type": "Feature", "geometry": {"type": "LineString", "coordinates": [[-87.62848484848485, 41.795], [-87.63151515151516, 41.795], [-87.63454545454546, 41.795]]}, "properties": {"objectid": 185, "st_name": "55TH ST", "displayroute": "BUFFERED BIKE LANE"}}, {"type": "Feature", "geometry": {"type": "LineString", "coordinates": [[-87.63454545454546, 41.795], [-87.63757575757576, 41.795], [-87.64060606060606, 41.795]]}, "properties": {"objectid": 186, "st_name": "55TH ST", "displayroute": "BUFFERED BIKE LANE"}}, {"type": "Feature", "geometry": {"type": "LineString", "coordinates": [[-87.64060606060606, 41.795], [-87.64363636363636, 41.795], [-87.64666666666668, 41.795]]}, "properties": {"objectid": 187, "st_name": "55TH ST", "displayroute": "BUFFERED BIKE LANE"}}, {"type": "Feature", "geometry": {"type": "LineString", "coordinates": [[-87.64666666666668, 41.795], [-87.64969696969698, 41.795], [-87.65272727272728, 41.795]]}, "properties": {"objectid": 188, "st_name": "55TH ST", "displayroute": "BUFFERED BIKE LANE"}}, {"type": "Feature", "geometry": {"type": "LineString", "coordinates": [[-87.65272727272728, 41.795], [-87.65575757575758, 41.795], [-87.65878787878789, 41.795]]}, "properties": {"objectid": 189, "st_name": "55TH ST", "displayroute": "BUFFERED BIKE LANE"}}, {"type": "Feature", "geometry": {"type": "LineString", "coordinates": [[-87.65878787878789, 41.795], [-87.66181818181819, 41.795], [-87.66484848484849, 41.795]]}, "properties": {"objectid": 190, "st_name": "55TH ST", "displayroute": "BUFFERED BIKE LANE"}}, {"type": "Feature", "geometry": {"type": "LineString", "coordinates": [[-87.66484848484849, 41.795], [-87.66787878787879, 41.795], [-87.67090909090909, 41.795]]}, "properties": {"objectid": 191, "st_name": "55TH ST", "displayroute": "BUFFERED BIKE LANE"}}, {"type": "Feature", "geometry": {"type": "LineString", "coordinates": [[-87.67090909090909, 41.795], [-87.6739393939394, 41.795], [-87.6769696969697, 41.795]]}, "properties": {"objectid": 192, "st_name": "55TH ST", "displayroute": "BUFFERED BIKE LANE"}}, {"type": "Feature", "geometry": {"type": "LineString", "coordinates": [[-87.6769696969697, 41.795], [-87.68, 41.795]]}, "properties": {"objectid": 193, "st_name": "55TH ST", "displayroute": "BUFFERED BIKE LANE"}}, {"type": "Feature", "geometry": {"type": "LineString", "coordinates": [[-87.66, 41.899], [-87.66307692307691, 41.899], [-87.66615384615385, 41.899]]}, "properties": {"objectid": 194, "st_name": "AUGUSTA BLVD", "displayroute": "NEIGHBORHOOD GREENWAY"}}, {"type": "Feature", "geometry": {"type": "LineString", "coordinates": [[-87.66615384615385, 41.899], [-87.66923076923077, 41.899], [-87.67230769230768, 41.899]]}, "properties": {"objectid": 195, "st_name": "AUGUSTA BLVD", "displayroute": "NEIGHBORHOOD GREENWAY"}}, {"type": "Feature", "geometry": {"type": "LineString", "coordinates": [[-87.67230769230768, 41.899], [-87.67538461538462, 41.899], [-87.67846153846153, 41.899]]}, "properties": {"objectid": 196, "st_name": "AUGUSTA BLVD", "displayroute": "NEIGHBORHOOD GREENWAY"}}, {"type": "Feature", "geometry": {"type": "LineString", "coordinates": [[-87.67846153846153, 41.899], [-87.68153846153845, 41.899], [-87.68461538461538, 41.899]]}, "properties": {"objectid": 197, "st_name": "AUGUSTA BLVD", "displayroute": "NEIGHBORHOOD GREENWAY"}}, {"type": "Feature", "geometry": {"type": "LineString", "coordinates": [[-87.68461538461538, 41.899], [-87.6876923076923, 41.899], [-87.69076923076922, 41.899]]}, "properties": {"objectid": 198, "st_name": "AUGUSTA BLVD", "displayroute": "NEIGHBORHOOD GREENWAY"}}, {"type": "Feature", "geometry": {"type": "LineString", "coordinates": [[-87.69076923076922, 41.899], [-87.69384615384615, 41.899], [-87.69692307692307, 41.899]]}, "properties": {"objectid": 199, "st_name": "AUGUSTA BLVD", "displayroute": "NEIGHBORHOOD GREENWAY"}}, {"type": "Feature", "geometry": {"type": "LineString", "coordinates": [[-87.69692307692307, 41.899], [-87.69999999999999, 41.899], [-87.70307692307692, 41.899]]}, "properties": {"objectid": 200, "st_name": "AUGUSTA BLVD", "displayroute": "NEIGHBORHOOD GREENWAY"}}, {"type": "Feature", "geometry": {"type": "LineString", "coordinates": [[-87.70307692307692, 41.899], [-87.70615384615384, 41.899], [-87.70923076923077, 41.899]]}, "properties": {"objectid": 201, "st_name": "AUGUSTA BLVD", "displayroute": "NEIGHBORHOOD GREENWAY"}}, {"type": "Feature", "geometry": {"type": "LineString", "coordinates": [[-87.70923076923077, 41.899], [-87.71230769230769, 41.899], [-87.71538461538461, 41.899]]}, "properties": {"objectid": 202, "st_name": "AUGUSTA BLVD", "displayroute": "NEIGHBORHOOD GREENWAY"}}, {"type": "Feature", "geometry": {"type": "LineString", "coordinates": [[-87.71538461538461, 41.899], [-87.71846153846154, 41.899], [-87.72153846153846, 41.899]]}, "properties": {"objectid": 203, "st_name": "AUGUSTA BLVD", "displayroute": "NEIGHBORHOOD GREENWAY"}}, {"type": "Feature", "geometry": {"type": "LineString", "coordinates": [[-87.72153846153846, 41.899], [-87.72461538461538, 41.899], [-87.72769230769231, 41.899]]}, "properties": {"objectid": 204, "st_name": "AUGUSTA BLVD", "displayroute": "NEIGHBORHOOD GREENWAY"}}, {"type": "Feature", "geometry": {"type": "LineString", "coordinates": [[-87.72769230769231, 41.899], [-87.73076923076923, 41.899], [-87.73384615384614, 41.899]]}, "properties": {"objectid": 205, "st_name": "AUGUSTA BLVD", "displayroute": "NEIGHBORHOOD GREENWAY"}}, {"type": "Feature", "geometry": {"type": "LineString", "coordinates": [[-87.73384615384614, 41.899], [-87.73692307692308, 41.899], [-87.74, 41.899]]}, "properties": {"objectid": 206, "st_name": "AUGUSTA BLVD", "displayroute": "NEIGHBORHOOD GREENWAY"}}, {"type": "Feature", "geometry": {"type": "LineString", "coordinates": [[-87.672, 41.885], [-87.672, 41.88729166666666], [-87.672, 41.889583333333334]]}, "properties": {"objectid": 207, "st_name": "WOOD ST", "displayroute": "NEIGHBORHOOD GREENWAY"}}, {"type": "Feature", "geometry": {"type": "LineString", "coordinates": [[-87.672, 41.889583333333334], [-87.672, 41.891875], [-87.672, 41.89416666666666]]}, "properties": {"objectid": 208, "st_name": "WOOD ST", "displayroute": "NEIGHBORHOOD GREENWAY"}}, {"type": "Feature", "geometry": {"type": "LineString", "coordinates": [[-87.672, 41.89416666666666], [-87.672, 41.89645833333333], [-87.672, 41.89875]]}, "properties": {"objectid": 209, "st_name": "WOOD ST", "displayroute": "NEIGHBORHOOD GREENWAY"}}, {"type": "Feature", "geometry": {"type": "LineString", "coordinates": [[-87.672, 41.89875], [-87.672, 41.901041666666664], [-87.672, 41.90333333333333]]}, "properties": {"objectid": 210, "st_name": "WOOD ST", "displayroute": "NEIGHBORHOOD GREENWAY"}}, {"type": "Feature", "geometry": {"type": "LineString", "coordinates": [[-87.672, 41.90333333333333], [-87.672, 41.905625], [-87.672, 41.907916666666665]]}, "properties": {"objectid": 211, "st_name": "WOOD ST", "displayroute": "NEIGHBORHOOD GREENWAY"}}, {"type": "Feature", "geometry": {"type": "LineString", "coordinates": [[-87.672, 41.907916666666665], [-87.672, 41.91020833333333], [-87.672, 41.912499999999994]]}, "properties": {"objectid": 212, "st_name": "WOOD ST", "displayroute": "NEIGHBORHOOD GREENWAY"}}, {"type": "Feature", "geometry": {"type": "LineString", "coordinates": [[-87.672, 41.912499999999994], [-87.672, 41.914791666666666], [-87.672, 41.91708333333333]]}, "properties": {"objectid": 213, "st_name": "WOOD ST", "displayroute": "NEIGHBORHOOD GREENWAY"}}, {"type": "Feature", "geometry": {"type": "LineString", "coordinates": [[-87.672, 41.91708333333333], [-87.672, 41.919374999999995], [-87.672, 41.92166666666667]]}, "properties": {"objectid": 214, "st_name": "WOOD ST", "displayroute": "NEIGHBORHOOD GREENWAY"}}, {"type": "Feature", "geometry": {"type": "LineString", "coordinates": [[-87.672, 41.92166666666667], [-87.672, 41.92395833333333], [-87.672, 41.926249999999996]]}, "properties": {"objectid": 215, "st_name": "WOOD ST", "displayroute": "NEIGHBORHOOD GREENWAY"}}, {"type": "Feature", "geometry": {"type": "LineString", "coordinates": [[-87.672, 41.926249999999996], [-87.672, 41.92854166666667], [-87.672, 41.93083333333333]]}, "properties": {"objectid": 216, "st_name": "WOOD ST", "displayroute": "NEIGHBORHOOD GREENWAY"}}, {"type": "Feature", "geometry": {"type": "LineString", "coordinates": [[-87.672, 41.93083333333333], [-87.672, 41.933125], [-87.672, 41.93541666666666]]}, "properties": {"objectid": 217, "st_name": "WOOD ST", "displayroute": "NEIGHBORHOOD GREENWAY"}}, {"type": "Feature", "geometry": {"type": "LineString", "coordinates": [[-87.672, 41.93541666666666], [-87.672, 41.93770833333333], [-87.672, 41.94]]}, "properties": {"objectid": 218, "st_name": "WOOD ST", "displayroute": "NEIGHBORHOOD GREENWAY"}}, {"type": "Feature", "geometry": {"type": "LineString", "coordinates": [[-87.635, 41.845], [-87.6375, 41.843676470588235], [-87.64, 41.84235294117647]]}, "properties": {"objectid": 219, "st_name": "ARCHER AVE", "displayroute": "SHARED-LANE"}}, {"type": "Feature", "geometry": {"type": "LineString", "coordinates": [[-87.64, 41.84235294117647], [-87.6425, 41.8410294117647], [-87.64500000000001, 41.83970588235294]]}, "properties": {"objectid": 220, "st_name": "ARCHER AVE", "displayroute": "SHARED-LANE"}}, {"type": "Feature", "geometry": {"type": "LineString", "coordinates": [[-87.64500000000001, 41.83970588235294], [-87.64750000000001, 41.838382352941174], [-87.65, 41.83705882352941]]}, "properties": {"objectid": 221, "st_name": "ARCHER AVE", "displayroute": "SHARED-LANE"}}, {"type": "Feature", "geometry": {"type": "LineString", "coordinates": [[-87.65, 41.83705882352941], [-87.6525, 41.83573529411765], [-87.655, 41.834411764705884]]}, "properties": {"objectid": 222, "st_name": "ARCHER AVE", "displayroute": "SHARED-LANE"}}, {"type": "Feature", "geometry": {"type": "LineString", "coordinates": [[-87.655, 41.834411764705884], [-87.6575, 41.83308823529411], [-87.66, 41.83176470588235]]}, "properties": {"objectid": 223, "st_name": "ARCHER AVE", "displayroute": "SHARED-LANE"}}, {"type": "Feature", "geometry": {"type": "LineString", "coordinates": [[-87.66, 41.83176470588235], [-87.66250000000001, 41.830441176470586], [-87.665, 41.82911764705882]]}, "properties": {"objectid": 224, "st_name": "ARCHER AVE", "displayroute": "SHARED-LANE"}}, {"type": "Feature", "geometry": {"type": "LineString", "coordinates": [[-87.665, 41.82911764705882], [-87.6675, 41.82779411764706], [-87.67, 41.826470588235296]]}, "properties": {"objectid": 225, "st_name": "ARCHER AVE", "displayroute": "SHARED-LANE"}}, {"type": "Feature", "geometry": {"type": "LineString", "coordinates": [[-87.67, 41.826470588235296], [-87.6725, 41.825147058823525], [-87.675, 41.82382352941176]]}, "properties": {"objectid": 226, "st_name": "ARCHER AVE", "displayroute": "SHARED-LANE"}}, {"type": "Feature", "geometry": {"type": "LineString", "coordinates": [[-87.675, 41.82382352941176], [-87.67750000000001, 41.8225], [-87.68, 41.821176470588235]]}, "properties": {"objectid": 227, "st_name": "ARCHER AVE", "displayroute": "SHARED-LANE"}}, {"type": "Feature", "geometry": {"type": "LineString", "coordinates": [[-87.68, 41.821176470588235], [-87.6825, 41.81985294117647], [-87.685, 41.8185294117647]]}, "properties": {"objectid": 228, "st_name": "ARCHER AVE", "displayroute": "SHARED-LANE"}}, {"type": "Feature", "geometry": {"type": "LineString", "coordinates": [[-87.685, 41.8185294117647], [-87.6875, 41.81720588235294], [-87.69, 41.81588235294117]]}, "properties": {"objectid": 229, "st_name": "ARCHER AVE", "displayroute": "SHARED-LANE"}}, {"type": "Feature", "geometry": {"type": "LineString", "coordinates": [[-87.69, 41.81588235294117], [-87.6925, 41.81455882352941], [-87.69500000000001, 41.813235294117646]]}, "properties": {"objectid": 230, "st_name": "ARCHER AVE", "displayroute": "SHARED-LANE"}}, {"type": "Feature", "geometry": {"type": "LineString", "coordinates": [[-87.69500000000001, 41.813235294117646], [-87.6975, 41.81191176470588], [-87.7, 41.81058823529411]]}, "properties": {"objectid": 231, "st_name": "ARCHER AVE", "displayroute": "SHARED-LANE"}}, {"type": "Feature", "geometry": {"type": "LineString", "coordinates": [[-87.7, 41.81058823529411], [-87.7025, 41.80926470588235], [-87.705, 41.807941176470585]]}, "properties": {"objectid": 232, "st_name": "ARCHER AVE", "displayroute": "SHARED-LANE"}}, {"type": "Feature", "geometry": {"type": "LineString", "coordinates": [[-87.705, 41.807941176470585], [-87.7075, 41.80661764705882], [-87.71, 41.80529411764706]]}, "properties": {"objectid": 233, "st_name": "ARCHER AVE", "displayroute": "SHARED-LANE"}}, {"type": "Feature", "geometry": {"type": "LineString", "coordinates": [[-87.71, 41.80529411764706], [-87.7125, 41.803970588235295], [-87.715, 41.802647058823524]]}, "properties": {"objectid": 234, "st_name": "ARCHER AVE", "displayroute": "SHARED-LANE"}}, {"type": "Feature", "geometry": {"type": "LineString", "coordinates": [[-87.715, 41.802647058823524], [-87.7175, 41.80132352941176], [-87.72, 41.8]]}, "properties": {"objectid": 235, "st_name": "ARCHER AVE", "displayroute": "SHARED-LANE"}}, {"type": "Feature", "geometry": {"type": "LineString", "coordinates": [[-87.63, 41.72], [-87.62944444444445, 41.72222222222222], [-87.62888888888888, 41.724444444444444]]}, "properties": {"objectid": 236, "st_name": "VINCENNES AVE", "displayroute": "SHARED-LANE"}}, {"type": "Feature", "geometry": {"type": "LineString", "coordinates": [[-87.62888888888888, 41.724444444444444], [-87.62833333333333, 41.72666666666667], [-87.62777777777778, 41.72888888888889]]}, "properties": {"objectid": 237, "st_name": "VINCENNES AVE", "displayroute": "SHARED-LANE"}}, {"type": "Feature", "geometry": {"type": "LineString", "coordinates": [[-87.62777777777778, 41.72888888888889], [-87.62722222222222, 41.73111111111111], [-87.62666666666667, 41.733333333333334]]}, "properties": {"objectid": 238, "st_name": "VINCENNES AVE", "displayroute": "SHARED-LANE"}}, {"type": "Feature", "geometry": {"type": "LineString", "coordinates": [[-87.62666666666667, 41.733333333333334], [-87.6261111111111, 41.73555555555556], [-87.62555555555555, 41.73777777777778]]}, "properties": {"objectid": 239, "st_name": "VINCENNES AVE", "displayroute": "SHARED-LANE"}}, {"type": "Feature", "geometry": {"type": "LineString", "coordinates": [[-87.62555555555555, 41.73777777777778], [-87.625, 41.74], [-87.62444444444444, 41.742222222222225]]}, "properties": {"objectid": 240, "st_name": "VINCENNES AVE", "displayroute": "SHARED-LANE"}}, {"type": "Feature", "geometry": {"type": "LineString", "coordinates": [[-87.62444444444444, 41.742222222222225], [-87.62388888888889, 41.74444444444445], [-87.62333333333333, 41.74666666666667]]}, "properties": {"objectid": 241, "st_name": "VINCENNES AVE", "displayroute": "SHARED-LANE"}}, {"type": "Feature", "geometry": {"type": "LineString", "coordinates": [[-87.62333333333333, 41.74666666666667], [-87.62277777777777, 41.74888888888889], [-87.62222222222222, 41.75111111111111]]}, "properties": {"objectid": 242, "st_name": "VINCENNES AVE", "displayroute": "SHARED-LANE"}}, {"type": "Feature", "geometry": {"type": "LineString", "coordinates": [[-87.62222222222222, 41.75111111111111], [-87.62166666666666, 41.75333333333333], [-87.6211111111111, 41.75555555555555]]}, "properties": {"objectid": 243, "st_name": "VINCENNES AVE", "displayroute": "SHARED-LANE"}}, {"type": "Feature", "geometry": {"type": "LineString", "coordinates": [[-87.6211111111111, 41.75555555555555], [-87.62055555555555, 41.757777777777775], [-87.61999999999999, 41.76]]}, "properties": {"objectid": 244, "st_name": "VINCENNES AVE", "displayroute": "SHARED-LANE"}}, {"type": "Feature", "geometry": {"type": "LineString", "coordinates": [[-87.61999999999999, 41.76], [-87.61944444444444, 41.76222222222222], [-87.61888888888889, 41.76444444444444]]}, "properties": {"objectid": 245, "st_name": "VINCENNES AVE", "displayroute": "SHARED-LANE"}}, {"type": "Feature", "geometry": {"type": "LineString", "coordinates": [[-87.61888888888889, 41.76444444444444], [-87.61833333333333, 41.766666666666666], [-87.61777777777777, 41.76888888888889]]}, "properties": {"objectid": 246, "st_name": "VINCENNES AVE", "displayroute": "SHARED-LANE"}}, {"type": "Feature", "geometry": {"type": "LineString", "coordinates": [[-87.61777777777777, 41.76888888888889], [-87.61722222222221, 41.77111111111111], [-87.61666666666666, 41.77333333333333]]}, "properties": {"objectid": 247, "st_name": "VINCENNES AVE", "displayroute": "SHARED-LANE"}}, {"type": "Feature", "geometry": {"type": "LineString", "coordinates": [[-87.61666666666666, 41.77333333333333], [-87.61611111111111, 41.775555555555556], [-87.61555555555555, 41.77777777777778]]}, "properties": {"objectid": 248, "st_name": "VINCENNES AVE", "displayroute": "SHARED-LANE"}}, {"type": "Feature", "geometry": {"type": "LineString", "coordinates": [[-87.61555555555555, 41.77777777777778], [-87.615, 41.78]]}, "properties": {"objectid": 249, "st_name": "VINCENNES AVE", "displayroute": "SHARED-LANE"}}, {"type": "Feature", "geometry": {"type": "LineString", "coordinates": [[-87.586, 41.74], [-87.586, 41.74227272727273], [-87.586, 41.74454545454546]]}, "properties": {"objectid": 250, "st_name": "STONY ISLAND AVE", "displayroute": "PROTECTED BIKE LANE"}}, {"type": "Feature", "geometry": {"type": "LineString", "coordinates": [[-87.586, 41.74454545454546], [-87.586, 41.746818181818185], [-87.586, 41.74909090909091]]}, "properties": {"objectid": 251, "st_name": "STONY ISLAND AVE", "displayroute": "PROTECTED BIKE LANE"}}, {"type": "Feature", "geometry": {"type": "LineString", "coordinates": [[-87.586, 41.74909090909091], [-87.586, 41.751363636363635], [-87.586, 41.75363636363637]]}, "properties": {"objectid": 252, "st_name": "STONY ISLAND AVE", "displayroute": "PROTECTED BIKE LANE"}}, {"type": "Feature", "geometry": {"type": "LineString", "coordinates": [[-87.586, 41.75363636363637], [-87.586, 41.75590909090909], [-87.586, 41.75818181818182]]}, "properties": {"objectid": 253, "st_name": "STONY ISLAND AVE", "displayroute": "PROTECTED BIKE LANE"}}, {"type": "Feature", "geometry": {"type": "LineString", "coordinates": [[-87.586, 41.75818181818182], [-87.586, 41.76045454545454], [-87.586, 41.762727272727275]]}, "properties": {"objectid": 254, "st_name": "STONY ISLAND AVE", "displayroute": "PROTECTED BIKE LANE"}}, {"type": "Feature", "geometry": {"type": "LineString", "coordinates": [[-87.586, 41.762727272727275], [-87.586, 41.765], [-87.586, 41.767272727272726]]}, "properties": {"objectid": 255, "st_name": "STONY ISLAND AVE", "displayroute": "PROTECTED BIKE LANE"}}, {"type": "Feature", "geometry": {"type": "LineString", "coordinates": [[-87.586, 41.767272727272726], [-87.586, 41.76954545454546], [-87.586, 41.77181818181818]]}, "properties": {"objectid": 256, "st_name": "STONY ISLAND AVE", "displayroute": "PROTECTED BIKE LANE"}}, {"type": "Feature", "geometry": {"type": "LineString", "coordinates": [[-87.586, 41.77181818181818], [-87.586, 41.77409090909091], [-87.586, 41.776363636363634]]}, "properties": {"objectid": 257, "st_name": "STONY ISLAND AVE", "displayroute": "PROTECTED BIKE LANE"}}, {"type": "Feature", "geometry": {"type": "LineString", "coordinates": [[-87.586, 41.776363636363634], [-87.586, 41.778636363636366], [-87.586, 41.78090909090909]]}, "properties": {"objectid": 258, "st_name": "STONY ISLAND AVE", "displayroute": "PROTECTED BIKE LANE"}}, {"type": "Feature", "geometry": {"type": "LineString", "coordinates": [[-87.586, 41.78090909090909], [-87.586, 41.783181818181816], [-87.586, 41.78545454545454]]}, "properties": {"objectid": 259, "st_name": "STONY ISLAND AVE", "displayroute": "PROTECTED BIKE LANE"}}, {"type": "Feature", "geometry": {"type": "LineString", "coordinates": [[-87.586, 41.78545454545454], [-87.586, 41.787727272727274], [-87.586, 41.79]]}, "properties": {"objectid": 260, "st_name": "STONY ISLAND AVE", "displayroute": "PROTECTED BIKE LANE"}}]}