{"type": "FeatureCollection", "features": [{"type": "Feature", "geometry": {"type": "LineString", "coordinates": [[-87.64, 41.882], [-87.64213636363637, 41.883590909090906], [-87.64427272727272, 41.88518181818181]]}, "properties": {"segment_id": "1", "street": "MILWAUKEE AVE", "facility_type_raw": "BIKE LANE", "facility_category": "painted", "length_m": 500.5, "crashes_within_30m": 1, "data_tier": "real"}}, {"type": "Feature", "geometry": {"type": "LineString", "coordinates": [[-87.64427272727272, 41.88518181818181], [-87.64640909090909, 41.88677272727273], [-87.64854545454546, 41.888363636363636]]}, "properties": {"segment_id": "2", "street": "MILWAUKEE AVE", "facility_type_raw": "BIKE LANE", "facility_category": "painted", "length_m": 500.5, "crashes_within_30m": 3, "data_tier": "real"}}, {"type": "Feature", "geometry": {"type": "LineString", "coordinates": [[-87.64854545454546, 41.888363636363636], [-87.65068181818182, 41.88995454545454], [-87.65281818181818, 41.89154545454545]]}, "properties": {"segment_id": "3", "street": "MILWAUKEE AVE", "facility_type_raw": "BIKE LANE", "facility_category": "painted", "length_m": 500.5, "crashes_within_30m": 6, "data_tier": "real"}}, {"type": "Feature", "geometry": {"type": "LineString", "coordinates": [[-87.65281818181818, 41.89154545454545], [-87.65495454545454, 41.893136363636366], [-87.65709090909091, 41.89472727272727]]}, "properties": {"segment_id": "4", "street": "MILWAUKEE AVE", "facility_type_raw": "BIKE LANE", "facility_category": "painted", "length_m": 500.4, "crashes_within_30m": 2, "data_tier": "real"}}, {"type": "Feature", "geometry": {"type": "LineString", "coordinates": [[-87.65709090909091, 41.89472727272727], [-87.65922727272728, 41.89631818181818], [-87.66136363636363, 41.89790909090909]]}, "properties": {"segment_id": "5", "street": "MILWAUKEE AVE", "facility_type_raw": "BIKE LANE", "facility_category": "painted", "length_m": 500.4, "crashes_within_30m": 4, "data_tier": "real"}}, {"type": "Feature", "geometry": {"type": "LineString", "coordinates": [[-87.66136363636363, 41.89790909090909], [-87.6635, 41.8995], [-87.66563636363637, 41.90109090909091]]}, "properties": {"segment_id": "6", "street": "MILWAUKEE AVE", "facility_type_raw": "BIKE LANE", "facility_category": "painted", "length_m": 500.4, "crashes_within_30m": 3, "data_tier": "real"}}, {"type": "Feature", "geometry": {"type": "LineString", "coordinates": [[-87.66563636363637, 41.90109090909091], [-87.66777272727272, 41.90268181818182], [-87.66990909090909, 41.904272727272726]]}, "properties": {"segment_id": "7", "street": "MILWAUKEE AVE", "facility_type_raw": "BIKE LANE", "facility_category": "painted", "length_m": 500.4, "crashes_within_30m": 3, "data_tier": "real"}}, {"type": "Feature", "geometry": {"type": "LineString", "coordinates": [[-87.66990909090909, 41.904272727272726], [-87.67204545454545, 41.905863636363634], [-87.67418181818182, 41.90745454545455]]}, "properties": {"segment_id": "8", "street": "MILWAUKEE AVE", "facility_type_raw": "BIKE LANE", "facility_category": "painted", "length_m": 500.4, "crashes_within_30m": 2, "data_tier": "real"}}, {"type": "Feature", "geometry": {"type": "LineString", "coordinates": [[-87.67418181818182, 41.90745454545455], [-87.67631818181817, 41.909045454545456], [-87.67845454545454, 41.910636363636364]]}, "properties": {"segment_id": "9", "street": "MILWAUKEE AVE", "facility_type_raw": "BIKE LANE", "facility_category": "painted", "length_m": 500.4, "crashes_within_30m": 2, "data_tier": "real"}}, {"type": "Feature", "geometry": {"type": "LineString", "coordinates": [[-87.67845454545454, 41.910636363636364], [-87.68059090909091, 41.91222727272727], [-87.68272727272728, 41.913818181818186]]}, "properties": {"segment_id": "10", "street": "MILWAUKEE AVE", "facility_type_raw": "BIKE LANE", "facility_category": "painted", "length_m": 500.4, "crashes_within_30m": 2, "data_tier": "real"}}, {"type": "Feature", "geometry": {"type": "LineString", "coordinates": [[-87.68272727272728, 41.913818181818186], [-87.68486363636363, 41.915409090909094], [-87.687, 41.917]]}, "properties": {"segment_id": "11", "street": "MILWAUKEE AVE", "facility_type_raw": "BIKE LANE", "facility_category": "painted", "length_m": 500.4, "crashes_within_30m": 2, "data_tier": "real"}}, {"type": "Feature", "geometry": {"type": "LineString", "coordinates": [[-87.687, 41.917], [-87.68943333333333, 41.91843333333333], [-87.69186666666667, 41.91986666666667]]}, "properties": {"segment_id": "12", "street": "MILWAUKEE AVE", "facility_type_raw": "BIKE LANE", "facility_category": "painted", "length_m": 514.0, "crashes_within_30m": 3, "data_tier": "real"}}, {"type": "Feature", "geometry": {"type": "LineString", "coordinates": [[-87.69186666666667, 41.91986666666667], [-87.6943, 41.9213], [-87.69673333333333, 41.92273333333333]]}, "properties": {"segment_id": "13", "street": "MILWAUKEE AVE", "facility_type_raw": "BIKE LANE", "facility_category": "painted", "length_m": 514.0, "crashes_within_30m": 3, "data_tier": "real"}}, {"type": "Feature", "geometry": {"type": "LineString", "coordinates": [[-87.69673333333333, 41.92273333333333], [-87.69916666666667, 41.924166666666665], [-87.7016, 41.9256]]}, "properties": {"segment_id": "14", "street": "MILWAUKEE AVE", "facility_type_raw": "BIKE LANE", "facility_category": "painted", "length_m": 514.0, "crashes_within_30m": 0, "data_tier": "real"}}, {"type": "Feature", "geometry": {"type": "LineString", "coordinates": [[-87.7016, 41.9256], [-87.70403333333333, 41.927033333333334], [-87.70646666666667, 41.928466666666665]]}, "properties": {"segment_id": "15", "street": "MILWAUKEE AVE", "facility_type_raw": "BIKE LANE", "facility_category": "painted", "length_m": 513.9, "crashes_within_30m": 1, "data_tier": "real"}}, {"type": "Feature", "geometry": {"type": "LineString", "coordinates": [[-87.70646666666667, 41.928466666666665], [-87.7089, 41.9299], [-87.71133333333333, 41.931333333333335]]}, "properties": {"segment_id": "16", "street": "MILWAUKEE AVE", "facility_type_raw": "BIKE LANE", "facility_category": "painted", "length_m": 513.9, "crashes_within_30m": 4, "data_tier": "real"}}, {"type": "Feature", "geometry": {"type": "LineString", "coordinates": [[-87.71133333333333, 41.931333333333335], [-87.71376666666667, 41.932766666666666], [-87.7162, 41.934200000000004]]}, "properties": {"segment_id": "17", "street": "MILWAUKEE AVE", "facility_type_raw": "BIKE LANE", "facility_category": "painted", "length_m": 513.9, "crashes_within_30m": 2, "data_tier": "real"}}, {"type": "Feature", "geometry": {"type": "LineString", "coordinates": [[-87.7162, 41.934200000000004], [-87.71863333333333, 41.935633333333335], [-87.72106666666667, 41.93706666666667]]}, "properties": {"segment_id": "18", "street": "MILWAUKEE AVE", "facility_type_raw": "BIKE LANE", "facility_category": "painted", "length_m": 513.9, "crashes_within_30m": 3, "data_tier": "real"}}, {"type": "Feature", "geometry": {"type": "LineString", "coordinates": [[-87.72106666666667, 41.93706666666667], [-87.7235, 41.938500000000005], [-87.72593333333333, 41.939933333333336]]}, "properties": {"segment_id": "19", "street": "MILWAUKEE AVE", "facility_type_raw": "BIKE LANE", "facility_category": "painted", "length_m": 513.9, "crashes_within_30m": 3, "data_tier": "real"}}, {"type": "Feature", "geometry": {"type": "LineString", "coordinates": [[-87.72593333333333, 41.939933333333336], [-87.72836666666667, 41.94136666666667], [-87.7308, 41.9428]]}, "properties": {"segment_id": "20", "street": "MILWAUKEE AVE", "facility_type_raw": "BIKE LANE", "facility_category": "painted", "length_m": 513.9, "crashes_within_30m": 5, "data_tier": "real"}}, {"type": "Feature", "geometry": {"type": "LineString", "coordinates": [[-87.7308, 41.9428], [-87.73323333333333, 41.94423333333334], [-87.73566666666667, 41.94566666666667]]}, "properties": {"segment_id": "21", "street": "MILWAUKEE AVE", "facility_type_raw": "BIKE LANE", "facility_category": "painted", "length_m": 513.9, "crashes_within_30m": 2, "data_tier": "real"}}, {"type": "Feature", "geometry": {"type": "LineString", "coordinates": [[-87.73566666666667, 41.94566666666667], [-87.7381, 41.9471], [-87.74053333333333, 41.94853333333334]]}, "properties": {"segment_id": "22", "street": "MILWAUKEE AVE", "facility_type_raw": "BIKE LANE", "facility_category": "painted", "length_m": 513.8, "crashes_within_30m": 2, "data_tier": "real"}}, {"type": "Feature", "geometry": {"type": "LineString", "coordinates": [[-87.74053333333333, 41.94853333333334], [-87.74296666666667, 41.94996666666667], [-87.7454, 41.9514]]}, "properties": {"segment_id": "23", "street": "MILWAUKEE AVE", "facility_type_raw": "BIKE LANE", "facility_category": "painted", "length_m": 513.8, "crashes_within_30m": 2, "data_tier": "real"}}, {"type": "Feature", "geometry": {"type": "LineString", "coordinates": [[-87.7454, 41.9514], [-87.74783333333333, 41.95283333333333], [-87.75026666666668, 41.95426666666667]]}, "properties": {"segment_id": "24", "street": "MILWAUKEE AVE", "facility_type_raw": "BIKE LANE", "facility_category": "painted", "length_m": 513.8, "crashes_within_30m": 3, "data_tier": "real"}}, {"type": "Feature", "geometry": {"type": "LineString", "coordinates": [[-87.75026666666668, 41.95426666666667], [-87.7527, 41.9557], [-87.75513333333333, 41.95713333333333]]}, "properties": {"segment_id": "25", "street": "MILWAUKEE AVE", "facility_type_raw": "BIKE LANE", "facility_category": "painted", "length_m": 513.8, "crashes_within_30m": 1, "data_tier": "real"}}, {"type": "Feature", "geometry": {"type": "LineString", "coordinates": [[-87.75513333333333, 41.95713333333333], [-87.75756666666668, 41.95856666666667], [-87.76, 41.96]]}, "properties": {"segment_id": "26", "street": "MILWAUKEE AVE", "facility_type_raw": "BIKE LANE", "facility_category": "painted", "length_m": 513.8, "crashes_within_30m": 8, "data_tier": "real"}}, {"type": "Feature", "geometry": {"type": "LineString", "coordinates": [[-87.676, 41.87], [-87.67606521739131, 41.87228260869565], [-87.6761304347826, 41.8745652173913]]}, "properties": {"segment_id": "27", "street": "DAMEN AVE", "facility_type_raw": "BIKE LANE", "facility_category": "painted", "length_m": 507.0, "crashes_within_30m": 3, "data_tier": "real"}}, {"type": "Feature", "geometry": {"type": "LineString", "coordinates": [[-87.6761304347826, 41.8745652173913], [-87.67619565217392, 41.87684782608695], [-87.67626086956523, 41.87913043478261]]}, "properties": {"segment_id": "28", "street": "DAMEN AVE", "facility_type_raw": "BIKE LANE", "facility_category": "painted", "length_m": 507.0, "crashes_within_30m": 2, "data_tier": "real"}}, {"type": "Feature", "geometry": {"type": "LineString", "coordinates": [[-87.67626086956523, 41.87913043478261], [-87.67632608695652, 41.88141304347826], [-87.67639130434783, 41.88369565217391]]}, "properties": {"segment_id": "29", "street": "DAMEN AVE", "facility_type_raw": "BIKE LANE", "facility_category": "painted", "length_m": 507.0, "crashes_within_30m": 4, "data_tier": "real"}}, {"type": "Feature", "geometry": {"type": "LineString", "coordinates": [[-87.67639130434783, 41.88369565217391], [-87.67645652173913, 41.885978260869564], [-87.67652173913044, 41.888260869565215]]}, "properties": {"segment_id": "30", "street": "DAMEN AVE", "facility_type_raw": "BIKE LANE", "facility_category": "painted", "length_m": 507.0, "crashes_within_30m": 2, "data_tier": "real"}}, {"type": "Feature", "geometry": {"type": "LineString", "coordinates": [[-87.67652173913044, 41.888260869565215], [-87.67658695652175, 41.89054347826087], [-87.67665217391304, 41.89282608695652]]}, "properties": {"segment_id": "31", "street": "DAMEN AVE", "facility_type_raw": "BIKE LANE", "facility_category": "painted", "length_m": 507.0, "crashes_within_30m": 1, "data_tier": "real"}}, {"type": "Feature", "geometry": {"type": "LineString", "coordinates": [[-87.67665217391304, 41.89282608695652], [-87.67671739130435, 41.89510869565217], [-87.67678260869566, 41.89739130434783]]}, "properties": {"segment_id": "32", "street": "DAMEN AVE", "facility_type_raw": "BIKE LANE", "facility_category": "painted", "length_m": 507.0, "crashes_within_30m": 1, "data_tier": "real"}}, {"type": "Feature", "geometry": {"type": "LineString", "coordinates": [[-87.67678260869566, 41.89739130434783], [-87.67684782608696, 41.89967391304348], [-87.67691304347827, 41.90195652173913]]}, "properties": {"segment_id": "33", "street": "DAMEN AVE", "facility_type_raw": "BIKE LANE", "facility_category": "painted", "length_m": 507.0, "crashes_within_30m": 5, "data_tier": "real"}}, {"type": "Feature", "geometry": {"type": "LineString", "coordinates": [[-87.67691304347827, 41.90195652173913], [-87.67697826086956, 41.90423913043478], [-87.67704347826087, 41.90652173913043]]}, "properties": {"segment_id": "34", "street": "DAMEN AVE", "facility_type_raw": "BIKE LANE", "facility_category": "painted", "length_m": 507.0, "crashes_within_30m": 1, "data_tier": "real"}}, {"type": "Feature", "geometry": {"type": "LineString", "coordinates": [[-87.67704347826087, 41.90652173913043], [-87.67710869565218, 41.908804347826084], [-87.67717391304348, 41.911086956521736]]}, "properties": {"segment_id": "35", "street": "DAMEN AVE", "facility_type_raw": "BIKE LANE", "facility_category": "painted", "length_m": 507.0, "crashes_within_30m": 4, "data_tier": "real"}}, {"type": "Feature", "geometry": {"type": "LineString", "coordinates": [[-87.67717391304348, 41.911086956521736], [-87.67723913043478, 41.91336956521739], [-87.6773043478261, 41.915652173913045]]}, "properties": {"segment_id": "36", "street": "DAMEN AVE", "facility_type_raw": "BIKE LANE", "facility_category": "painted", "length_m": 507.0, "crashes_within_30m": 5, "data_tier": "real"}}, {"type": "Feature", "geometry": {"type": "LineString", "coordinates": [[-87.6773043478261, 41.915652173913045], [-87.67736956521739, 41.9179347826087], [-87.6774347826087, 41.92021739130435]]}, "properties": {"segment_id": "37", "street": "DAMEN AVE", "facility_type_raw": "BIKE LANE", "facility_category": "painted", "length_m": 507.0, "crashes_within_30m": 7, "data_tier": "real"}}, {"type": "Feature", "geometry": {"type": "LineString", "coordinates": [[-87.6774347826087, 41.92021739130435], [-87.67750000000001, 41.9225], [-87.6775652173913, 41.92478260869565]]}, "properties": {"segment_id": "38", "street": "DAMEN AVE", "facility_type_raw": "BIKE LANE", "facility_category": "painted", "length_m": 507.0, "crashes_within_30m": 3, "data_tier": "real"}}, {"type": "Feature", "geometry": {"type": "LineString", "coordinates": [[-87.6775652173913, 41.92478260869565], [-87.67763043478261, 41.9270652173913], [-87.67769565217391, 41.92934782608695]]}, "properties": {"segment_id": "39", "street": "DAMEN AVE", "facility_type_raw": "BIKE LANE", "facility_category": "painted", "length_m": 507.0, "crashes_within_30m": 2, "data_tier": "real"}}, {"type": "Feature", "geometry": {"type": "LineString", "coordinates": [[-87.67769565217391, 41.92934782608695], [-87.67776086956522, 41.93163043478261], [-87.67782608695653, 41.93391304347826]]}, "properties": {"segment_id": "40", "street": "DAMEN AVE", "facility_type_raw": "BIKE LANE", "facility_category": "painted", "length_m": 507.0, "crashes_within_30m": 0, "data_tier": "real"}}, {"type": "Feature", "geometry": {"type": "LineString", "coordinates": [[-87.67782608695653, 41.93391304347826], [-87.67789130434782, 41.936195652173915], [-87.67795652173913, 41.938478260869566]]}, "properties": {"segment_id": "41", "street": "DAMEN AVE", "facility_type_raw": "BIKE LANE", "facility_category": "painted", "length_m": 507.0, "crashes_within_30m": 2, "data_tier": "real"}}, {"type": "Feature", "geometry": {"type": "LineString", "coordinates": [[-87.67795652173913, 41.938478260869566], [-87.67802173913044, 41.94076086956522], [-87.67808695652174, 41.94304347826087]]}, "properties": {"segment_id": "42", "street": "DAMEN AVE", "facility_type_raw": "BIKE LANE", "facility_category": "painted", "length_m": 507.0, "crashes_within_30m": 9, "data_tier": "real"}}, {"type": "Feature", "geometry": {"type": "LineString", "coordinates": [[-87.67808695652174, 41.94304347826087], [-87.67815217391305, 41.94532608695652], [-87.67821739130434, 41.94760869565217]]}, "properties": {"segment_id": "43", "street": "DAMEN AVE", "facility_type_raw": "BIKE LANE", "facility_category": "painted", "length_m": 507.0, "crashes_within_30m": 4, "data_tier": "real"}}, {"type": "Feature", "geometry": {"type": "LineString", "coordinates": [[-87.67821739130434, 41.94760869565217], [-87.67828260869565, 41.94989130434783], [-87.67834782608696, 41.95217391304348]]}, "properties": {"segment_id": "44", "street": "DAMEN AVE", "facility_type_raw": "BIKE LANE", "facility_category": "painted", "length_m": 507.0, "crashes_within_30m": 3, "data_tier": "real"}}, {"type": "Feature", "geometry": {"type": "LineString", "coordinates": [[-87.67834782608696, 41.95217391304348], [-87.67841304347826, 41.95445652173913], [-87.67847826086957, 41.956739130434784]]}, "properties": {"segment_id": "45", "street": "DAMEN AVE", "facility_type_raw": "BIKE LANE", "facility_category": "painted", "length_m": 507.0, "crashes_within_30m": 2, "data_tier": "real"}}, {"type": "Feature", "geometry": {"type": "LineString", "coordinates": [[-87.67847826086957, 41.956739130434784], [-87.67854347826088, 41.959021739130435], [-87.67860869565217, 41.961304347826086]]}, "properties": {"segment_id": "46", "street": "DAMEN AVE", "facility_type_raw": "BIKE LANE", "facility_category": "painted", "length_m": 507.0, "crashes_within_30m": 1, "data_tier": "real"}}, {"type": "Feature", "geometry": {"type": "LineString", "coordinates": [[-87.67860869565217, 41.961304347826086], [-87.67867391304348, 41.96358695652174], [-87.67873913043478, 41.96586956521739]]}, "properties": {"segment_id": "47", "street": "DAMEN AVE", "facility_type_raw": "BIKE LANE", "facility_category": "painted", "length_m": 507.0, "crashes_within_30m": 2, "data_tier": "real"}}, {"type": "Feature", "geometry": {"type": "LineString", "coordinates": [[-87.67873913043478, 41.96586956521739], [-87.67880434782609, 41.96815217391305], [-87.6788695652174, 41.9704347826087]]}, "properties": {"segment_id": "48", "street": "DAMEN AVE", "facility_type_raw": "BIKE LANE", "facility_category": "painted", "length_m": 507.0, "crashes_within_30m": 2, "data_tier": "real"}}, {"type": "Feature", "geometry": {"type": "LineString", "coordinates": [[-87.6788695652174, 41.9704347826087], [-87.67893478260869, 41.97271739130435], [-87.679, 41.975]]}, "properties": {"segment_id": "49", "street": "DAMEN AVE", "facility_type_raw": "BIKE LANE", "facility_category": "painted", "length_m": 507.0, "crashes_within_30m": 3, "data_tier": "real"}}, {"type": "Feature", "geometry": {"type": "LineString", "coordinates": [[-87.646, 41.845], [-87.64606521739131, 41.84728260869565], [-87.6461304347826, 41.8495652173913]]}, "properties": {"segment_id": "50", "street": "HALSTED ST", "facility_type_raw": "BIKE LANE", "facility_category": "painted", "length_m": 507.0, "crashes_within_30m": 3, "data_tier": "real"}}, {"type": "Feature", "geometry": {"type": "LineString", "coordinates": [[-87.6461304347826, 41.8495652173913], [-87.64619565217392, 41.85184782608695], [-87.64626086956522, 41.85413043478261]]}, "properties": {"segment_id": "51", "street": "HALSTED ST", "facility_type_raw": "BIKE LANE", "facility_category": "painted", "length_m": 507.0, "crashes_within_30m": 1, "data_tier": "real"}}, {"type": "Feature", "geometry": {"type": "LineString", "coordinates": [[-87.64626086956522, 41.85413043478261], [-87.64632608695652, 41.85641304347826], [-87.64639130434783, 41.858695652173914]]}, "properties": {"segment_id": "52", "street": "HALSTED ST", "facility_type_raw": "BIKE LANE", "facility_category": "painted", "length_m": 507.0, "crashes_within_30m": 4, "data_tier": "real"}}, {"type": "Feature", "geometry": {"type": "LineString", "coordinates": [[-87.64639130434783, 41.858695652173914], [-87.64645652173913, 41.860978260869565], [-87.64652173913043, 41.86326086956522]]}, "properties": {"segment_id": "53", "street": "HALSTED ST", "facility_type_raw": "BIKE LANE", "facility_category": "painted", "length_m": 507.0, "crashes_within_30m": 2, "data_tier": "real"}}, {"type": "Feature", "geometry": {"type": "LineString", "coordinates": [[-87.64652173913043, 41.86326086956522], [-87.64658695652174, 41.86554347826087], [-87.64665217391304, 41.86782608695652]]}, "properties": {"segment_id": "54", "street": "HALSTED ST", "facility_type_raw": "BIKE LANE", "facility_category": "painted", "length_m": 507.0, "crashes_within_30m": 2, "data_tier": "real"}}, {"type": "Feature", "geometry": {"type": "LineString", "coordinates": [[-87.64665217391304, 41.86782608695652], [-87.64671739130435, 41.87010869565217], [-87.64678260869566, 41.87239130434783]]}, "properties": {"segment_id": "55", "street": "HALSTED ST", "facility_type_raw": "BIKE LANE", "facility_category": "painted", "length_m": 507.0, "crashes_within_30m": 1, "data_tier": "real"}}, {"type": "Feature", "geometry": {"type": "LineString", "coordinates": [[-87.64678260869566, 41.87239130434783], [-87.64684782608695, 41.87467391304348], [-87.64691304347826, 41.87695652173913]]}, "properties": {"segment_id": "56", "street": "HALSTED ST", "facility_type_raw": "BIKE LANE", "facility_category": "painted", "length_m": 507.0, "crashes_within_30m": 3, "data_tier": "real"}}, {"type": "Feature", "geometry": {"type": "LineString", "coordinates": [[-87.64691304347826, 41.87695652173913], [-87.64697826086956, 41.87923913043478], [-87.64704347826087, 41.881521739130434]]}, "properties": {"segment_id": "57", "street": "HALSTED ST", "facility_type_raw": "BIKE LANE", "facility_category": "painted", "length_m": 507.0, "crashes_within_30m": 1, "data_tier": "real"}}, {"type": "Feature", "geometry": {"type": "LineString", "coordinates": [[-87.64704347826087, 41.881521739130434], [-87.64710869565218, 41.883804347826086], [-87.64717391304347, 41.88608695652174]]}, "properties": {"segment_id": "58", "street": "HALSTED ST", "facility_type_raw": "BIKE LANE", "facility_category": "painted", "length_m": 507.0, "crashes_within_30m": 0, "data_tier": "real"}}, {"type": "Feature", "geometry": {"type": "LineString", "coordinates": [[-87.64717391304347, 41.88608695652174], [-87.64723913043478, 41.88836956521739], [-87.6473043478261, 41.89065217391305]]}, "properties": {"segment_id": "59", "street": "HALSTED ST", "facility_type_raw": "BIKE LANE", "facility_category": "painted", "length_m": 507.0, "crashes_within_30m": 2, "data_tier": "real"}}, {"type": "Feature", "geometry": {"type": "LineString", "coordinates": [[-87.6473043478261, 41.89065217391305], [-87.64736956521739, 41.8929347826087], [-87.6474347826087, 41.89521739130435]]}, "properties": {"segment_id": "60", "street": "HALSTED ST", "facility_type_raw": "BIKE LANE", "facility_category": "painted", "length_m": 507.0, "crashes_within_30m": 2, "data_tier": "real"}}, {"type": "Feature", "geometry": {"type": "LineString", "coordinates": [[-87.6474347826087, 41.89521739130435], [-87.64750000000001, 41.8975], [-87.6475652173913, 41.89978260869565]]}, "properties": {"segment_id": "61", "street": "HALSTED ST", "facility_type_raw": "BIKE LANE", "facility_category": "painted", "length_m": 507.0, "crashes_within_30m": 1, "data_tier": "real"}}, {"type": "Feature", "geometry": {"type": "LineString", "coordinates": [[-87.6475652173913, 41.89978260869565], [-87.64763043478261, 41.9020652173913], [-87.64769565217391, 41.904347826086955]]}, "properties": {"segment_id": "62", "street": "HALSTED ST", "facility_type_raw": "BIKE LANE", "facility_category": "painted", "length_m": 507.0, "crashes_within_30m": 1, "data_tier": "real"}}, {"type": "Feature", "geometry": {"type": "LineString", "coordinates": [[-87.64769565217391, 41.904347826086955], [-87.64776086956522, 41.90663043478261], [-87.64782608695653, 41.908913043478265]]}, "properties": {"segment_id": "63", "street": "HALSTED ST", "facility_type_raw": "BIKE LANE", "facility_category": "painted", "length_m": 507.0, "crashes_within_30m": 4, "data_tier": "real"}}, {"type": "Feature", "geometry": {"type": "LineString", "coordinates": [[-87.64782608695653, 41.908913043478265], [-87.64789130434782, 41.911195652173916], [-87.64795652173913, 41.91347826086957]]}, "properties": {"segment_id": "64", "street": "HALSTED ST", "facility_type_raw": "BIKE LANE", "facility_category": "painted", "length_m": 507.0, "crashes_within_30m": 3, "data_tier": "real"}}, {"type": "Feature", "geometry": {"type": "LineString", "coordinates": [[-87.64795652173913, 41.91347826086957], [-87.64802173913044, 41.91576086956522], [-87.64808695652174, 41.91804347826087]]}, "properties": {"segment_id": "65", "street": "HALSTED ST", "facility_type_raw": "BIKE LANE", "facility_category": "painted", "length_m": 507.0, "crashes_within_30m": 5, "data_tier": "real"}}, {"type": "Feature", "geometry": {"type": "LineString", "coordinates": [[-87.64808695652174, 41.91804347826087], [-87.64815217391305, 41.92032608695652], [-87.64821739130434, 41.92260869565217]]}, "properties": {"segment_id": "66", "street": "HALSTED ST", "facility_type_raw": "BIKE LANE", "facility_category": "painted", "length_m": 507.0, "crashes_within_30m": 3, "data_tier": "real"}}, {"type": "Feature", "geometry": {"type": "LineString", "coordinates": [[-87.64821739130434, 41.92260869565217], [-87.64828260869565, 41.92489130434783], [-87.64834782608696, 41.92717391304348]]}, "properties": {"segment_id": "67", "street": "HALSTED ST", "facility_type_raw": "BIKE LANE", "facility_category": "painted", "length_m": 507.0, "crashes_within_30m": 2, "data_tier": "real"}}, {"type": "Feature", "geometry": {"type": "LineString", "coordinates": [[-87.64834782608696, 41.92717391304348], [-87.64841304347826, 41.929456521739134], [-87.64847826086957, 41.931739130434785]]}, "properties": {"segment_id": "68", "street": "HALSTED ST", "facility_type_raw": "BIKE LANE", "facility_category": "painted", "length_m": 507.0, "crashes_within_30m": 4, "data_tier": "real"}}, {"type": "Feature", "geometry": {"type": "LineString", "coordinates": [[-87.64847826086957, 41.931739130434785], [-87.64854347826088, 41.934021739130436], [-87.64860869565217, 41.93630434782609]]}, "properties": {"segment_id": "69", "street": "HALSTED ST", "facility_type_raw": "BIKE LANE", "facility_category": "painted", "length_m": 507.0, "crashes_within_30m": 6, "data_tier": "real"}}, {"type": "Feature", "geometry": {"type": "LineString", "coordinates": [[-87.64860869565217, 41.93630434782609], [-87.64867391304348, 41.93858695652174], [-87.64873913043478, 41.94086956521739]]}, "properties": {"segment_id": "70", "street": "HALSTED ST", "facility_type_raw": "BIKE LANE", "facility_category": "painted", "length_m": 507.0, "crashes_within_30m": 2, "data_tier": "real"}}, {"type": "Feature", "geometry": {"type": "LineString", "coordinates": [[-87.64873913043478, 41.94086956521739], [-87.64880434782609, 41.94315217391305], [-87.6488695652174, 41.9454347826087]]}, "properties": {"segment_id": "71", "street": "HALSTED ST", "facility_type_raw": "BIKE LANE", "facility_category": "painted", "length_m": 507.0, "crashes_within_30m": 3, "data_tier": "real"}}, {"type": "Feature", "geometry": {"type": "LineString", "coordinates": [[-87.6488695652174, 41.9454347826087], [-87.64893478260869, 41.94771739130435], [-87.649, 41.95]]}, "properties": {"segment_id": "72", "street": "HALSTED ST", "facility_type_raw": "BIKE LANE", "facility_category": "painted", "length_m": 507.0, "crashes_within_30m": 4, "data_tier": "real"}}, {"type": "Feature", "geometry": {"type": "LineString", "coordinates": [[-87.631, 41.9], [-87.63185294117648, 41.90220588235294], [-87.63270588235294, 41.904411764705884]]}, "properties": {"segment_id": "73", "street": "CLARK ST", "facility_type_raw": "PROTECTED BIKE LANE", "facility_category": "protected", "length_m": 509.9, "crashes_within_30m": 6, "data_tier": "real"}}, {"type": "Feature", "geometry": {"type": "LineString", "coordinates": [[-87.63270588235294, 41.904411764705884], [-87.63355882352941, 41.90661764705882], [-87.63441176470589, 41.90882352941176]]}, "properties": {"segment_id": "74", "street": "CLARK ST", "facility_type_raw": "PROTECTED BIKE LANE", "facility_category": "protected", "length_m": 509.9, "crashes_within_30m": 1, "data_tier": "real"}}, {"type": "Feature", "geometry": {"type": "LineString", "coordinates": [[-87.63441176470589, 41.90882352941176], [-87.63526470588235, 41.9110294117647], [-87.63611764705882, 41.91323529411765]]}, "properties": {"segment_id": "75", "street": "CLARK ST", "facility_type_raw": "PROTECTED BIKE LANE", "facility_category": "protected", "length_m": 509.9, "crashes_within_30m": 4, "data_tier": "real"}}, {"type": "Feature", "geometry": {"type": "LineString", "coordinates": [[-87.63611764705882, 41.91323529411765], [-87.6369705882353, 41.91544117647059], [-87.63782352941176, 41.917647058823526]]}, "properties": {"segment_id": "76", "street": "CLARK ST", "facility_type_raw": "PROTECTED BIKE LANE", "facility_category": "protected", "length_m": 509.9, "crashes_within_30m": 2, "data_tier": "real"}}, {"type": "Feature", "geometry": {"type": "LineString", "coordinates": [[-87.63782352941176, 41.917647058823526], [-87.63867647058824, 41.91985294117647], [-87.6395294117647, 41.92205882352941]]}, "properties": {"segment_id": "77", "street": "CLARK ST", "facility_type_raw": "PROTECTED BIKE LANE", "facility_category": "protected", "length_m": 509.9, "crashes_within_30m": 6, "data_tier": "real"}}, {"type": "Feature", "geometry": {"type": "LineString", "coordinates": [[-87.6395294117647, 41.92205882352941], [-87.64038235294117, 41.92426470588235], [-87.64123529411765, 41.9264705882353]]}, "properties": {"segment_id": "78", "street": "CLARK ST", "facility_type_raw": "PROTECTED BIKE LANE", "facility_category": "protected", "length_m": 509.9, "crashes_within_30m": 3, "data_tier": "real"}}, {"type": "Feature", "geometry": {"type": "LineString", "coordinates": [[-87.64123529411765, 41.9264705882353], [-87.64208823529411, 41.928676470588236], [-87.64294117647059, 41.930882352941175]]}, "properties": {"segment_id": "79", "street": "CLARK ST", "facility_type_raw": "PROTECTED BIKE LANE", "facility_category": "protected", "length_m": 509.9, "crashes_within_30m": 2, "data_tier": "real"}}, {"type": "Feature", "geometry": {"type": "LineString", "coordinates": [[-87.64294117647059, 41.930882352941175], [-87.64379411764706, 41.933088235294115], [-87.64464705882352, 41.93529411764706]]}, "properties": {"segment_id": "80", "street": "CLARK ST", "facility_type_raw": "PROTECTED BIKE LANE", "facility_category": "protected", "length_m": 509.9, "crashes_within_30m": 3, "data_tier": "real"}}, {"type": "Feature", "geometry": {"type": "LineString", "coordinates": [[-87.64464705882352, 41.93529411764706], [-87.6455, 41.9375], [-87.64635294117647, 41.93970588235294]]}, "properties": {"segment_id": "81", "street": "CLARK ST", "facility_type_raw": "PROTECTED BIKE LANE", "facility_category": "protected", "length_m": 509.9, "crashes_within_30m": 6, "data_tier": "real"}}, {"type": "Feature", "geometry": {"type": "LineString", "coordinates": [[-87.64635294117647, 41.93970588235294], [-87.64720588235294, 41.941911764705885], [-87.64805882352941, 41.944117647058825]]}, "properties": {"segment_id": "82", "street": "CLARK ST", "facility_type_raw": "PROTECTED BIKE LANE", "facility_category": "protected", "length_m": 509.8, "crashes_within_30m": 9, "data_tier": "real"}}, {"type": "Feature", "geometry": {"type": "LineString", "coordinates": [[-87.64805882352941, 41.944117647058825], [-87.64891176470589, 41.946323529411764], [-87.64976470588235, 41.9485294117647]]}, "properties": {"segment_id": "83", "street": "CLARK ST", "facility_type_raw": "PROTECTED BIKE LANE", "facility_category": "protected", "length_m": 509.8, "crashes_within_30m": 4, "data_tier": "real"}}, {"type": "Feature", "geometry": {"type": "LineString", "coordinates": [[-87.64976470588235, 41.9485294117647], [-87.65061764705882, 41.95073529411765], [-87.6514705882353, 41.95294117647059]]}, "properties": {"segment_id": "84", "street": "CLARK ST", "facility_type_raw": "PROTECTED BIKE LANE", "facility_category": "protected", "length_m": 509.8, "crashes_within_30m": 4, "data_tier": "real"}}, {"type": "Feature", "geometry": {"type": "LineString", "coordinates": [[-87.6514705882353, 41.95294117647059], [-87.65232352941176, 41.95514705882353], [-87.65317647058824, 41.957352941176474]]}, "properties": {"segment_id": "85", "street": "CLARK ST", "facility_type_raw": "PROTECTED BIKE LANE", "facility_category": "protected", "length_m": 509.8, "crashes_within_30m": 3, "data_tier": "real"}}, {"type": "Feature", "geometry": {"type": "LineString", "coordinates": [[-87.65317647058824, 41.957352941176474], [-87.6540294117647, 41.95955882352941], [-87.65488235294117, 41.96176470588235]]}, "properties": {"segment_id": "86", "street": "CLARK ST", "facility_type_raw": "PROTECTED BIKE LANE", "facility_category": "protected", "length_m": 509.8, "crashes_within_30m": 3, "data_tier": "real"}}, {"type": "Feature", "geometry": {"type": "LineString", "coordinates": [[-87.65488235294117, 41.96176470588235], [-87.65573529411765, 41.9639705882353], [-87.65658823529411, 41.96617647058824]]}, "properties": {"segment_id": "87", "street": "CLARK ST", "facility_type_raw": "PROTECTED BIKE LANE", "facility_category": "protected", "length_m": 509.8, "crashes_within_30m": 3, "data_tier": "real"}}, {"type": "Feature", "geometry": {"type": "LineString", "coordinates": [[-87.65658823529411, 41.96617647058824], [-87.65744117647058, 41.96838235294118], [-87.65829411764706, 41.970588235294116]]}, "properties": {"segment_id": "88", "street": "CLARK ST", "facility_type_raw": "PROTECTED BIKE LANE", "facility_category": "protected", "length_m": 509.8, "crashes_within_30m": 2, "data_tier": "real"}}, {"type": "Feature", "geometry": {"type": "LineString", "coordinates": [[-87.65829411764706, 41.970588235294116], [-87.65914705882352, 41.97279411764706], [-87.66, 41.975]]}, "properties": {"segment_id": "89", "street": "CLARK ST", "facility_type_raw": "PROTECTED BIKE LANE", "facility_category": "protected", "length_m": 509.8, "crashes_within_30m": 4, "data_tier": "real"}}, {"type": "Feature", "geometry": {"type": "LineString", "coordinates": [[-87.629, 41.87], [-87.629, 41.87230769230769], [-87.629, 41.87461538461538]]}, "properties": {"segment_id": "90", "street": "DEARBORN ST", "facility_type_raw": "PROTECTED BIKE LANE", "facility_category": "protected", "length_m": 512.4, "crashes_within_30m": 9, "data_tier": "real"}}, {"type": "Feature", "geometry": {"type": "LineString", "coordinates": [[-87.629, 41.87461538461538], [-87.629, 41.87692307692308], [-87.629, 41.879230769230766]]}, "properties": {"segment_id": "91", "street": "DEARBORN ST", "facility_type_raw": "PROTECTED BIKE LANE", "facility_category": "protected", "length_m": 512.4, "crashes_within_30m": 8, "data_tier": "real"}}, {"type": "Feature", "geometry": {"type": "LineString", "coordinates": [[-87.629, 41.879230769230766], [-87.629, 41.88153846153846], [-87.629, 41.88384615384615]]}, "properties": {"segment_id": "92", "street": "DEARBORN ST", "facility_type_raw": "PROTECTED BIKE LANE", "facility_category": "protected", "length_m": 512.4, "crashes_within_30m": 13, "data_tier": "real"}}, {"type": "Feature", "geometry": {"type": "LineString", "coordinates": [[-87.629, 41.88384615384615], [-87.629, 41.886153846153846], [-87.629, 41.888461538461534]]}, "properties": {"segment_id": "93", "street": "DEARBORN ST", "facility_type_raw": "PROTECTED BIKE LANE", "facility_category": "protected", "length_m": 512.4, "crashes_within_30m": 4, "data_tier": "real"}}, {"type": "Feature", "geometry": {"type": "LineString", "coordinates": [[-87.629, 41.888461538461534], [-87.629, 41.89076923076923], [-87.629, 41.89307692307692]]}, "properties": {"segment_id": "94", "street": "DEARBORN ST", "facility_type_raw": "PROTECTED BIKE LANE", "facility_category": "protected", "length_m": 512.4, "crashes_within_30m": 10, "data_tier": "real"}}, {"type": "Feature", "geometry": {"type": "LineString", "coordinates": [[-87.629, 41.89307692307692], [-87.629, 41.895384615384614], [-87.629, 41.8976923076923]]}, "properties": {"segment_id": "95", "street": "DEARBORN ST", "facility_type_raw": "PROTECTED BIKE LANE", "facility_category": "protected", "length_m": 512.4, "crashes_within_30m": 4, "data_tier": "real"}}, {"type": "Feature", "geometry": {"type": "LineString", "coordinates": [[-87.629, 41.8976923076923], [-87.629, 41.9]]}, "properties": {"segment_id": "96", "street": "DEARBORN ST", "facility_type_raw": "PROTECTED BIKE LANE", "facility_category": "protected", "length_m": 256.2, "crashes_within_30m": 9, "data_tier": "real"}}, {"type": "Feature", "geometry": {"type": "LineString", "coordinates": [[-87.66, 41.9], [-87.66199999999999, 41.90175], [-87.664, 41.9035]]}, "properties": {"segment_id": "97", "street": "ELSTON AVE", "facility_type_raw": "BUFFERED BIKE LANE", "facility_category": "buffered", "length_m": 511.0, "crashes_within_30m": 5, "data_tier": "real"}}, {"type": "Feature", "geometry": {"type": "LineString", "coordinates": [[-87.664, 41.9035], [-87.666, 41.905249999999995], [-87.66799999999999, 41.907]]}, "properties": {"segment_id": "98", "street": "ELSTON AVE", "facility_type_raw": "BUFFERED BIKE LANE", "facility_category": "buffered", "length_m": 511.0, "crashes_within_30m": 4, "data_tier": "real"}}, {"type": "Feature", "geometry": {"type": "LineString", "coordinates": [[-87.66799999999999, 41.907], [-87.67, 41.90875], [-87.672, 41.9105]]}, "properties": {"segment_id": "99", "street": "ELSTON AVE", "facility_type_raw": "BUFFERED BIKE LANE", "facility_category": "buffered", "length_m": 511.0, "crashes_within_30m": 2, "data_tier": "real"}}, {"type": "Feature", "geometry": {"type": "LineString", "coordinates": [[-87.672, 41.9105], [-87.67399999999999, 41.91225], [-87.676, 41.914]]}, "properties": {"segment_id": "100", "street": "ELSTON AVE", "facility_type_raw": "BUFFERED BIKE LANE", "facility_category": "buffered", "length_m": 510.9, "crashes_within_30m": 3, "data_tier": "real"}}, {"type": "Feature", "geometry": {"type": "LineString", "coordinates": [[-87.676, 41.914], [-87.678, 41.915749999999996], [-87.67999999999999, 41.9175]]}, "properties": {"segment_id": "101", "street": "ELSTON AVE", "facility_type_raw": "BUFFERED BIKE LANE", "facility_category": "buffered", "length_m": 510.9, "crashes_within_30m": 1, "data_tier": "real"}}, {"type": "Feature", "geometry": {"type": "LineString", "coordinates": [[-87.67999999999999, 41.9175], [-87.682, 41.91925], [-87.684, 41.921]]}, "properties": {"segment_id": "102", "street": "ELSTON AVE", "facility_type_raw": "BUFFERED BIKE LANE", "facility_category": "buffered", "length_m": 510.9, "crashes_within_30m": 6, "data_tier": "real"}}, {"type": "Feature", "geometry": {"type": "LineString", "coordinates": [[-87.684, 41.921], [-87.68599999999999, 41.92275], [-87.688, 41.9245]]}, "properties": {"segment_id": "103", "street": "ELSTON AVE", "facility_type_raw": "BUFFERED BIKE LANE", "facility_category": "buffered", "length_m": 510.9, "crashes_within_30m": 5, "data_tier": "real"}}, {"type": "Feature", "geometry": {"type": "LineString", "coordinates": [[-87.688, 41.9245], [-87.69, 41.926249999999996], [-87.692, 41.928]]}, "properties": {"segment_id": "104", "street": "ELSTON AVE", "facility_type_raw": "BUFFERED BIKE LANE", "facility_category": "buffered", "length_m": 510.9, "crashes_within_30m": 4, "data_tier": "real"}}, {"type": "Feature", "geometry": {"type": "LineString", "coordinates": [[-87.692, 41.928], [-87.694, 41.92975], [-87.696, 41.9315]]}, "properties": {"segment_id": "105", "street": "ELSTON AVE", "facility_type_raw": "BUFFERED BIKE LANE", "facility_category": "buffered", "length_m": 510.9, "crashes_within_30m": 3, "data_tier": "real"}}, {"type": "Feature", "geometry": {"type": "LineString", "coordinates": [[-87.696, 41.9315], [-87.698, 41.93325], [-87.69999999999999, 41.935]]}, "properties": {"segment_id": "106", "street": "ELSTON AVE", "facility_type_raw": "BUFFERED BIKE LANE", "facility_category": "buffered", "length_m": 510.9, "crashes_within_30m": 2, "data_tier": "real"}}, {"type": "Feature", "geometry": {"type": "LineString", "coordinates": [[-87.69999999999999, 41.935], [-87.702, 41.936749999999996], [-87.704, 41.9385]]}, "properties": {"segment_id": "107", "street": "ELSTON AVE", "facility_type_raw": "BUFFERED BIKE LANE", "facility_category": "buffered", "length_m": 510.9, "crashes_within_30m": 1, "data_tier": "real"}}, {"type": "Feature", "geometry": {"type": "LineString", "coordinates": [[-87.704, 41.9385], [-87.70599999999999, 41.94025], [-87.708, 41.942]]}, "properties": {"segment_id": "108", "street": "ELSTON AVE", "facility_type_raw": "BUFFERED BIKE LANE", "facility_category": "buffered", "length_m": 510.9, "crashes_within_30m": 3, "data_tier": "real"}}, {"type": "Feature", "geometry": {"type": "LineString", "coordinates": [[-87.708, 41.942], [-87.71, 41.94375], [-87.71199999999999, 41.945499999999996]]}, "properties": {"segment_id": "109", "street": "ELSTON AVE", "facility_type_raw": "BUFFERED BIKE LANE", "facility_category": "buffered", "length_m": 510.8, "crashes_within_30m": 4, "data_tier": "real"}}, {"type": "Feature", "geometry": {"type": "LineString", "coordinates": [[-87.71199999999999, 41.945499999999996], [-87.714, 41.94725], [-87.716, 41.949]]}, "properties": {"segment_id": "110", "street": "ELSTON AVE", "facility_type_raw": "BUFFERED BIKE LANE", "facility_category": "buffered", "length_m": 510.8, "crashes_within_30m": 3, "data_tier": "real"}}, {"type": "Feature", "geometry": {"type": "LineString", "coordinates": [[-87.716, 41.949], [-87.71799999999999, 41.95075], [-87.72, 41.9525]]}, "properties": {"segment_id": "111", "street": "ELSTON AVE", "facility_type_raw": "BUFFERED BIKE LANE", "facility_category": "buffered", "length_m": 510.8, "crashes_within_30m": 8, "data_tier": "real"}}, {"type": "Feature", "geometry": {"type": "LineString", "coordinates": [[-87.72, 41.9525], [-87.722, 41.95425], [-87.72399999999999, 41.955999999999996]]}, "properties": {"segment_id": "112", "street": "ELSTON AVE", "facility_type_raw": "BUFFERED BIKE LANE", "facility_category": "buffered", "length_m": 510.8, "crashes_within_30m": 2, "data_tier": "real"}}, {"type": "Feature", "geometry": {"type": "LineString", "coordinates": [[-87.72399999999999, 41.955999999999996], [-87.726, 41.95775], [-87.728, 41.9595]]}, "properties": {"segment_id": "113", "street": "ELSTON AVE", "facility_type_raw": "BUFFERED BIKE LANE", "facility_category": "buffered", "length_m": 510.8, "crashes_within_30m": 2, "data_tier": "real"}}, {"type": "Feature", "geometry": {"type": "LineString", "coordinates": [[-87.728, 41.9595], [-87.72999999999999, 41.96125], [-87.732, 41.963]]}, "properties": {"segment_id": "114", "street": "ELSTON AVE", "facility_type_raw": "BUFFERED BIKE LANE", "facility_category": "buffered", "length_m": 510.8, "crashes_within_30m": 4, "data_tier": "real"}}, {"type": "Feature", "geometry": {"type": "LineString", "coordinates": [[-87.732, 41.963], [-87.734, 41.96475], [-87.73599999999999, 41.966499999999996]]}, "properties": {"segment_id": "115", "street": "ELSTON AVE", "facility_type_raw": "BUFFERED BIKE LANE", "facility_category": "buffered", "length_m": 510.8, "crashes_within_30m": 2, "data_tier": "real"}}, {"type": "Feature", "geometry": {"type": "LineString", "coordinates": [[-87.73599999999999, 41.966499999999996], [-87.738, 41.96825], [-87.74, 41.97]]}, "properties": {"segment_id": "116", "street": "ELSTON AVE", "facility_type_raw": "BUFFERED BIKE LANE", "facility_category": "buffered", "length_m": 510.8, "crashes_within_30m": 3, "data_tier": "real"}}, {"type": "Feature", "geometry": {"type": "LineString", "coordinates": [[-87.64, 41.889], [-87.64307692307692, 41.889], [-87.64615384615385, 41.889]]}, "properties": {"segment_id": "117", "street": "KINZIE ST", "facility_type_raw": "PROTECTED BIKE LANE", "facility_category": "protected", "length_m": 510.5, "crashes_within_30m": 14, "data_tier": "real"}}, {"type": "Feature", "geometry": {"type": "LineString", "coordinates": [[-87.64615384615385, 41.889], [-87.64923076923077, 41.889], [-87.6523076923077, 41.889]]}, "properties": {"segment_id": "118", "street": "KINZIE ST", "facility_type_raw": "PROTECTED BIKE LANE", "facility_category": "protected", "length_m": 510.5, "crashes_within_30m": 7, "data_tier": "real"}}, {"type": "Feature", "geometry": {"type": "LineString", "coordinates": [[-87.6523076923077, 41.889], [-87.65538461538462, 41.889], [-87.65846153846154, 41.889]]}, "properties": {"segment_id": "119", "street": "KINZIE ST", "facility_type_raw": "PROTECTED BIKE LANE", "facility_category": "protected", "length_m": 510.6, "crashes_within_30m": 12, "data_tier": "real"}}, {"type": "Feature", "geometry": {"type": "LineString", "coordinates": [[-87.65846153846154, 41.889], [-87.66153846153847, 41.889], [-87.66461538461539, 41.889]]}, "properties": {"segment_id": "120", "street": "KINZIE ST", "facility_type_raw": "PROTECTED BIKE LANE", "facility_category": "protected", "length_m": 510.6, "crashes_within_30m": 12, "data_tier": "real"}}, {"type": "Feature", "geometry": {"type": "LineString", "coordinates": [[-87.66461538461539, 41.889], [-87.6676923076923, 41.889], [-87.67076923076924, 41.889]]}, "properties": {"segment_id": "121", "street": "KINZIE ST", "facility_type_raw": "PROTECTED BIKE LANE", "facility_category": "protected", "length_m": 510.6, "crashes_within_30m": 5, "data_tier": "real"}}, {"type": "Feature", "geometry": {"type": "LineString", "coordinates": [[-87.67076923076924, 41.889], [-87.67384615384616, 41.889], [-87.67692307692309, 41.889]]}, "properties": {"segment_id": "122", "street": "KINZIE ST", "facility_type_raw": "PROTECTED BIKE LANE", "facility_category": "protected", "length_m": 510.6, "crashes_within_30m": 8, "data_tier": "real"}}, {"type": "Feature", "geometry": {"type": "LineString", "coordinates": [[-87.67692307692309, 41.889], [-87.68, 41.889]]}, "properties": {"segment_id": "123", "street": "KINZIE ST", "facility_type_raw": "PROTECTED BIKE LANE", "facility_category": "protected", "length_m": 255.3, "crashes_within_30m": 6, "data_tier": "real"}}, {"type": "Feature", "geometry": {"type": "LineString", "coordinates": [[-87.58, 41.795], [-87.5830303030303, 41.795], [-87.5860606060606, 41.795]]}, "properties": {"segment_id": "124", "street": "55TH ST", "facility_type_raw": "BUFFERED BIKE LANE", "facility_category": "buffered", "length_m": 503.5, "crashes_within_30m": 4, "data_tier": "real"}}, {"type": "Feature", "geometry": {"type": "LineString", "coordinates": [[-87.5860606060606, 41.795], [-87.58909090909091, 41.795], [-87.59212121212121, 41.795]]}, "properties": {"segment_id": "125", "street": "55TH ST", "facility_type_raw": "BUFFERED BIKE LANE", "facility_category": "buffered", "length_m": 503.5, "crashes_within_30m": 3, "data_tier": "real"}}, {"type": "Feature", "geometry": {"type": "LineString", "coordinates": [[-87.59212121212121, 41.795], [-87.59515151515151, 41.795], [-87.59818181818181, 41.795]]}, "properties": {"segment_id": "126", "street": "55TH ST", "facility_type_raw": "BUFFERED BIKE LANE", "facility_category": "buffered", "length_m": 503.5, "crashes_within_30m": 4, "data_tier": "real"}}, {"type": "Feature", "geometry": {"type": "LineString", "coordinates": [[-87.59818181818181, 41.795], [-87.60121212121211, 41.795], [-87.60424242424243, 41.795]]}, "properties": {"segment_id": "127", "street": "55TH ST", "facility_type_raw": "BUFFERED BIKE LANE", "facility_category": "buffered", "length_m": 503.5, "crashes_within_30m": 4, "data_tier": "real"}}, {"type": "Feature", "geometry": {"type": "LineString", "coordinates": [[-87.60424242424243, 41.795], [-87.60727272727273, 41.795], [-87.61030303030303, 41.795]]}, "properties": {"segment_id": "128", "street": "55TH ST", "facility_type_raw": "BUFFERED BIKE LANE", "facility_category": "buffered", "length_m": 503.5, "crashes_within_30m": 7, "data_tier": "real"}}, {"type": "Feature", "geometry": {"type": "LineString", "coordinates": [[-87.61030303030303, 41.795], [-87.61333333333333, 41.795], [-87.61636363636364, 41.795]]}, "properties": {"segment_id": "129", "street": "55TH ST", "facility_type_raw": "BUFFERED BIKE LANE", "facility_category": "buffered", "length_m": 503.5, "crashes_within_30m": 3, "data_tier": "real"}}, {"type": "Feature", "geometry": {"type": "LineString", "coordinates": [[-87.61636363636364, 41.795], [-87.61939393939394, 41.795], [-87.62242424242424, 41.795]]}, "properties": {"segment_id": "130", "street": "55TH ST", "facility_type_raw": "BUFFERED BIKE LANE", "facility_category": "buffered", "length_m": 503.5, "crashes_within_30m": 2, "data_tier": "real"}}, {"type": "Feature", "geometry": {"type": "LineString", "coordinates": [[-87.62242424242424, 41.795], [-87.62545454545455, 41.795], [-87.62848484848485, 41.795]]}, "properties": {"segment_id": "131", "street": "55TH ST", "facility_type_raw": "BUFFERED BIKE LANE", "facility_category": "buffered", "length_m": 503.5, "crashes_within_30m": 3, "data_tier": "real"}}, {"type": "Feature", "geometry": {"type": "LineString", "coordinates": [[-87.62848484848485, 41.795], [-87.63151515151516, 41.795], [-87.63454545454546, 41.795]]}, "properties": {"segment_id": "132", "street": "55TH ST", "facility_type_raw": "BUFFERED BIKE LANE", "facility_category": "buffered", "length_m": 503.5, "crashes_within_30m": 4, "data_tier": "real"}}, {"type": "Feature", "geometry": {"type": "LineString", "coordinates": [[-87.63454545454546, 41.795], [-87.63757575757576, 41.795], [-87.64060606060606, 41.795]]}, "properties": {"segment_id": "133", "street": "55TH ST", "facility_type_raw": "BUFFERED BIKE LANE", "facility_category": "buffered", "length_m": 503.6, "crashes_within_30m": 3, "data_tier": "real"}}, {"type": "Feature", "geometry": {"type": "LineString", "coordinates": [[-87.64060606060606, 41.795], [-87.64363636363636, 41.795], [-87.64666666666668, 41.795]]}, "properties": {"segment_id": "134", "street": "55TH ST", "facility_type_raw": "BUFFERED BIKE LANE", "facility_category": "buffered", "length_m": 503.6, "crashes_within_30m": 3, "data_tier": "real"}}, {"type": "Feature", "geometry": {"type": "LineString", "coordinates": [[-87.64666666666668, 41.795], [-87.64969696969698, 41.795], [-87.65272727272728, 41.795]]}, "properties": {"segment_id": "135", "street": "55TH ST", "facility_type_raw": "BUFFERED BIKE LANE", "facility_category": "buffered", "length_m": 503.6, "crashes_within_30m": 0, "data_tier": "real"}}, {"type": "Feature", "geometry": {"type": "LineString", "coordinates": [[-87.65272727272728, 41.795], [-87.65575757575758, 41.795], [-87.65878787878789, 41.795]]}, "properties": {"segment_id": "136", "street": "55TH ST", "facility_type_raw": "BUFFERED BIKE LANE", "facility_category": "buffered", "length_m": 503.6, "crashes_within_30m": 3, "data_tier": "real"}}, {"type": "Feature", "geometry": {"type": "LineString", "coordinates": [[-87.65878787878789, 41.795], [-87.66181818181819, 41.795], [-87.66484848484849, 41.795]]}, "properties": {"segment_id": "137", "street": "55TH ST", "facility_type_raw": "BUFFERED BIKE LANE", "facility_category": "buffered", "length_m": 503.6, "crashes_within_30m": 3, "data_tier": "real"}}, {"type": "Feature", "geometry": {"type": "LineString", "coordinates": [[-87.66484848484849, 41.795], [-87.66787878787879, 41.795], [-87.67090909090909, 41.795]]}, "properties": {"segment_id": "138", "street": "55TH ST", "facility_type_raw": "BUFFERED BIKE LANE", "facility_category": "buffered", "length_m": 503.6, "crashes_within_30m": 2, "data_tier": "real"}}, {"type": "Feature", "geometry": {"type": "LineString", "coordinates": [[-87.67090909090909, 41.795], [-87.6739393939394, 41.795], [-87.6769696969697, 41.795]]}, "properties": {"segment_id": "139", "street": "55TH ST", "facility_type_raw": "BUFFERED BIKE LANE", "facility_category": "buffered", "length_m": 503.6, "crashes_within_30m": 4, "data_tier": "real"}}, {"type": "Feature", "geometry": {"type": "LineString", "coordinates": [[-87.6769696969697, 41.795], [-87.68, 41.795]]}, "properties": {"segment_id": "140", "street": "55TH ST", "facility_type_raw": "BUFFERED BIKE LANE", "facility_category": "buffered", "length_m": 251.8, "crashes_within_30m": 1, "data_tier": "real"}}, {"type": "Feature", "geometry": {"type": "LineString", "coordinates": [[-87.66, 41.899], [-87.66307692307691, 41.899], [-87.66615384615385, 41.899]]}, "properties": {"segment_id": "141", "street": "AUGUSTA BLVD", "facility_type_raw": "NEIGHBORHOOD GREENWAY", "facility_category": "greenway", "length_m": 510.5, "crashes_within_30m": 9, "data_tier": "real"}}, {"type": "Feature", "geometry": {"type": "LineString", "coordinates": [[-87.66615384615385, 41.899], [-87.66923076923077, 41.899], [-87.67230769230768, 41.899]]}, "properties": {"segment_id": "142", "street": "AUGUSTA BLVD", "facility_type_raw": "NEIGHBORHOOD GREENWAY", "facility_category": "greenway", "length_m": 510.5, "crashes_within_30m": 5, "data_tier": "real"}}, {"type": "Feature", "geometry": {"type": "LineString", "coordinates": [[-87.67230769230768, 41.899], [-87.67538461538462, 41.899], [-87.67846153846153, 41.899]]}, "properties": {"segment_id": "143", "street": "AUGUSTA BLVD", "facility_type_raw": "NEIGHBORHOOD GREENWAY", "facility_category": "greenway", "length_m": 510.5, "crashes_within_30m": 2, "data_tier": "real"}}, {"type": "Feature", "geometry": {"type": "LineString", "coordinates": [[-87.67846153846153, 41.899], [-87.68153846153845, 41.899], [-87.68461538461538, 41.899]]}, "properties": {"segment_id": "144", "street": "AUGUSTA BLVD", "facility_type_raw": "NEIGHBORHOOD GREENWAY", "facility_category": "greenway", "length_m": 510.5, "crashes_within_30m": 3, "data_tier": "real"}}, {"type": "Feature", "geometry": {"type": "LineString", "coordinates": [[-87.68461538461538, 41.899], [-87.6876923076923, 41.899], [-87.69076923076922, 41.899]]}, "properties": {"segment_id": "145", "street": "AUGUSTA BLVD", "facility_type_raw": "NEIGHBORHOOD GREENWAY", "facility_category": "greenway", "length_m": 510.5, "crashes_within_30m": 5, "data_tier": "real"}}, {"type": "Feature", "geometry": {"type": "LineString", "coordinates": [[-87.69076923076922, 41.899], [-87.69384615384615, 41.899], [-87.69692307692307, 41.899]]}, "properties": {"segment_id": "146", "street": "AUGUSTA BLVD", "facility_type_raw": "NEIGHBORHOOD GREENWAY", "facility_category": "greenway", "length_m": 510.5, "crashes_within_30m": 5, "data_tier": "real"}}, {"type": "Feature", "geometry": {"type": "LineString", "coordinates": [[-87.69692307692307, 41.899], [-87.69999999999999, 41.899], [-87.70307692307692, 41.899]]}, "properties": {"segment_id": "147", "street": "AUGUSTA BLVD", "facility_type_raw": "NEIGHBORHOOD GREENWAY", "facility_category": "greenway", "length_m": 510.5, "crashes_within_30m": 6, "data_tier": "real"}}, {"type": "Feature", "geometry": {"type": "LineString", "coordinates": [[-87.70307692307692, 41.899], [-87.70615384615384, 41.899], [-87.70923076923077, 41.899]]}, "properties": {"segment_id": "148", "street": "AUGUSTA BLVD", "facility_type_raw": "NEIGHBORHOOD GREENWAY", "facility_category": "greenway", "length_m": 510.5, "crashes_within_30m": 3, "data_tier": "real"}}, {"type": "Feature", "geometry": {"type": "LineString", "coordinates": [[-87.70923076923077, 41.899], [-87.71230769230769, 41.899], [-87.71538461538461, 41.899]]}, "properties": {"segment_id": "149", "street": "AUGUSTA BLVD", "facility_type_raw": "NEIGHBORHOOD GREENWAY", "facility_category": "greenway", "length_m": 510.5, "crashes_within_30m": 5, "data_tier": "real"}}, {"type": "Feature", "geometry": {"type": "LineString", "coordinates": [[-87.71538461538461, 41.899], [-87.71846153846154, 41.899], [-87.72153846153846, 41.899]]}, "properties": {"segment_id": "150", "street": "AUGUSTA BLVD", "facility_type_raw": "NEIGHBORHOOD GREENWAY", "facility_category": "greenway", "length_m": 510.5, "crashes_within_30m": 6, "data_tier": "real"}}, {"type": "Feature", "geometry": {"type": "LineString", "coordinates": [[-87.72153846153846, 41.899], [-87.72461538461538, 41.899], [-87.72769230769231, 41.899]]}, "properties": {"segment_id": "151", "street": "AUGUSTA BLVD", "facility_type_raw": "NEIGHBORHOOD GREENWAY", "facility_category": "greenway", "length_m": 510.5, "crashes_within_30m": 1, "data_tier": "real"}}, {"type": "Feature", "geometry": {"type": "LineString", "coordinates": [[-87.72769230769231, 41.899], [-87.73076923076923, 41.899], [-87.73384615384614, 41.899]]}, "properties": {"segment_id": "152", "street": "AUGUSTA BLVD", "facility_type_raw": "NEIGHBORHOOD GREENWAY", "facility_category": "greenway", "length_m": 510.5, "crashes_within_30m": 1, "data_tier": "real"}}, {"type": "Feature", "geometry": {"type": "LineString", "coordinates": [[-87.73384615384614, 41.899], [-87.73692307692308, 41.899], [-87.74, 41.899]]}, "properties": {"segment_id": "153", "street": "AUGUSTA BLVD", "facility_type_raw": "NEIGHBORHOOD GREENWAY", "facility_category": "greenway", "length_m": 510.5, "crashes_within_30m": 8, "data_tier": "real"}}, {"type": "Feature", "geometry": {"type": "LineString", "coordinates": [[-87.672, 41.885], [-87.672, 41.88729166666666], [-87.672, 41.889583333333334]]}, "properties": {"segment_id": "154", "street": "WOOD ST", "facility_type_raw": "NEIGHBORHOOD GREENWAY", "facility_category": "greenway", "length_m": 508.9, "crashes_within_30m": 4, "data_tier": "real"}}, {"type": "Feature", "geometry": {"type": "LineString", "coordinates": [[-87.672, 41.889583333333334], [-87.672, 41.891875], [-87.672, 41.89416666666666]]}, "properties": {"segment_id": "155", "street": "WOOD ST", "facility_type_raw": "NEIGHBORHOOD GREENWAY", "facility_category": "greenway", "length_m": 508.9, "crashes_within_30m": 5, "data_tier": "real"}}, {"type": "Feature", "geometry": {"type": "LineString", "coordinates": [[-87.672, 41.89416666666666], [-87.672, 41.89645833333333], [-87.672, 41.89875]]}, "properties": {"segment_id": "156", "street": "WOOD ST", "facility_type_raw": "NEIGHBORHOOD GREENWAY", "facility_category": "greenway", "length_m": 508.9, "crashes_within_30m": 3, "data_tier": "real"}}, {"type": "Feature", "geometry": {"type": "LineString", "coordinates": [[-87.672, 41.89875], [-87.672, 41.901041666666664], [-87.672, 41.90333333333333]]}, "properties": {"segment_id": "157", "street": "WOOD ST", "facility_type_raw": "NEIGHBORHOOD GREENWAY", "facility_category": "greenway", "length_m": 508.9, "crashes_within_30m": 8, "data_tier": "real"}}, {"type": "Feature", "geometry": {"type": "LineString", "coordinates": [[-87.672, 41.90333333333333], [-87.672, 41.905625], [-87.672, 41.907916666666665]]}, "properties": {"segment_id": "158", "street": "WOOD ST", "facility_type_raw": "NEIGHBORHOOD GREENWAY", "facility_category": "greenway", "length_m": 508.9, "crashes_within_30m": 8, "data_tier": "real"}}, {"type": "Feature", "geometry": {"type": "LineString", "coordinates": [[-87.672, 41.907916666666665], [-87.672, 41.91020833333333], [-87.672, 41.912499999999994]]}, "properties": {"segment_id": "159", "street": "WOOD ST", "facility_type_raw": "NEIGHBORHOOD GREENWAY", "facility_category": "greenway", "length_m": 508.9, "crashes_within_30m": 6, "data_tier": "real"}}, {"type": "Feature", "geometry": {"type": "LineString", "coordinates": [[-87.672, 41.912499999999994], [-87.672, 41.914791666666666], [-87.672, 41.91708333333333]]}, "properties": {"segment_id": "160", "street": "WOOD ST", "facility_type_raw": "NEIGHBORHOOD GREENWAY", "facility_category": "greenway", "length_m": 508.9, "crashes_within_30m": 3, "data_tier": "real"}}, {"type": "Feature", "geometry": {"type": "LineString", "coordinates": [[-87.672, 41.91708333333333], [-87.672, 41.919374999999995], [-87.672, 41.92166666666667]]}, "properties": {"segment_id": "161", "street": "WOOD ST", "facility_type_raw": "NEIGHBORHOOD GREENWAY", "facility_category": "greenway", "length_m": 508.9, "crashes_within_30m": 3, "data_tier": "real"}}, {"type": "Feature", "geometry": {"type": "LineString", "coordinates": [[-87.672, 41.92166666666667], [-87.672, 41.92395833333333], [-87.672, 41.926249999999996]]}, "properties": {"segment_id": "162", "street": "WOOD ST", "facility_type_raw": "NEIGHBORHOOD GREENWAY", "facility_category": "greenway", "length_m": 508.9, "crashes_within_30m": 6, "data_tier": "real"}}, {"type": "Feature", "geometry": {"type": "LineString", "coordinates": [[-87.672, 41.926249999999996], [-87.672, 41.92854166666667], [-87.672, 41.93083333333333]]}, "properties": {"segment_id": "163", "street": "WOOD ST", "facility_type_raw": "NEIGHBORHOOD GREENWAY", "facility_category": "greenway", "length_m": 508.9, "crashes_within_30m": 2, "data_tier": "real"}}, {"type": "Feature", "geometry": {"type": "LineString", "coordinates": [[-87.672, 41.93083333333333], [-87.672, 41.933125], [-87.672, 41.93541666666666]]}, "properties": {"segment_id": "164", "street": "WOOD ST", "facility_type_raw": "NEIGHBORHOOD GREENWAY", "facility_category": "greenway", "length_m": 508.9, "crashes_within_30m": 3, "data_tier": "real"}}, {"type": "Feature", "geometry": {"type": "LineString", "coordinates": [[-87.672, 41.93541666666666], [-87.672, 41.93770833333333], [-87.672, 41.94]]}, "properties": {"segment_id": "165", "street": "WOOD ST", "facility_type_raw": "NEIGHBORHOOD GREENWAY", "facility_category": "greenway", "length_m": 508.9, "crashes_within_30m": 9, "data_tier": "real"}}, {"type": "Feature", "geometry": {"type": "LineString", "coordinates": [[-87.635, 41.845], [-87.6375, 41.843676470588235], [-87.64, 41.84235294117647]]}, "properties": {"segment_id": "166", "street": "ARCHER AVE", "facility_type_raw": "SHARED-LANE", "facility_category": "sharrow", "length_m": 508.6, "crashes_within_30m": 8, "data_tier": "real"}}, {"type": "Feature", "geometry": {"type": "LineString", "coordinates": [[-87.64, 41.84235294117647], [-87.6425, 41.8410294117647], [-87.64500000000001, 41.83970588235294]]}, "properties": {"segment_id": "167", "street": "ARCHER AVE", "facility_type_raw": "SHARED-LANE", "facility_category": "sharrow", "length_m": 508.6, "crashes_within_30m": 3, "data_tier": "real"}}, {"type": "Feature", "geometry": {"type": "LineString", "coordinates": [[-87.64500000000001, 41.83970588235294], [-87.64750000000001, 41.838382352941174], [-87.65, 41.83705882352941]]}, "properties": {"segment_id": "168", "street": "ARCHER AVE", "facility_type_raw": "SHARED-LANE", "facility_category": "sharrow", "length_m": 508.7, "crashes_within_30m": 3, "data_tier": "real"}}, {"type": "Feature", "geometry": {"type": "LineString", "coordinates": [[-87.65, 41.83705882352941], [-87.6525, 41.83573529411765], [-87.655, 41.834411764705884]]}, "properties": {"segment_id": "169", "street": "ARCHER AVE", "facility_type_raw": "SHARED-LANE", "facility_category": "sharrow", "length_m": 508.7, "crashes_within_30m": 6, "data_tier": "real"}}, {"type": "Feature", "geometry": {"type": "LineString", "coordinates": [[-87.655, 41.834411764705884], [-87.6575, 41.83308823529411], [-87.66, 41.83176470588235]]}, "properties": {"segment_id": "170", "street": "ARCHER AVE", "facility_type_raw": "SHARED-LANE", "facility_category": "sharrow", "length_m": 508.7, "crashes_within_30m": 2, "data_tier": "real"}}, {"type": "Feature", "geometry": {"type": "LineString", "coordinates": [[-87.66, 41.83176470588235], [-87.66250000000001, 41.830441176470586], [-87.665, 41.82911764705882]]}, "properties": {"segment_id": "171", "street": "ARCHER AVE", "facility_type_raw": "SHARED-LANE", "facility_category": "sharrow", "length_m": 508.7, "crashes_within_30m": 5, "data_tier": "real"}}, {"type": "Feature", "geometry": {"type": "LineString", "coordinates": [[-87.665, 41.82911764705882], [-87.6675, 41.82779411764706], [-87.67, 41.826470588235296]]}, "properties": {"segment_id": "172", "street": "ARCHER AVE", "facility_type_raw": "SHARED-LANE", "facility_category": "sharrow", "length_m": 508.7, "crashes_within_30m": 0, "data_tier": "real"}}, {"type": "Feature", "geometry": {"type": "LineString", "coordinates": [[-87.67, 41.826470588235296], [-87.6725, 41.825147058823525], [-87.675, 41.82382352941176]]}, "properties": {"segment_id": "173", "street": "ARCHER AVE", "facility_type_raw": "SHARED-LANE", "facility_category": "sharrow", "length_m": 508.7, "crashes_within_30m": 4, "data_tier": "real"}}, {"type": "Feature", "geometry": {"type": "LineString", "coordinates": [[-87.675, 41.82382352941176], [-87.67750000000001, 41.8225], [-87.68, 41.821176470588235]]}, "properties": {"segment_id": "174", "street": "ARCHER AVE", "facility_type_raw": "SHARED-LANE", "facility_category": "sharrow", "length_m": 508.7, "crashes_within_30m": 4, "data_tier": "real"}}, {"type": "Feature", "geometry": {"type": "LineString", "coordinates": [[-87.68, 41.821176470588235], [-87.6825, 41.81985294117647], [-87.685, 41.8185294117647]]}, "properties": {"segment_id": "175", "street": "ARCHER AVE", "facility_type_raw": "SHARED-LANE", "facility_category": "sharrow", "length_m": 508.8, "crashes_within_30m": 4, "data_tier": "real"}}, {"type": "Feature", "geometry": {"type": "LineString", "coordinates": [[-87.685, 41.8185294117647], [-87.6875, 41.81720588235294], [-87.69, 41.81588235294117]]}, "properties": {"segment_id": "176", "street": "ARCHER AVE", "facility_type_raw": "SHARED-LANE", "facility_category": "sharrow", "length_m": 508.8, "crashes_within_30m": 5, "data_tier": "real"}}, {"type": "Feature", "geometry": {"type": "LineString", "coordinates": [[-87.69, 41.81588235294117], [-87.6925, 41.81455882352941], [-87.69500000000001, 41.813235294117646]]}, "properties": {"segment_id": "177", "street": "ARCHER AVE", "facility_type_raw": "SHARED-LANE", "facility_category": "sharrow", "length_m": 508.8, "crashes_within_30m": 2, "data_tier": "real"}}, {"type": "Feature", "geometry": {"type": "LineString", "coordinates": [[-87.69500000000001, 41.813235294117646], [-87.6975, 41.81191176470588], [-87.7, 41.81058823529411]]}, "properties": {"segment_id": "178", "street": "ARCHER AVE", "facility_type_raw": "SHARED-LANE", "facility_category": "sharrow", "length_m": 508.8, "crashes_within_30m": 3, "data_tier": "real"}}, {"type": "Feature", "geometry": {"type": "LineString", "coordinates": [[-87.7, 41.81058823529411], [-87.7025, 41.80926470588235], [-87.705, 41.807941176470585]]}, "properties": {"segment_id": "179", "street": "ARCHER AVE", "facility_type_raw": "SHARED-LANE", "facility_category": "sharrow", "length_m": 508.8, "crashes_within_30m": 6, "data_tier": "real"}}, {"type": "Feature", "geometry": {"type": "LineString", "coordinates": [[-87.705, 41.807941176470585], [-87.7075, 41.80661764705882], [-87.71, 41.80529411764706]]}, "properties": {"segment_id": "180", "street": "ARCHER AVE", "facility_type_raw": "SHARED-LANE", "facility_category": "sharrow", "length_m": 508.8, "crashes_within_30m": 3, "data_tier": "real"}}, {"type": "Feature", "geometry": {"type": "LineString", "coordinates": [[-87.71, 41.80529411764706], [-87.7125, 41.803970588235295], [-87.715, 41.802647058823524]]}, "properties": {"segment_id": "181", "street": "ARCHER AVE", "facility_type_raw": "SHARED-LANE", "facility_category": "sharrow", "length_m": 508.8, "crashes_within_30m": 2, "data_tier": "real"}}, {"type": "Feature", "geometry": {"type": "LineString", "coordinates": [[-87.715, 41.802647058823524], [-87.7175, 41.80132352941176], [-87.72, 41.8]]}, "properties": {"segment_id": "182", "street": "ARCHER AVE", "facility_type_raw": "SHARED-LANE", "facility_category": "sharrow", "length_m": 508.9, "crashes_within_30m": 7, "data_tier": "real"}}, {"type": "Feature", "geometry": {"type": "LineString", "coordinates": [[-87.63, 41.72], [-87.62944444444445, 41.72222222222222], [-87.62888888888888, 41.724444444444444]]}, "properties": {"segment_id": "183", "street": "VINCENNES AVE", "facility_type_raw": "SHARED-LANE", "facility_category": "sharrow", "length_m": 502.0, "crashes_within_30m": 2, "data_tier": "real"}}, {"type": "Feature", "geometry": {"type": "LineString", "coordinates": [[-87.62888888888888, 41.724444444444444], [-87.62833333333333, 41.72666666666667], [-87.62777777777778, 41.72888888888889]]}, "properties": {"segment_id": "184", "street": "VINCENNES AVE", "facility_type_raw": "SHARED-LANE", "facility_category": "sharrow", "length_m": 502.0, "crashes_within_30m": 4, "data_tier": "real"}}, {"type": "Feature", "geometry": {"type": "LineString", "coordinates": [[-87.62777777777778, 41.72888888888889], [-87.62722222222222, 41.73111111111111], [-87.62666666666667, 41.733333333333334]]}, "properties": {"segment_id": "185", "street": "VINCENNES AVE", "facility_type_raw": "SHARED-LANE", "facility_category": "sharrow", "length_m": 502.0, "crashes_within_30m": 4, "data_tier": "real"}}, {"type": "Feature", "geometry": {"type": "LineString", "coordinates": [[-87.62666666666667, 41.733333333333334], [-87.6261111111111, 41.73555555555556], [-87.62555555555555, 41.73777777777778]]}, "properties": {"segment_id": "186", "street": "VINCENNES AVE", "facility_type_raw": "SHARED-LANE", "facility_category": "sharrow", "length_m": 502.0, "crashes_within_30m": 5, "data_tier": "real"}}, {"type": "Feature", "geometry": {"type": "LineString", "coordinates": [[-87.62555555555555, 41.73777777777778], [-87.625, 41.74], [-87.62444444444444, 41.742222222222225]]}, "properties": {"segment_id": "187", "street": "VINCENNES AVE", "facility_type_raw": "SHARED-LANE", "facility_category": "sharrow", "length_m": 502.0, "crashes_within_30m": 3, "data_tier": "real"}}, {"type": "Feature", "geometry": {"type": "LineString", "coordinates": [[-87.62444444444444, 41.742222222222225], [-87.62388888888889, 41.74444444444445], [-87.62333333333333, 41.74666666666667]]}, "properties": {"segment_id": "188", "street": "VINCENNES AVE", "facility_type_raw": "SHARED-LANE", "facility_category": "sharrow", "length_m": 502.0, "crashes_within_30m": 5, "data_tier": "real"}}, {"type": "Feature", "geometry": {"type": "LineString", "coordinates": [[-87.62333333333333, 41.74666666666667], [-87.62277777777777, 41.74888888888889], [-87.62222222222222, 41.75111111111111]]}, "properties": {"segment_id": "189", "street": "VINCENNES AVE", "facility_type_raw": "SHARED-LANE", "facility_category": "sharrow", "length_m": 502.0, "crashes_within_30m": 1, "data_tier": "real"}}, {"type": "Feature", "geometry": {"type": "LineString", "coordinates": [[-87.62222222222222, 41.75111111111111], [-87.62166666666666, 41.75333333333333], [-87.6211111111111, 41.75555555555555]]}, "properties": {"segment_id": "190", "street": "VINCENNES AVE", "facility_type_raw": "SHARED-LANE", "facility_category": "sharrow", "length_m": 502.0, "crashes_within_30m": 4, "data_tier": "real"}}, {"type": "Feature", "geometry": {"type": "LineString", "coordinates": [[-87.6211111111111, 41.75555555555555], [-87.62055555555555, 41.757777777777775], [-87.61999999999999, 41.76]]}, "properties": {"segment_id": "191", "street": "VINCENNES AVE", "facility_type_raw": "SHARED-LANE", "facility_category": "sharrow", "length_m": 502.0, "crashes_within_30m": 1, "data_tier": "real"}}, {"type": "Feature", "geometry": {"type": "LineString", "coordinates": [[-87.61999999999999, 41.76], [-87.61944444444444, 41.76222222222222], [-87.61888888888889, 41.76444444444444]]}, "properties": {"segment_id": "192", "street": "VINCENNES AVE", "facility_type_raw": "SHARED-LANE", "facility_category": "sharrow", "length_m": 502.0, "crashes_within_30m": 4, "data_tier": "real"}}, {"type": "Feature", "geometry": {"type": "LineString", "coordinates": [[-87.61888888888889, 41.76444444444444], [-87.61833333333333, 41.766666666666666], [-87.61777777777777, 41.76888888888889]]}, "properties": {"segment_id": "193", "street": "VINCENNES AVE", "facility_type_raw": "SHARED-LANE", "facility_category": "sharrow", "length_m": 502.0, "crashes_within_30m": 7, "data_tier": "real"}}, {"type": "Feature", "geometry": {"type": "LineString", "coordinates": [[-87.61777777777777, 41.76888888888889], [-87.61722222222221, 41.77111111111111], [-87.61666666666666, 41.77333333333333]]}, "properties": {"segment_id": "194", "street": "VINCENNES AVE", "facility_type_raw": "SHARED-LANE", "facility_category": "sharrow", "length_m": 502.0, "crashes_within_30m": 5, "data_tier": "real"}}, {"type": "Feature", "geometry": {"type": "LineString", "coordinates": [[-87.61666666666666, 41.77333333333333], [-87.61611111111111, 41.775555555555556], [-87.61555555555555, 41.77777777777778]]}, "properties": {"segment_id": "195", "street": "VINCENNES AVE", "facility_type_raw": "SHARED-LANE", "facility_category": "sharrow", "length_m": 502.0, "crashes_within_30m": 5, "data_tier": "real"}}, {"type": "Feature", "geometry": {"type": "LineString", "coordinates": [[-87.61555555555555, 41.77777777777778], [-87.615, 41.78]]}, "properties": {"segment_id": "196", "street": "VINCENNES AVE", "facility_type_raw": "SHARED-LANE", "facility_category": "sharrow", "length_m": 251.0, "crashes_within_30m": 3, "data_tier": "real"}}, {"type": "Feature", "geometry": {"type": "LineString", "coordinates": [[-87.586, 41.74], [-87.586, 41.74227272727273], [-87.586, 41.74454545454546]]}, "properties": {"segment_id": "197", "street": "STONY ISLAND AVE", "facility_type_raw": "PROTECTED BIKE LANE", "facility_category": "protected", "length_m": 504.7, "crashes_within_30m": 6, "data_tier": "real"}}, {"type": "Feature", "geometry": {"type": "LineString", "coordinates": [[-87.586, 41.74454545454546], [-87.586, 41.746818181818185], [-87.586, 41.74909090909091]]}, "properties": {"segment_id": "198", "street": "STONY ISLAND AVE", "facility_type_raw": "PROTECTED BIKE LANE", "facility_category": "protected", "length_m": 504.7, "crashes_within_30m": 6, "data_tier": "real"}}, {"type": "Feature", "geometry": {"type": "LineString", "coordinates": [[-87.586, 41.74909090909091], [-87.586, 41.751363636363635], [-87.586, 41.75363636363637]]}, "properties": {"segment_id": "199", "street": "STONY ISLAND AVE", "facility_type_raw": "PROTECTED BIKE LANE", "facility_category": "protected", "length_m": 504.7, "crashes_within_30m": 3, "data_tier": "real"}}, {"type": "Feature", "geometry": {"type": "LineString", "coordinates": [[-87.586, 41.75363636363637], [-87.586, 41.75590909090909], [-87.586, 41.75818181818182]]}, "properties": {"segment_id": "200", "street": "STONY ISLAND AVE", "facility_type_raw": "PROTECTED BIKE LANE", "facility_category": "protected", "length_m": 504.7, "crashes_within_30m": 8, "data_tier": "real"}}, {"type": "Feature", "geometry": {"type": "LineString", "coordinates": [[-87.586, 41.75818181818182], [-87.586, 41.76045454545454], [-87.586, 41.762727272727275]]}, "properties": {"segment_id": "201", "street": "STONY ISLAND AVE", "facility_type_raw": "PROTECTED BIKE LANE", "facility_category": "protected", "length_m": 504.7, "crashes_within_30m": 7, "data_tier": "real"}}, {"type": "Feature", "geometry": {"type": "LineString", "coordinates": [[-87.586, 41.762727272727275], [-87.586, 41.765], [-87.586, 41.767272727272726]]}, "properties": {"segment_id": "202", "street": "STONY ISLAND AVE", "facility_type_raw": "PROTECTED BIKE LANE", "facility_category": "protected", "length_m": 504.7, "crashes_within_30m": 5, "data_tier": "real"}}, {"type": "Feature", "geometry": {"type": "LineString", "coordinates": [[-87.586, 41.767272727272726], [-87.586, 41.76954545454546], [-87.586, 41.77181818181818]]}, "properties": {"segment_id": "203", "street": "STONY ISLAND AVE", "facility_type_raw": "PROTECTED BIKE LANE", "facility_category": "protected", "length_m": 504.7, "crashes_within_30m": 3, "data_tier": "real"}}, {"type": "Feature", "geometry": {"type": "LineString", "coordinates": [[-87.586, 41.77181818181818], [-87.586, 41.77409090909091], [-87.586, 41.776363636363634]]}, "properties": {"segment_id": "204", "street": "STONY ISLAND AVE", "facility_type_raw": "PROTECTED BIKE LANE", "facility_category": "protected", "length_m": 504.7, "crashes_within_30m": 6, "data_tier": "real"}}, {"type": "Feature", "geometry": {"type": "LineString", "coordinates": [[-87.586, 41.776363636363634], [-87.586, 41.778636363636366], [-87.586, 41.78090909090909]]}, "properties": {"segment_id": "205", "street": "STONY ISLAND AVE", "facility_type_raw": "PROTECTED BIKE LANE", "facility_category": "protected", "length_m": 504.7, "crashes_within_30m": 4, "data_tier": "real"}}, {"type": "Feature", "geometry": {"type": "LineString", "coordinates": [[-87.586, 41.78090909090909], [-87.586, 41.783181818181816], [-87.586, 41.78545454545454]]}, "properties": {"segment_id": "206", "street": "STONY ISLAND AVE", "facility_type_raw": "PROTECTED BIKE LANE", "facility_category": "protected", "length_m": 504.7, "crashes_within_30m": 5, "data_tier": "real"}}, {"type": "Feature", "geometry": {"type": "LineString", "coordinates": [[-87.586, 41.78545454545454], [-87.586, 41.787727272727274], [-87.586, 41.79]]}, "properties": {"segment_id": "207", "street": "STONY ISLAND AVE", "facility_type_raw": "PROTECTED BIKE LANE", "facility_category": "protected", "length_m": 504.7, "crashes_within_30m": 7, "data_tier": "real"}}]}