{"type": "FeatureCollection", "data_tier": "derived", "note": "Curated main-route lines assigned from published segments each run. The roster is editorial: we chose which corridors count as main routes; segment grades and mileage are computed from source data every run. Street lines aggregate real CDOT segments (stats: derived tier); trail lines come from OpenStreetMap (crowdsourced tier) and never blend into derived statistics. Corridor gaps are holes in the line \u2014 geometry is never fabricated \u2014 and grade shares are over existing member miles only. A street segment listed by more than one line's `streets` belongs to all of them (see `line_ids` on each feature); `line_id` is the first roster-order match, kept for back-compat.", "lines": [{"id": "milwaukee", "name": "Milwaukee Line", "termini": "Lakefront \u21c4 Jefferson Park", "source": "bike_routes", "data_tier": "derived", "miles_total": 8.21, "miles_by_grade": {"paint": 8.21}, "pct_protected": 0.0, "crashes_total": 72}, {"id": "halsted", "name": "Halsted Line", "termini": "79th \u21c4 Waveland", "source": "bike_routes", "data_tier": "derived", "miles_total": 7.25, "miles_by_grade": {"paint": 7.25}, "pct_protected": 0.0, "crashes_total": 59}, {"id": "clark", "name": "Clark Line", "termini": "Lakefront \u21c4 Devon", "source": "bike_routes", "data_tier": "derived", "miles_total": 6.34, "miles_by_grade": {"protected": 6.34}, "pct_protected": 100.0, "crashes_total": 83}, {"id": "kedzie", "name": "Kedzie Line", "termini": "Brighton Park \u21c4 Touhy", "source": "bike_routes", "data_tier": "derived", "miles_total": 0, "miles_by_grade": {}, "pct_protected": null, "crashes_total": 0, "no_data": true}, {"id": "damen", "name": "Damen Line", "termini": "81st \u21c4 Bryn Mawr", "source": "bike_routes", "data_tier": "derived", "miles_total": 7.25, "miles_by_grade": {"paint": 7.25}, "pct_protected": 0.0, "crashes_total": 68}, {"id": "state-indiana", "name": "State\u2013Indiana Line", "termini": "South Loop \u21c4 Roseland", "source": "bike_routes", "data_tier": "derived", "miles_total": 0, "miles_by_grade": {}, "pct_protected": null, "crashes_total": 0, "no_data": true}, {"id": "elston", "name": "Elston Line", "termini": "Goose Island \u21c4 Forest Glen", "source": "bike_routes", "data_tier": "derived", "miles_total": 6.35, "miles_by_grade": {"paint": 6.35}, "pct_protected": 0.0, "crashes_total": 67}, {"id": "lake", "name": "Lake Street Line", "termini": "Austin \u21c4 Lakefront", "source": "bike_routes", "data_tier": "derived", "miles_total": 0, "miles_by_grade": {}, "pct_protected": null, "crashes_total": 0, "no_data": true}, {"id": "jackson-washington", "name": "Jackson\u2013Washington Line", "termini": "Austin \u21c4 Lakefront", "source": "bike_routes", "data_tier": "derived", "miles_total": 0, "miles_by_grade": {}, "pct_protected": null, "crashes_total": 0, "no_data": true}, {"id": "california", "name": "California Line", "termini": "Little Village \u21c4 West Ridge", "source": "bike_routes", "data_tier": "derived", "miles_total": 0, "miles_by_grade": {}, "pct_protected": null, "crashes_total": 0, "no_data": true}, {"id": "mlk-drive", "name": "King Drive Line", "termini": "Bronzeville \u21c4 Chatham", "source": "bike_routes", "data_tier": "derived", "miles_total": 0, "miles_by_grade": {}, "pct_protected": null, "crashes_total": 0, "no_data": true}, {"id": "lawrence", "name": "Lawrence Line", "termini": "Jefferson Park \u21c4 Uptown", "source": "bike_routes", "data_tier": "derived", "miles_total": 0, "miles_by_grade": {}, "pct_protected": null, "crashes_total": 0, "no_data": true}, {"id": "marquette", "name": "Marquette Line", "termini": "West Lawn \u21c4 Jackson Park", "source": "bike_routes", "data_tier": "derived", "miles_total": 0, "miles_by_grade": {}, "pct_protected": null, "crashes_total": 0, "no_data": true}, {"id": "83rd", "name": "83rd Street Line", "termini": "Scottsdale \u21c4 South Chicago", "source": "bike_routes", "data_tier": "derived", "miles_total": 0, "miles_by_grade": {}, "pct_protected": null, "crashes_total": 0, "no_data": true}, {"id": "lakefront", "name": "Lakefront Trail", "termini": "Ardmore \u21c4 71st", "source": "osm_trails", "data_tier": "crowdsourced", "miles_total": 16.63, "miles_by_grade": {"offstreet": 16.63}}, {"id": "bloomingdale", "name": "Bloomingdale Trail (606)", "termini": "Ridgeway \u21c4 Ashland", "source": "osm_trails", "data_tier": "crowdsourced", "miles_total": 0, "miles_by_grade": {}, "no_data": true}, {"id": "major-taylor", "name": "Major Taylor Trail", "termini": "Dan Ryan Woods \u21c4 Whistler Woods", "source": "osm_trails", "data_tier": "crowdsourced", "miles_total": 0, "miles_by_grade": {}, "no_data": true}, {"id": "north-shore-channel", "name": "North Shore Channel Trail", "termini": "Green Bay Rd \u21c4 Lawrence", "source": "osm_trails", "data_tier": "crowdsourced", "miles_total": 0, "miles_by_grade": {}, "no_data": true}, {"id": "north-branch", "name": "North Branch Trail", "termini": "Gompers Park \u21c4 Botanic Garden", "source": "osm_trails", "data_tier": "crowdsourced", "miles_total": 12.67, "miles_by_grade": {"offstreet": 12.67}}, {"id": "312-riverrun", "name": "312 RiverRun", "termini": "Belmont \u21c4 Montrose", "source": "osm_trails", "data_tier": "crowdsourced", "miles_total": 0, "miles_by_grade": {}, "no_data": true}, {"id": "green-bay", "name": "Green Bay Trail", "termini": "Wilmette \u21c4 Braeside", "source": "osm_trails", "data_tier": "crowdsourced", "miles_total": 0, "miles_by_grade": {}, "no_data": true}], "features": [{"type": "Feature", "geometry": {"type": "LineString", "coordinates": [[-87.64, 41.882], [-87.64213636363637, 41.883590909090906], [-87.64427272727272, 41.88518181818181]]}, "properties": {"segment_id": "1", "street": "MILWAUKEE", "line_id": "milwaukee", "line_ids": ["milwaukee"], "grade": "paint", "facility_category": "painted", "length_m": 500.5, "crashes_within_30m": 1, "data_tier": "real"}}, {"type": "Feature", "geometry": {"type": "LineString", "coordinates": [[-87.64427272727272, 41.88518181818181], [-87.64640909090909, 41.88677272727273], [-87.64854545454546, 41.888363636363636]]}, "properties": {"segment_id": "2", "street": "MILWAUKEE", "line_id": "milwaukee", "line_ids": ["milwaukee"], "grade": "paint", "facility_category": "painted", "length_m": 500.5, "crashes_within_30m": 3, "data_tier": "real"}}, {"type": "Feature", "geometry": {"type": "LineString", "coordinates": [[-87.64854545454546, 41.888363636363636], [-87.65068181818182, 41.88995454545454], [-87.65281818181818, 41.89154545454545]]}, "properties": {"segment_id": "3", "street": "MILWAUKEE", "line_id": "milwaukee", "line_ids": ["milwaukee"], "grade": "paint", "facility_category": "painted", "length_m": 500.5, "crashes_within_30m": 6, "data_tier": "real"}}, {"type": "Feature", "geometry": {"type": "LineString", "coordinates": [[-87.65281818181818, 41.89154545454545], [-87.65495454545454, 41.893136363636366], [-87.65709090909091, 41.89472727272727]]}, "properties": {"segment_id": "4", "street": "MILWAUKEE", "line_id": "milwaukee", "line_ids": ["milwaukee"], "grade": "paint", "facility_category": "painted", "length_m": 500.4, "crashes_within_30m": 2, "data_tier": "real"}}, {"type": "Feature", "geometry": {"type": "LineString", "coordinates": [[-87.65709090909091, 41.89472727272727], [-87.65922727272728, 41.89631818181818], [-87.66136363636363, 41.89790909090909]]}, "properties": {"segment_id": "5", "street": "MILWAUKEE", "line_id": "milwaukee", "line_ids": ["milwaukee"], "grade": "paint", "facility_category": "painted", "length_m": 500.4, "crashes_within_30m": 4, "data_tier": "real"}}, {"type": "Feature", "geometry": {"type": "LineString", "coordinates": [[-87.66136363636363, 41.89790909090909], [-87.6635, 41.8995], [-87.66563636363637, 41.90109090909091]]}, "properties": {"segment_id": "6", "street": "MILWAUKEE", "line_id": "milwaukee", "line_ids": ["milwaukee"], "grade": "paint", "facility_category": "painted", "length_m": 500.4, "crashes_within_30m": 3, "data_tier": "real"}}, {"type": "Feature", "geometry": {"type": "LineString", "coordinates": [[-87.66563636363637, 41.90109090909091], [-87.66777272727272, 41.90268181818182], [-87.66990909090909, 41.904272727272726]]}, "properties": {"segment_id": "7", "street": "MILWAUKEE", "line_id": "milwaukee", "line_ids": ["milwaukee"], "grade": "paint", "facility_category": "painted", "length_m": 500.4, "crashes_within_30m": 3, "data_tier": "real"}}, {"type": "Feature", "geometry": {"type": "LineString", "coordinates": [[-87.66990909090909, 41.904272727272726], [-87.67204545454545, 41.905863636363634], [-87.67418181818182, 41.90745454545455]]}, "properties": {"segment_id": "8", "street": "MILWAUKEE", "line_id": "milwaukee", "line_ids": ["milwaukee"], "grade": "paint", "facility_category": "painted", "length_m": 500.4, "crashes_within_30m": 2, "data_tier": "real"}}, {"type": "Feature", "geometry": {"type": "LineString", "coordinates": [[-87.67418181818182, 41.90745454545455], [-87.67631818181817, 41.909045454545456], [-87.67845454545454, 41.910636363636364]]}, "properties": {"segment_id": "9", "street": "MILWAUKEE", "line_id": "milwaukee", "line_ids": ["milwaukee"], "grade": "paint", "facility_category": "painted", "length_m": 500.4, "crashes_within_30m": 2, "data_tier": "real"}}, {"type": "Feature", "geometry": {"type": "LineString", "coordinates": [[-87.67845454545454, 41.910636363636364], [-87.68059090909091, 41.91222727272727], [-87.68272727272728, 41.913818181818186]]}, "properties": {"segment_id": "10", "street": "MILWAUKEE", "line_id": "milwaukee", "line_ids": ["milwaukee"], "grade": "paint", "facility_category": "painted", "length_m": 500.4, "crashes_within_30m": 2, "data_tier": "real"}}, {"type": "Feature", "geometry": {"type": "LineString", "coordinates": [[-87.68272727272728, 41.913818181818186], [-87.68486363636363, 41.915409090909094], [-87.687, 41.917]]}, "properties": {"segment_id": "11", "street": "MILWAUKEE", "line_id": "milwaukee", "line_ids": ["milwaukee"], "grade": "paint", "facility_category": "painted", "length_m": 500.4, "crashes_within_30m": 2, "data_tier": "real"}}, {"type": "Feature", "geometry": {"type": "LineString", "coordinates": [[-87.687, 41.917], [-87.68943333333333, 41.91843333333333], [-87.69186666666667, 41.91986666666667]]}, "properties": {"segment_id": "12", "street": "MILWAUKEE", "line_id": "milwaukee", "line_ids": ["milwaukee"], "grade": "paint", "facility_category": "painted", "length_m": 514.0, "crashes_within_30m": 3, "data_tier": "real"}}, {"type": "Feature", "geometry": {"type": "LineString", "coordinates": [[-87.69186666666667, 41.91986666666667], [-87.6943, 41.9213], [-87.69673333333333, 41.92273333333333]]}, "properties": {"segment_id": "13", "street": "MILWAUKEE", "line_id": "milwaukee", "line_ids": ["milwaukee"], "grade": "paint", "facility_category": "painted", "length_m": 514.0, "crashes_within_30m": 3, "data_tier": "real"}}, {"type": "Feature", "geometry": {"type": "LineString", "coordinates": [[-87.69673333333333, 41.92273333333333], [-87.69916666666667, 41.924166666666665], [-87.7016, 41.9256]]}, "properties": {"segment_id": "14", "street": "MILWAUKEE", "line_id": "milwaukee", "line_ids": ["milwaukee"], "grade": "paint", "facility_category": "painted", "length_m": 514.0, "crashes_within_30m": 0, "data_tier": "real"}}, {"type": "Feature", "geometry": {"type": "LineString", "coordinates": [[-87.7016, 41.9256], [-87.70403333333333, 41.927033333333334], [-87.70646666666667, 41.928466666666665]]}, "properties": {"segment_id": "15", "street": "MILWAUKEE", "line_id": "milwaukee", "line_ids": ["milwaukee"], "grade": "paint", "facility_category": "painted", "length_m": 513.9, "crashes_within_30m": 1, "data_tier": "real"}}, {"type": "Feature", "geometry": {"type": "LineString", "coordinates": [[-87.70646666666667, 41.928466666666665], [-87.7089, 41.9299], [-87.71133333333333, 41.931333333333335]]}, "properties": {"segment_id": "16", "street": "MILWAUKEE", "line_id": "milwaukee", "line_ids": ["milwaukee"], "grade": "paint", "facility_category": "painted", "length_m": 513.9, "crashes_within_30m": 4, "data_tier": "real"}}, {"type": "Feature", "geometry": {"type": "LineString", "coordinates": [[-87.71133333333333, 41.931333333333335], [-87.71376666666667, 41.932766666666666], [-87.7162, 41.934200000000004]]}, "properties": {"segment_id": "17", "street": "MILWAUKEE", "line_id": "milwaukee", "line_ids": ["milwaukee"], "grade": "paint", "facility_category": "painted", "length_m": 513.9, "crashes_within_30m": 2, "data_tier": "real"}}, {"type": "Feature", "geometry": {"type": "LineString", "coordinates": [[-87.7162, 41.934200000000004], [-87.71863333333333, 41.935633333333335], [-87.72106666666667, 41.93706666666667]]}, "properties": {"segment_id": "18", "street": "MILWAUKEE", "line_id": "milwaukee", "line_ids": ["milwaukee"], "grade": "paint", "facility_category": "painted", "length_m": 513.9, "crashes_within_30m": 3, "data_tier": "real"}}, {"type": "Feature", "geometry": {"type": "LineString", "coordinates": [[-87.72106666666667, 41.93706666666667], [-87.7235, 41.938500000000005], [-87.72593333333333, 41.939933333333336]]}, "properties": {"segment_id": "19", "street": "MILWAUKEE", "line_id": "milwaukee", "line_ids": ["milwaukee"], "grade": "paint", "facility_category": "painted", "length_m": 513.9, "crashes_within_30m": 3, "data_tier": "real"}}, {"type": "Feature", "geometry": {"type": "LineString", "coordinates": [[-87.72593333333333, 41.939933333333336], [-87.72836666666667, 41.94136666666667], [-87.7308, 41.9428]]}, "properties": {"segment_id": "20", "street": "MILWAUKEE", "line_id": "milwaukee", "line_ids": ["milwaukee"], "grade": "paint", "facility_category": "painted", "length_m": 513.9, "crashes_within_30m": 5, "data_tier": "real"}}, {"type": "Feature", "geometry": {"type": "LineString", "coordinates": [[-87.7308, 41.9428], [-87.73323333333333, 41.94423333333334], [-87.73566666666667, 41.94566666666667]]}, "properties": {"segment_id": "21", "street": "MILWAUKEE", "line_id": "milwaukee", "line_ids": ["milwaukee"], "grade": "paint", "facility_category": "painted", "length_m": 513.9, "crashes_within_30m": 2, "data_tier": "real"}}, {"type": "Feature", "geometry": {"type": "LineString", "coordinates": [[-87.73566666666667, 41.94566666666667], [-87.7381, 41.9471], [-87.74053333333333, 41.94853333333334]]}, "properties": {"segment_id": "22", "street": "MILWAUKEE", "line_id": "milwaukee", "line_ids": ["milwaukee"], "grade": "paint", "facility_category": "painted", "length_m": 513.8, "crashes_within_30m": 2, "data_tier": "real"}}, {"type": "Feature", "geometry": {"type": "LineString", "coordinates": [[-87.74053333333333, 41.94853333333334], [-87.74296666666667, 41.94996666666667], [-87.7454, 41.9514]]}, "properties": {"segment_id": "23", "street": "MILWAUKEE", "line_id": "milwaukee", "line_ids": ["milwaukee"], "grade": "paint", "facility_category": "painted", "length_m": 513.8, "crashes_within_30m": 2, "data_tier": "real"}}, {"type": "Feature", "geometry": {"type": "LineString", "coordinates": [[-87.7454, 41.9514], [-87.74783333333333, 41.95283333333333], [-87.75026666666668, 41.95426666666667]]}, "properties": {"segment_id": "24", "street": "MILWAUKEE", "line_id": "milwaukee", "line_ids": ["milwaukee"], "grade": "paint", "facility_category": "painted", "length_m": 513.8, "crashes_within_30m": 3, "data_tier": "real"}}, {"type": "Feature", "geometry": {"type": "LineString", "coordinates": [[-87.75026666666668, 41.95426666666667], [-87.7527, 41.9557], [-87.75513333333333, 41.95713333333333]]}, "properties": {"segment_id": "25", "street": "MILWAUKEE", "line_id": "milwaukee", "line_ids": ["milwaukee"], "grade": "paint", "facility_category": "painted", "length_m": 513.8, "crashes_within_30m": 1, "data_tier": "real"}}, {"type": "Feature", "geometry": {"type": "LineString", "coordinates": [[-87.75513333333333, 41.95713333333333], [-87.75756666666668, 41.95856666666667], [-87.76, 41.96]]}, "properties": {"segment_id": "26", "street": "MILWAUKEE", "line_id": "milwaukee", "line_ids": ["milwaukee"], "grade": "paint", "facility_category": "painted", "length_m": 513.8, "crashes_within_30m": 8, "data_tier": "real"}}, {"type": "Feature", "geometry": {"type": "LineString", "coordinates": [[-87.646, 41.845], [-87.64606521739131, 41.84728260869565], [-87.6461304347826, 41.8495652173913]]}, "properties": {"segment_id": "50", "street": "HALSTED", "line_id": "halsted", "line_ids": ["halsted"], "grade": "paint", "facility_category": "painted", "length_m": 507.0, "crashes_within_30m": 3, "data_tier": "real"}}, {"type": "Feature", "geometry": {"type": "LineString", "coordinates": [[-87.6461304347826, 41.8495652173913], [-87.64619565217392, 41.85184782608695], [-87.64626086956522, 41.85413043478261]]}, "properties": {"segment_id": "51", "street": "HALSTED", "line_id": "halsted", "line_ids": ["halsted"], "grade": "paint", "facility_category": "painted", "length_m": 507.0, "crashes_within_30m": 1, "data_tier": "real"}}, {"type": "Feature", "geometry": {"type": "LineString", "coordinates": [[-87.64626086956522, 41.85413043478261], [-87.64632608695652, 41.85641304347826], [-87.64639130434783, 41.858695652173914]]}, "properties": {"segment_id": "52", "street": "HALSTED", "line_id": "halsted", "line_ids": ["halsted"], "grade": "paint", "facility_category": "painted", "length_m": 507.0, "crashes_within_30m": 4, "data_tier": "real"}}, {"type": "Feature", "geometry": {"type": "LineString", "coordinates": [[-87.64639130434783, 41.858695652173914], [-87.64645652173913, 41.860978260869565], [-87.64652173913043, 41.86326086956522]]}, "properties": {"segment_id": "53", "street": "HALSTED", "line_id": "halsted", "line_ids": ["halsted"], "grade": "paint", "facility_category": "painted", "length_m": 507.0, "crashes_within_30m": 2, "data_tier": "real"}}, {"type": "Feature", "geometry": {"type": "LineString", "coordinates": [[-87.64652173913043, 41.86326086956522], [-87.64658695652174, 41.86554347826087], [-87.64665217391304, 41.86782608695652]]}, "properties": {"segment_id": "54", "street": "HALSTED", "line_id": "halsted", "line_ids": ["halsted"], "grade": "paint", "facility_category": "painted", "length_m": 507.0, "crashes_within_30m": 2, "data_tier": "real"}}, {"type": "Feature", "geometry": {"type": "LineString", "coordinates": [[-87.64665217391304, 41.86782608695652], [-87.64671739130435, 41.87010869565217], [-87.64678260869566, 41.87239130434783]]}, "properties": {"segment_id": "55", "street": "HALSTED", "line_id": "halsted", "line_ids": ["halsted"], "grade": "paint", "facility_category": "painted", "length_m": 507.0, "crashes_within_30m": 1, "data_tier": "real"}}, {"type": "Feature", "geometry": {"type": "LineString", "coordinates": [[-87.64678260869566, 41.87239130434783], [-87.64684782608695, 41.87467391304348], [-87.64691304347826, 41.87695652173913]]}, "properties": {"segment_id": "56", "street": "HALSTED", "line_id": "halsted", "line_ids": ["halsted"], "grade": "paint", "facility_category": "painted", "length_m": 507.0, "crashes_within_30m": 3, "data_tier": "real"}}, {"type": "Feature", "geometry": {"type": "LineString", "coordinates": [[-87.64691304347826, 41.87695652173913], [-87.64697826086956, 41.87923913043478], [-87.64704347826087, 41.881521739130434]]}, "properties": {"segment_id": "57", "street": "HALSTED", "line_id": "halsted", "line_ids": ["halsted"], "grade": "paint", "facility_category": "painted", "length_m": 507.0, "crashes_within_30m": 1, "data_tier": "real"}}, {"type": "Feature", "geometry": {"type": "LineString", "coordinates": [[-87.64704347826087, 41.881521739130434], [-87.64710869565218, 41.883804347826086], [-87.64717391304347, 41.88608695652174]]}, "properties": {"segment_id": "58", "street": "HALSTED", "line_id": "halsted", "line_ids": ["halsted"], "grade": "paint", "facility_category": "painted", "length_m": 507.0, "crashes_within_30m": 0, "data_tier": "real"}}, {"type": "Feature", "geometry": {"type": "LineString", "coordinates": [[-87.64717391304347, 41.88608695652174], [-87.64723913043478, 41.88836956521739], [-87.6473043478261, 41.89065217391305]]}, "properties": {"segment_id": "59", "street": "HALSTED", "line_id": "halsted", "line_ids": ["halsted"], "grade": "paint", "facility_category": "painted", "length_m": 507.0, "crashes_within_30m": 2, "data_tier": "real"}}, {"type": "Feature", "geometry": {"type": "LineString", "coordinates": [[-87.6473043478261, 41.89065217391305], [-87.64736956521739, 41.8929347826087], [-87.6474347826087, 41.89521739130435]]}, "properties": {"segment_id": "60", "street": "HALSTED", "line_id": "halsted", "line_ids": ["halsted"], "grade": "paint", "facility_category": "painted", "length_m": 507.0, "crashes_within_30m": 2, "data_tier": "real"}}, {"type": "Feature", "geometry": {"type": "LineString", "coordinates": [[-87.6474347826087, 41.89521739130435], [-87.64750000000001, 41.8975], [-87.6475652173913, 41.89978260869565]]}, "properties": {"segment_id": "61", "street": "HALSTED", "line_id": "halsted", "line_ids": ["halsted"], "grade": "paint", "facility_category": "painted", "length_m": 507.0, "crashes_within_30m": 1, "data_tier": "real"}}, {"type": "Feature", "geometry": {"type": "LineString", "coordinates": [[-87.6475652173913, 41.89978260869565], [-87.64763043478261, 41.9020652173913], [-87.64769565217391, 41.904347826086955]]}, "properties": {"segment_id": "62", "street": "HALSTED", "line_id": "halsted", "line_ids": ["halsted"], "grade": "paint", "facility_category": "painted", "length_m": 507.0, "crashes_within_30m": 1, "data_tier": "real"}}, {"type": "Feature", "geometry": {"type": "LineString", "coordinates": [[-87.64769565217391, 41.904347826086955], [-87.64776086956522, 41.90663043478261], [-87.64782608695653, 41.908913043478265]]}, "properties": {"segment_id": "63", "street": "HALSTED", "line_id": "halsted", "line_ids": ["halsted"], "grade": "paint", "facility_category": "painted", "length_m": 507.0, "crashes_within_30m": 4, "data_tier": "real"}}, {"type": "Feature", "geometry": {"type": "LineString", "coordinates": [[-87.64782608695653, 41.908913043478265], [-87.64789130434782, 41.911195652173916], [-87.64795652173913, 41.91347826086957]]}, "properties": {"segment_id": "64", "street": "HALSTED", "line_id": "halsted", "line_ids": ["halsted"], "grade": "paint", "facility_category": "painted", "length_m": 507.0, "crashes_within_30m": 3, "data_tier": "real"}}, {"type": "Feature", "geometry": {"type": "LineString", "coordinates": [[-87.64795652173913, 41.91347826086957], [-87.64802173913044, 41.91576086956522], [-87.64808695652174, 41.91804347826087]]}, "properties": {"segment_id": "65", "street": "HALSTED", "line_id": "halsted", "line_ids": ["halsted"], "grade": "paint", "facility_category": "painted", "length_m": 507.0, "crashes_within_30m": 5, "data_tier": "real"}}, {"type": "Feature", "geometry": {"type": "LineString", "coordinates": [[-87.64808695652174, 41.91804347826087], [-87.64815217391305, 41.92032608695652], [-87.64821739130434, 41.92260869565217]]}, "properties": {"segment_id": "66", "street": "HALSTED", "line_id": "halsted", "line_ids": ["halsted"], "grade": "paint", "facility_category": "painted", "length_m": 507.0, "crashes_within_30m": 3, "data_tier": "real"}}, {"type": "Feature", "geometry": {"type": "LineString", "coordinates": [[-87.64821739130434, 41.92260869565217], [-87.64828260869565, 41.92489130434783], [-87.64834782608696, 41.92717391304348]]}, "properties": {"segment_id": "67", "street": "HALSTED", "line_id": "halsted", "line_ids": ["halsted"], "grade": "paint", "facility_category": "painted", "length_m": 507.0, "crashes_within_30m": 2, "data_tier": "real"}}, {"type": "Feature", "geometry": {"type": "LineString", "coordinates": [[-87.64834782608696, 41.92717391304348], [-87.64841304347826, 41.929456521739134], [-87.64847826086957, 41.931739130434785]]}, "properties": {"segment_id": "68", "street": "HALSTED", "line_id": "halsted", "line_ids": ["halsted"], "grade": "paint", "facility_category": "painted", "length_m": 507.0, "crashes_within_30m": 4, "data_tier": "real"}}, {"type": "Feature", "geometry": {"type": "LineString", "coordinates": [[-87.64847826086957, 41.931739130434785], [-87.64854347826088, 41.934021739130436], [-87.64860869565217, 41.93630434782609]]}, "properties": {"segment_id": "69", "street": "HALSTED", "line_id": "halsted", "line_ids": ["halsted"], "grade": "paint", "facility_category": "painted", "length_m": 507.0, "crashes_within_30m": 6, "data_tier": "real"}}, {"type": "Feature", "geometry": {"type": "LineString", "coordinates": [[-87.64860869565217, 41.93630434782609], [-87.64867391304348, 41.93858695652174], [-87.64873913043478, 41.94086956521739]]}, "properties": {"segment_id": "70", "street": "HALSTED", "line_id": "halsted", "line_ids": ["halsted"], "grade": "paint", "facility_category": "painted", "length_m": 507.0, "crashes_within_30m": 2, "data_tier": "real"}}, {"type": "Feature", "geometry": {"type": "LineString", "coordinates": [[-87.64873913043478, 41.94086956521739], [-87.64880434782609, 41.94315217391305], [-87.6488695652174, 41.9454347826087]]}, "properties": {"segment_id": "71", "street": "HALSTED", "line_id": "halsted", "line_ids": ["halsted"], "grade": "paint", "facility_category": "painted", "length_m": 507.0, "crashes_within_30m": 3, "data_tier": "real"}}, {"type": "Feature", "geometry": {"type": "LineString", "coordinates": [[-87.6488695652174, 41.9454347826087], [-87.64893478260869, 41.94771739130435], [-87.649, 41.95]]}, "properties": {"segment_id": "72", "street": "HALSTED", "line_id": "halsted", "line_ids": ["halsted"], "grade": "paint", "facility_category": "painted", "length_m": 507.0, "crashes_within_30m": 4, "data_tier": "real"}}, {"type": "Feature", "geometry": {"type": "LineString", "coordinates": [[-87.631, 41.9], [-87.63185294117648, 41.90220588235294], [-87.63270588235294, 41.904411764705884]]}, "properties": {"segment_id": "73", "street": "CLARK", "line_id": "clark", "line_ids": ["clark"], "grade": "protected", "facility_category": "protected", "length_m": 509.9, "crashes_within_30m": 6, "data_tier": "real"}}, {"type": "Feature", "geometry": {"type": "LineString", "coordinates": [[-87.63270588235294, 41.904411764705884], [-87.63355882352941, 41.90661764705882], [-87.63441176470589, 41.90882352941176]]}, "properties": {"segment_id": "74", "street": "CLARK", "line_id": "clark", "line_ids": ["clark"], "grade": "protected", "facility_category": "protected", "length_m": 509.9, "crashes_within_30m": 1, "data_tier": "real"}}, {"type": "Feature", "geometry": {"type": "LineString", "coordinates": [[-87.63441176470589, 41.90882352941176], [-87.63526470588235, 41.9110294117647], [-87.63611764705882, 41.91323529411765]]}, "properties": {"segment_id": "75", "street": "CLARK", "line_id": "clark", "line_ids": ["clark"], "grade": "protected", "facility_category": "protected", "length_m": 509.9, "crashes_within_30m": 4, "data_tier": "real"}}, {"type": "Feature", "geometry": {"type": "LineString", "coordinates": [[-87.63611764705882, 41.91323529411765], [-87.6369705882353, 41.91544117647059], [-87.63782352941176, 41.917647058823526]]}, "properties": {"segment_id": "76", "street": "CLARK", "line_id": "clark", "line_ids": ["clark"], "grade": "protected", "facility_category": "protected", "length_m": 509.9, "crashes_within_30m": 2, "data_tier": "real"}}, {"type": "Feature", "geometry": {"type": "LineString", "coordinates": [[-87.63782352941176, 41.917647058823526], [-87.63867647058824, 41.91985294117647], [-87.6395294117647, 41.92205882352941]]}, "properties": {"segment_id": "77", "street": "CLARK", "line_id": "clark", "line_ids": ["clark"], "grade": "protected", "facility_category": "protected", "length_m": 509.9, "crashes_within_30m": 6, "data_tier": "real"}}, {"type": "Feature", "geometry": {"type": "LineString", "coordinates": [[-87.6395294117647, 41.92205882352941], [-87.64038235294117, 41.92426470588235], [-87.64123529411765, 41.9264705882353]]}, "properties": {"segment_id": "78", "street": "CLARK", "line_id": "clark", "line_ids": ["clark"], "grade": "protected", "facility_category": "protected", "length_m": 509.9, "crashes_within_30m": 3, "data_tier": "real"}}, {"type": "Feature", "geometry": {"type": "LineString", "coordinates": [[-87.64123529411765, 41.9264705882353], [-87.64208823529411, 41.928676470588236], [-87.64294117647059, 41.930882352941175]]}, "properties": {"segment_id": "79", "street": "CLARK", "line_id": "clark", "line_ids": ["clark"], "grade": "protected", "facility_category": "protected", "length_m": 509.9, "crashes_within_30m": 2, "data_tier": "real"}}, {"type": "Feature", "geometry": {"type": "LineString", "coordinates": [[-87.64294117647059, 41.930882352941175], [-87.64379411764706, 41.933088235294115], [-87.64464705882352, 41.93529411764706]]}, "properties": {"segment_id": "80", "street": "CLARK", "line_id": "clark", "line_ids": ["clark"], "grade": "protected", "facility_category": "protected", "length_m": 509.9, "crashes_within_30m": 3, "data_tier": "real"}}, {"type": "Feature", "geometry": {"type": "LineString", "coordinates": [[-87.64464705882352, 41.93529411764706], [-87.6455, 41.9375], [-87.64635294117647, 41.93970588235294]]}, "properties": {"segment_id": "81", "street": "CLARK", "line_id": "clark", "line_ids": ["clark"], "grade": "protected", "facility_category": "protected", "length_m": 509.9, "crashes_within_30m": 6, "data_tier": "real"}}, {"type": "Feature", "geometry": {"type": "LineString", "coordinates": [[-87.64635294117647, 41.93970588235294], [-87.64720588235294, 41.941911764705885], [-87.64805882352941, 41.944117647058825]]}, "properties": {"segment_id": "82", "street": "CLARK", "line_id": "clark", "line_ids": ["clark"], "grade": "protected", "facility_category": "protected", "length_m": 509.8, "crashes_within_30m": 9, "data_tier": "real"}}, {"type": "Feature", "geometry": {"type": "LineString", "coordinates": [[-87.64805882352941, 41.944117647058825], [-87.64891176470589, 41.946323529411764], [-87.64976470588235, 41.9485294117647]]}, "properties": {"segment_id": "83", "street": "CLARK", "line_id": "clark", "line_ids": ["clark"], "grade": "protected", "facility_category": "protected", "length_m": 509.8, "crashes_within_30m": 4, "data_tier": "real"}}, {"type": "Feature", "geometry": {"type": "LineString", "coordinates": [[-87.64976470588235, 41.9485294117647], [-87.65061764705882, 41.95073529411765], [-87.6514705882353, 41.95294117647059]]}, "properties": {"segment_id": "84", "street": "CLARK", "line_id": "clark", "line_ids": ["clark"], "grade": "protected", "facility_category": "protected", "length_m": 509.8, "crashes_within_30m": 4, "data_tier": "real"}}, {"type": "Feature", "geometry": {"type": "LineString", "coordinates": [[-87.6514705882353, 41.95294117647059], [-87.65232352941176, 41.95514705882353], [-87.65317647058824, 41.957352941176474]]}, "properties": {"segment_id": "85", "street": "CLARK", "line_id": "clark", "line_ids": ["clark"], "grade": "protected", "facility_category": "protected", "length_m": 509.8, "crashes_within_30m": 3, "data_tier": "real"}}, {"type": "Feature", "geometry": {"type": "LineString", "coordinates": [[-87.65317647058824, 41.957352941176474], [-87.6540294117647, 41.95955882352941], [-87.65488235294117, 41.96176470588235]]}, "properties": {"segment_id": "86", "street": "CLARK", "line_id": "clark", "line_ids": ["clark"], "grade": "protected", "facility_category": "protected", "length_m": 509.8, "crashes_within_30m": 3, "data_tier": "real"}}, {"type": "Feature", "geometry": {"type": "LineString", "coordinates": [[-87.65488235294117, 41.96176470588235], [-87.65573529411765, 41.9639705882353], [-87.65658823529411, 41.96617647058824]]}, "properties": {"segment_id": "87", "street": "CLARK", "line_id": "clark", "line_ids": ["clark"], "grade": "protected", "facility_category": "protected", "length_m": 509.8, "crashes_within_30m": 3, "data_tier": "real"}}, {"type": "Feature", "geometry": {"type": "LineString", "coordinates": [[-87.65658823529411, 41.96617647058824], [-87.65744117647058, 41.96838235294118], [-87.65829411764706, 41.970588235294116]]}, "properties": {"segment_id": "88", "street": "CLARK", "line_id": "clark", "line_ids": ["clark"], "grade": "protected", "facility_category": "protected", "length_m": 509.8, "crashes_within_30m": 2, "data_tier": "real"}}, {"type": "Feature", "geometry": {"type": "LineString", "coordinates": [[-87.65829411764706, 41.970588235294116], [-87.65914705882352, 41.97279411764706], [-87.66, 41.975]]}, "properties": {"segment_id": "89", "street": "CLARK", "line_id": "clark", "line_ids": ["clark"], "grade": "protected", "facility_category": "protected", "length_m": 509.8, "crashes_within_30m": 4, "data_tier": "real"}}, {"type": "Feature", "geometry": {"type": "LineString", "coordinates": [[-87.629, 41.88384615384615], [-87.629, 41.886153846153846], [-87.629, 41.888461538461534]]}, "properties": {"segment_id": "93", "street": "DEARBORN", "line_id": "clark", "line_ids": ["clark"], "grade": "protected", "facility_category": "protected", "length_m": 512.4, "crashes_within_30m": 4, "data_tier": "real"}}, {"type": "Feature", "geometry": {"type": "LineString", "coordinates": [[-87.629, 41.888461538461534], [-87.629, 41.89076923076923], [-87.629, 41.89307692307692]]}, "properties": {"segment_id": "94", "street": "DEARBORN", "line_id": "clark", "line_ids": ["clark"], "grade": "protected", "facility_category": "protected", "length_m": 512.4, "crashes_within_30m": 10, "data_tier": "real"}}, {"type": "Feature", "geometry": {"type": "LineString", "coordinates": [[-87.629, 41.89307692307692], [-87.629, 41.895384615384614], [-87.629, 41.8976923076923]]}, "properties": {"segment_id": "95", "street": "DEARBORN", "line_id": "clark", "line_ids": ["clark"], "grade": "protected", "facility_category": "protected", "length_m": 512.4, "crashes_within_30m": 4, "data_tier": "real"}}, {"type": "Feature", "geometry": {"type": "LineString", "coordinates": [[-87.676, 41.87], [-87.67606521739131, 41.87228260869565], [-87.6761304347826, 41.8745652173913]]}, "properties": {"segment_id": "27", "street": "DAMEN", "line_id": "damen", "line_ids": ["damen"], "grade": "paint", "facility_category": "painted", "length_m": 507.0, "crashes_within_30m": 3, "data_tier": "real"}}, {"type": "Feature", "geometry": {"type": "LineString", "coordinates": [[-87.6761304347826, 41.8745652173913], [-87.67619565217392, 41.87684782608695], [-87.67626086956523, 41.87913043478261]]}, "properties": {"segment_id": "28", "street": "DAMEN", "line_id": "damen", "line_ids": ["damen"], "grade": "paint", "facility_category": "painted", "length_m": 507.0, "crashes_within_30m": 2, "data_tier": "real"}}, {"type": "Feature", "geometry": {"type": "LineString", "coordinates": [[-87.67626086956523, 41.87913043478261], [-87.67632608695652, 41.88141304347826], [-87.67639130434783, 41.88369565217391]]}, "properties": {"segment_id": "29", "street": "DAMEN", "line_id": "damen", "line_ids": ["damen"], "grade": "paint", "facility_category": "painted", "length_m": 507.0, "crashes_within_30m": 4, "data_tier": "real"}}, {"type": "Feature", "geometry": {"type": "LineString", "coordinates": [[-87.67639130434783, 41.88369565217391], [-87.67645652173913, 41.885978260869564], [-87.67652173913044, 41.888260869565215]]}, "properties": {"segment_id": "30", "street": "DAMEN", "line_id": "damen", "line_ids": ["damen"], "grade": "paint", "facility_category": "painted", "length_m": 507.0, "crashes_within_30m": 2, "data_tier": "real"}}, {"type": "Feature", "geometry": {"type": "LineString", "coordinates": [[-87.67652173913044, 41.888260869565215], [-87.67658695652175, 41.89054347826087], [-87.67665217391304, 41.89282608695652]]}, "properties": {"segment_id": "31", "street": "DAMEN", "line_id": "damen", "line_ids": ["damen"], "grade": "paint", "facility_category": "painted", "length_m": 507.0, "crashes_within_30m": 1, "data_tier": "real"}}, {"type": "Feature", "geometry": {"type": "LineString", "coordinates": [[-87.67665217391304, 41.89282608695652], [-87.67671739130435, 41.89510869565217], [-87.67678260869566, 41.89739130434783]]}, "properties": {"segment_id": "32", "street": "DAMEN", "line_id": "damen", "line_ids": ["damen"], "grade": "paint", "facility_category": "painted", "length_m": 507.0, "crashes_within_30m": 1, "data_tier": "real"}}, {"type": "Feature", "geometry": {"type": "LineString", "coordinates": [[-87.67678260869566, 41.89739130434783], [-87.67684782608696, 41.89967391304348], [-87.67691304347827, 41.90195652173913]]}, "properties": {"segment_id": "33", "street": "DAMEN", "line_id": "damen", "line_ids": ["damen"], "grade": "paint", "facility_category": "painted", "length_m": 507.0, "crashes_within_30m": 5, "data_tier": "real"}}, {"type": "Feature", "geometry": {"type": "LineString", "coordinates": [[-87.67691304347827, 41.90195652173913], [-87.67697826086956, 41.90423913043478], [-87.67704347826087, 41.90652173913043]]}, "properties": {"segment_id": "34", "street": "DAMEN", "line_id": "damen", "line_ids": ["damen"], "grade": "paint", "facility_category": "painted", "length_m": 507.0, "crashes_within_30m": 1, "data_tier": "real"}}, {"type": "Feature", "geometry": {"type": "LineString", "coordinates": [[-87.67704347826087, 41.90652173913043], [-87.67710869565218, 41.908804347826084], [-87.67717391304348, 41.911086956521736]]}, "properties": {"segment_id": "35", "street": "DAMEN", "line_id": "damen", "line_ids": ["damen"], "grade": "paint", "facility_category": "painted", "length_m": 507.0, "crashes_within_30m": 4, "data_tier": "real"}}, {"type": "Feature", "geometry": {"type": "LineString", "coordinates": [[-87.67717391304348, 41.911086956521736], [-87.67723913043478, 41.91336956521739], [-87.6773043478261, 41.915652173913045]]}, "properties": {"segment_id": "36", "street": "DAMEN", "line_id": "damen", "line_ids": ["damen"], "grade": "paint", "facility_category": "painted", "length_m": 507.0, "crashes_within_30m": 5, "data_tier": "real"}}, {"type": "Feature", "geometry": {"type": "LineString", "coordinates": [[-87.6773043478261, 41.915652173913045], [-87.67736956521739, 41.9179347826087], [-87.6774347826087, 41.92021739130435]]}, "properties": {"segment_id": "37", "street": "DAMEN", "line_id": "damen", "line_ids": ["damen"], "grade": "paint", "facility_category": "painted", "length_m": 507.0, "crashes_within_30m": 7, "data_tier": "real"}}, {"type": "Feature", "geometry": {"type": "LineString", "coordinates": [[-87.6774347826087, 41.92021739130435], [-87.67750000000001, 41.9225], [-87.6775652173913, 41.92478260869565]]}, "properties": {"segment_id": "38", "street": "DAMEN", "line_id": "damen", "line_ids": ["damen"], "grade": "paint", "facility_category": "painted", "length_m": 507.0, "crashes_within_30m": 3, "data_tier": "real"}}, {"type": "Feature", "geometry": {"type": "LineString", "coordinates": [[-87.6775652173913, 41.92478260869565], [-87.67763043478261, 41.9270652173913], [-87.67769565217391, 41.92934782608695]]}, "properties": {"segment_id": "39", "street": "DAMEN", "line_id": "damen", "line_ids": ["damen"], "grade": "paint", "facility_category": "painted", "length_m": 507.0, "crashes_within_30m": 2, "data_tier": "real"}}, {"type": "Feature", "geometry": {"type": "LineString", "coordinates": [[-87.67769565217391, 41.92934782608695], [-87.67776086956522, 41.93163043478261], [-87.67782608695653, 41.93391304347826]]}, "properties": {"segment_id": "40", "street": "DAMEN", "line_id": "damen", "line_ids": ["damen"], "grade": "paint", "facility_category": "painted", "length_m": 507.0, "crashes_within_30m": 0, "data_tier": "real"}}, {"type": "Feature", "geometry": {"type": "LineString", "coordinates": [[-87.67782608695653, 41.93391304347826], [-87.67789130434782, 41.936195652173915], [-87.67795652173913, 41.938478260869566]]}, "properties": {"segment_id": "41", "street": "DAMEN", "line_id": "damen", "line_ids": ["damen"], "grade": "paint", "facility_category": "painted", "length_m": 507.0, "crashes_within_30m": 2, "data_tier": "real"}}, {"type": "Feature", "geometry": {"type": "LineString", "coordinates": [[-87.67795652173913, 41.938478260869566], [-87.67802173913044, 41.94076086956522], [-87.67808695652174, 41.94304347826087]]}, "properties": {"segment_id": "42", "street": "DAMEN", "line_id": "damen", "line_ids": ["damen"], "grade": "paint", "facility_category": "painted", "length_m": 507.0, "crashes_within_30m": 9, "data_tier": "real"}}, {"type": "Feature", "geometry": {"type": "LineString", "coordinates": [[-87.67808695652174, 41.94304347826087], [-87.67815217391305, 41.94532608695652], [-87.67821739130434, 41.94760869565217]]}, "properties": {"segment_id": "43", "street": "DAMEN", "line_id": "damen", "line_ids": ["damen"], "grade": "paint", "facility_category": "painted", "length_m": 507.0, "crashes_within_30m": 4, "data_tier": "real"}}, {"type": "Feature", "geometry": {"type": "LineString", "coordinates": [[-87.67821739130434, 41.94760869565217], [-87.67828260869565, 41.94989130434783], [-87.67834782608696, 41.95217391304348]]}, "properties": {"segment_id": "44", "street": "DAMEN", "line_id": "damen", "line_ids": ["damen"], "grade": "paint", "facility_category": "painted", "length_m": 507.0, "crashes_within_30m": 3, "data_tier": "real"}}, {"type": "Feature", "geometry": {"type": "LineString", "coordinates": [[-87.67834782608696, 41.95217391304348], [-87.67841304347826, 41.95445652173913], [-87.67847826086957, 41.956739130434784]]}, "properties": {"segment_id": "45", "street": "DAMEN", "line_id": "damen", "line_ids": ["damen"], "grade": "paint", "facility_category": "painted", "length_m": 507.0, "crashes_within_30m": 2, "data_tier": "real"}}, {"type": "Feature", "geometry": {"type": "LineString", "coordinates": [[-87.67847826086957, 41.956739130434784], [-87.67854347826088, 41.959021739130435], [-87.67860869565217, 41.961304347826086]]}, "properties": {"segment_id": "46", "street": "DAMEN", "line_id": "damen", "line_ids": ["damen"], "grade": "paint", "facility_category": "painted", "length_m": 507.0, "crashes_within_30m": 1, "data_tier": "real"}}, {"type": "Feature", "geometry": {"type": "LineString", "coordinates": [[-87.67860869565217, 41.961304347826086], [-87.67867391304348, 41.96358695652174], [-87.67873913043478, 41.96586956521739]]}, "properties": {"segment_id": "47", "street": "DAMEN", "line_id": "damen", "line_ids": ["damen"], "grade": "paint", "facility_category": "painted", "length_m": 507.0, "crashes_within_30m": 2, "data_tier": "real"}}, {"type": "Feature", "geometry": {"type": "LineString", "coordinates": [[-87.67873913043478, 41.96586956521739], [-87.67880434782609, 41.96815217391305], [-87.6788695652174, 41.9704347826087]]}, "properties": {"segment_id": "48", "street": "DAMEN", "line_id": "damen", "line_ids": ["damen"], "grade": "paint", "facility_category": "painted", "length_m": 507.0, "crashes_within_30m": 2, "data_tier": "real"}}, {"type": "Feature", "geometry": {"type": "LineString", "coordinates": [[-87.6788695652174, 41.9704347826087], [-87.67893478260869, 41.97271739130435], [-87.679, 41.975]]}, "properties": {"segment_id": "49", "street": "DAMEN", "line_id": "damen", "line_ids": ["damen"], "grade": "paint", "facility_category": "painted", "length_m": 507.0, "crashes_within_30m": 3, "data_tier": "real"}}, {"type": "Feature", "geometry": {"type": "LineString", "coordinates": [[-87.66, 41.9], [-87.66199999999999, 41.90175], [-87.664, 41.9035]]}, "properties": {"segment_id": "97", "street": "ELSTON", "line_id": "elston", "line_ids": ["elston"], "grade": "paint", "facility_category": "buffered", "length_m": 511.0, "crashes_within_30m": 5, "data_tier": "real"}}, {"type": "Feature", "geometry": {"type": "LineString", "coordinates": [[-87.664, 41.9035], [-87.666, 41.905249999999995], [-87.66799999999999, 41.907]]}, "properties": {"segment_id": "98", "street": "ELSTON", "line_id": "elston", "line_ids": ["elston"], "grade": "paint", "facility_category": "buffered", "length_m": 511.0, "crashes_within_30m": 4, "data_tier": "real"}}, {"type": "Feature", "geometry": {"type": "LineString", "coordinates": [[-87.66799999999999, 41.907], [-87.67, 41.90875], [-87.672, 41.9105]]}, "properties": {"segment_id": "99", "street": "ELSTON", "line_id": "elston", "line_ids": ["elston"], "grade": "paint", "facility_category": "buffered", "length_m": 511.0, "crashes_within_30m": 2, "data_tier": "real"}}, {"type": "Feature", "geometry": {"type": "LineString", "coordinates": [[-87.672, 41.9105], [-87.67399999999999, 41.91225], [-87.676, 41.914]]}, "properties": {"segment_id": "100", "street": "ELSTON", "line_id": "elston", "line_ids": ["elston"], "grade": "paint", "facility_category": "buffered", "length_m": 510.9, "crashes_within_30m": 3, "data_tier": "real"}}, {"type": "Feature", "geometry": {"type": "LineString", "coordinates": [[-87.676, 41.914], [-87.678, 41.915749999999996], [-87.67999999999999, 41.9175]]}, "properties": {"segment_id": "101", "street": "ELSTON", "line_id": "elston", "line_ids": ["elston"], "grade": "paint", "facility_category": "buffered", "length_m": 510.9, "crashes_within_30m": 1, "data_tier": "real"}}, {"type": "Feature", "geometry": {"type": "LineString", "coordinates": [[-87.67999999999999, 41.9175], [-87.682, 41.91925], [-87.684, 41.921]]}, "properties": {"segment_id": "102", "street": "ELSTON", "line_id": "elston", "line_ids": ["elston"], "grade": "paint", "facility_category": "buffered", "length_m": 510.9, "crashes_within_30m": 6, "data_tier": "real"}}, {"type": "Feature", "geometry": {"type": "LineString", "coordinates": [[-87.684, 41.921], [-87.68599999999999, 41.92275], [-87.688, 41.9245]]}, "properties": {"segment_id": "103", "street": "ELSTON", "line_id": "elston", "line_ids": ["elston"], "grade": "paint", "facility_category": "buffered", "length_m": 510.9, "crashes_within_30m": 5, "data_tier": "real"}}, {"type": "Feature", "geometry": {"type": "LineString", "coordinates": [[-87.688, 41.9245], [-87.69, 41.926249999999996], [-87.692, 41.928]]}, "properties": {"segment_id": "104", "street": "ELSTON", "line_id": "elston", "line_ids": ["elston"], "grade": "paint", "facility_category": "buffered", "length_m": 510.9, "crashes_within_30m": 4, "data_tier": "real"}}, {"type": "Feature", "geometry": {"type": "LineString", "coordinates": [[-87.692, 41.928], [-87.694, 41.92975], [-87.696, 41.9315]]}, "properties": {"segment_id": "105", "street": "ELSTON", "line_id": "elston", "line_ids": ["elston"], "grade": "paint", "facility_category": "buffered", "length_m": 510.9, "crashes_within_30m": 3, "data_tier": "real"}}, {"type": "Feature", "geometry": {"type": "LineString", "coordinates": [[-87.696, 41.9315], [-87.698, 41.93325], [-87.69999999999999, 41.935]]}, "properties": {"segment_id": "106", "street": "ELSTON", "line_id": "elston", "line_ids": ["elston"], "grade": "paint", "facility_category": "buffered", "length_m": 510.9, "crashes_within_30m": 2, "data_tier": "real"}}, {"type": "Feature", "geometry": {"type": "LineString", "coordinates": [[-87.69999999999999, 41.935], [-87.702, 41.936749999999996], [-87.704, 41.9385]]}, "properties": {"segment_id": "107", "street": "ELSTON", "line_id": "elston", "line_ids": ["elston"], "grade": "paint", "facility_category": "buffered", "length_m": 510.9, "crashes_within_30m": 1, "data_tier": "real"}}, {"type": "Feature", "geometry": {"type": "LineString", "coordinates": [[-87.704, 41.9385], [-87.70599999999999, 41.94025], [-87.708, 41.942]]}, "properties": {"segment_id": "108", "street": "ELSTON", "line_id": "elston", "line_ids": ["elston"], "grade": "paint", "facility_category": "buffered", "length_m": 510.9, "crashes_within_30m": 3, "data_tier": "real"}}, {"type": "Feature", "geometry": {"type": "LineString", "coordinates": [[-87.708, 41.942], [-87.71, 41.94375], [-87.71199999999999, 41.945499999999996]]}, "properties": {"segment_id": "109", "street": "ELSTON", "line_id": "elston", "line_ids": ["elston"], "grade": "paint", "facility_category": "buffered", "length_m": 510.8, "crashes_within_30m": 4, "data_tier": "real"}}, {"type": "Feature", "geometry": {"type": "LineString", "coordinates": [[-87.71199999999999, 41.945499999999996], [-87.714, 41.94725], [-87.716, 41.949]]}, "properties": {"segment_id": "110", "street": "ELSTON", "line_id": "elston", "line_ids": ["elston"], "grade": "paint", "facility_category": "buffered", "length_m": 510.8, "crashes_within_30m": 3, "data_tier": "real"}}, {"type": "Feature", "geometry": {"type": "LineString", "coordinates": [[-87.716, 41.949], [-87.71799999999999, 41.95075], [-87.72, 41.9525]]}, "properties": {"segment_id": "111", "street": "ELSTON", "line_id": "elston", "line_ids": ["elston"], "grade": "paint", "facility_category": "buffered", "length_m": 510.8, "crashes_within_30m": 8, "data_tier": "real"}}, {"type": "Feature", "geometry": {"type": "LineString", "coordinates": [[-87.72, 41.9525], [-87.722, 41.95425], [-87.72399999999999, 41.955999999999996]]}, "properties": {"segment_id": "112", "street": "ELSTON", "line_id": "elston", "line_ids": ["elston"], "grade": "paint", "facility_category": "buffered", "length_m": 510.8, "crashes_within_30m": 2, "data_tier": "real"}}, {"type": "Feature", "geometry": {"type": "LineString", "coordinates": [[-87.72399999999999, 41.955999999999996], [-87.726, 41.95775], [-87.728, 41.9595]]}, "properties": {"segment_id": "113", "street": "ELSTON", "line_id": "elston", "line_ids": ["elston"], "grade": "paint", "facility_category": "buffered", "length_m": 510.8, "crashes_within_30m": 2, "data_tier": "real"}}, {"type": "Feature", "geometry": {"type": "LineString", "coordinates": [[-87.728, 41.9595], [-87.72999999999999, 41.96125], [-87.732, 41.963]]}, "properties": {"segment_id": "114", "street": "ELSTON", "line_id": "elston", "line_ids": ["elston"], "grade": "paint", "facility_category": "buffered", "length_m": 510.8, "crashes_within_30m": 4, "data_tier": "real"}}, {"type": "Feature", "geometry": {"type": "LineString", "coordinates": [[-87.732, 41.963], [-87.734, 41.96475], [-87.73599999999999, 41.966499999999996]]}, "properties": {"segment_id": "115", "street": "ELSTON", "line_id": "elston", "line_ids": ["elston"], "grade": "paint", "facility_category": "buffered", "length_m": 510.8, "crashes_within_30m": 2, "data_tier": "real"}}, {"type": "Feature", "geometry": {"type": "LineString", "coordinates": [[-87.73599999999999, 41.966499999999996], [-87.738, 41.96825], [-87.74, 41.97]]}, "properties": {"segment_id": "116", "street": "ELSTON", "line_id": "elston", "line_ids": ["elston"], "grade": "paint", "facility_category": "buffered", "length_m": 510.8, "crashes_within_30m": 3, "data_tier": "real"}}, {"type": "Feature", "geometry": {"type": "LineString", "coordinates": [[-87.56, 41.75], [-87.61, 41.85], [-87.655, 41.98]]}, "properties": {"segment_id": "osm-trail-lakefront-trail", "line_id": "lakefront", "line_ids": ["lakefront"], "grade": "offstreet", "facility_category": "trail", "length_m": 26763.1, "data_tier": "crowdsourced"}}, {"type": "Feature", "geometry": {"type": "LineString", "coordinates": [[-87.7, 41.98], [-87.76, 42.06], [-87.785, 42.15]]}, "properties": {"segment_id": "osm-trail-north-branch-trail", "line_id": "north-branch", "line_ids": ["north-branch"], "grade": "offstreet", "facility_category": "trail", "length_m": 20382.3, "data_tier": "crowdsourced"}}]}