{"type": "FeatureCollection", "features": [{"type": "Feature", "geometry": {"type": "LineString", "coordinates": [[-87.56, 41.75], [-87.61, 41.85], [-87.655, 41.98]]}, "properties": {"segment_id": "osm-trail-lakefront-trail", "name": "Lakefront Trail", "facility_category": "trail", "length_m": 26763.1, "data_tier": "crowdsourced"}}, {"type": "Feature", "geometry": {"type": "LineString", "coordinates": [[-87.7, 41.98], [-87.76, 42.06], [-87.785, 42.15]]}, "properties": {"segment_id": "osm-trail-north-branch-trail", "name": "North Branch Trail", "facility_category": "trail", "length_m": 20382.3, "data_tier": "crowdsourced"}}], "data_tier": "crowdsourced"}