{"type": "FeatureCollection", "features": [{"type": "Feature", "geometry": {"type": "Polygon", "coordinates": [[[-87.85, 41.64], [-87.78399999999999, 41.64], [-87.78399999999999, 41.678], [-87.85, 41.678], [-87.85, 41.64]]]}, "properties": {"ward": "1", "alderman": null, "cyclist_crashes": 10, "injuries": 6, "fatalities": 0, "complaints_311": 0, "density_band": "medium", "data_tier": "real"}}, {"type": "Feature", "geometry": {"type": "Polygon", "coordinates": [[[-87.78399999999999, 41.64], [-87.71799999999999, 41.64], [-87.71799999999999, 41.678], [-87.78399999999999, 41.678], [-87.78399999999999, 41.64]]]}, "properties": {"ward": "2", "alderman": null, "cyclist_crashes": 4, "injuries": 2, "fatalities": 0, "complaints_311": 0, "density_band": "low", "data_tier": "real"}}, {"type": "Feature", "geometry": {"type": "Polygon", "coordinates": [[[-87.71799999999999, 41.64], [-87.652, 41.64], [-87.652, 41.678], [-87.71799999999999, 41.678], [-87.71799999999999, 41.64]]]}, "properties": {"ward": "3", "alderman": null, "cyclist_crashes": 1, "injuries": 0, "fatalities": 0, "complaints_311": 0, "density_band": "low", "data_tier": "real"}}, {"type": "Feature", "geometry": {"type": "Polygon", "coordinates": [[[-87.652, 41.64], [-87.586, 41.64], [-87.586, 41.678], [-87.652, 41.678], [-87.652, 41.64]]]}, "properties": {"ward": "4", "alderman": null, "cyclist_crashes": 5, "injuries": 2, "fatalities": 0, "complaints_311": 0, "density_band": "low", "data_tier": "real"}}, {"type": "Feature", "geometry": {"type": "Polygon", "coordinates": [[[-87.586, 41.64], [-87.52, 41.64], [-87.52, 41.678], [-87.586, 41.678], [-87.586, 41.64]]]}, "properties": {"ward": "5", "alderman": null, "cyclist_crashes": 9, "injuries": 3, "fatalities": 0, "complaints_311": 0, "density_band": "medium", "data_tier": "real"}}, {"type": "Feature", "geometry": {"type": "Polygon", "coordinates": [[[-87.85, 41.678], [-87.78399999999999, 41.678], [-87.78399999999999, 41.716], [-87.85, 41.716], [-87.85, 41.678]]]}, "properties": {"ward": "6", "alderman": null, "cyclist_crashes": 5, "injuries": 3, "fatalities": 0, "complaints_311": 0, "density_band": "low", "data_tier": "real"}}, {"type": "Feature", "geometry": {"type": "Polygon", "coordinates": [[[-87.78399999999999, 41.678], [-87.71799999999999, 41.678], [-87.71799999999999, 41.716], [-87.78399999999999, 41.716], [-87.78399999999999, 41.678]]]}, "properties": {"ward": "7", "alderman": null, "cyclist_crashes": 12, "injuries": 8, "fatalities": 0, "complaints_311": 0, "density_band": "medium", "data_tier": "real"}}, {"type": "Feature", "geometry": {"type": "Polygon", "coordinates": [[[-87.71799999999999, 41.678], [-87.652, 41.678], [-87.652, 41.716], [-87.71799999999999, 41.716], [-87.71799999999999, 41.678]]]}, "properties": {"ward": "8", "alderman": null, "cyclist_crashes": 8, "injuries": 6, "fatalities": 0, "complaints_311": 0, "density_band": "medium", "data_tier": "real"}}, {"type": "Feature", "geometry": {"type": "Polygon", "coordinates": [[[-87.652, 41.678], [-87.586, 41.678], [-87.586, 41.716], [-87.652, 41.716], [-87.652, 41.678]]]}, "properties": {"ward": "9", "alderman": null, "cyclist_crashes": 9, "injuries": 4, "fatalities": 0, "complaints_311": 0, "density_band": "medium", "data_tier": "real"}}, {"type": "Feature", "geometry": {"type": "Polygon", "coordinates": [[[-87.586, 41.678], [-87.52, 41.678], [-87.52, 41.716], [-87.586, 41.716], [-87.586, 41.678]]]}, "properties": {"ward": "10", "alderman": null, "cyclist_crashes": 9, "injuries": 3, "fatalities": 0, "complaints_311": 0, "density_band": "medium", "data_tier": "real"}}, {"type": "Feature", "geometry": {"type": "Polygon", "coordinates": [[[-87.85, 41.716], [-87.78399999999999, 41.716], [-87.78399999999999, 41.754000000000005], [-87.85, 41.754000000000005], [-87.85, 41.716]]]}, "properties": {"ward": "11", "alderman": null, "cyclist_crashes": 8, "injuries": 5, "fatalities": 0, "complaints_311": 0, "density_band": "medium", "data_tier": "real"}}, {"type": "Feature", "geometry": {"type": "Polygon", "coordinates": [[[-87.78399999999999, 41.716], [-87.71799999999999, 41.716], [-87.71799999999999, 41.754000000000005], [-87.78399999999999, 41.754000000000005], [-87.78399999999999, 41.716]]]}, "properties": {"ward": "12", "alderman": null, "cyclist_crashes": 7, "injuries": 4, "fatalities": 0, "complaints_311": 0, "density_band": "low", "data_tier": "real"}}, {"type": "Feature", "geometry": {"type": "Polygon", "coordinates": [[[-87.71799999999999, 41.716], [-87.652, 41.716], [-87.652, 41.754000000000005], [-87.71799999999999, 41.754000000000005], [-87.71799999999999, 41.716]]]}, "properties": {"ward": "13", "alderman": null, "cyclist_crashes": 7, "injuries": 5, "fatalities": 0, "complaints_311": 0, "density_band": "low", "data_tier": "real"}}, {"type": "Feature", "geometry": {"type": "Polygon", "coordinates": [[[-87.652, 41.716], [-87.586, 41.716], [-87.586, 41.754000000000005], [-87.652, 41.754000000000005], [-87.652, 41.716]]]}, "properties": {"ward": "14", "alderman": null, "cyclist_crashes": 39, "injuries": 21, "fatalities": 0, "complaints_311": 40, "density_band": "high", "data_tier": "real"}}, {"type": "Feature", "geometry": {"type": "Polygon", "coordinates": [[[-87.586, 41.716], [-87.52, 41.716], [-87.52, 41.754000000000005], [-87.586, 41.754000000000005], [-87.586, 41.716]]]}, "properties": {"ward": "15", "alderman": null, "cyclist_crashes": 15, "injuries": 6, "fatalities": 0, "complaints_311": 8, "density_band": "high", "data_tier": "real"}}, {"type": "Feature", "geometry": {"type": "Polygon", "coordinates": [[[-87.85, 41.754000000000005], [-87.78399999999999, 41.754000000000005], [-87.78399999999999, 41.792], [-87.85, 41.792], [-87.85, 41.754000000000005]]]}, "properties": {"ward": "16", "alderman": null, "cyclist_crashes": 7, "injuries": 6, "fatalities": 0, "complaints_311": 0, "density_band": "low", "data_tier": "real"}}, {"type": "Feature", "geometry": {"type": "Polygon", "coordinates": [[[-87.78399999999999, 41.754000000000005], [-87.71799999999999, 41.754000000000005], [-87.71799999999999, 41.792], [-87.78399999999999, 41.792], [-87.78399999999999, 41.754000000000005]]]}, "properties": {"ward": "17", "alderman": null, "cyclist_crashes": 10, "injuries": 5, "fatalities": 0, "complaints_311": 0, "density_band": "medium", "data_tier": "real"}}, {"type": "Feature", "geometry": {"type": "Polygon", "coordinates": [[[-87.71799999999999, 41.754000000000005], [-87.652, 41.754000000000005], [-87.652, 41.792], [-87.71799999999999, 41.792], [-87.71799999999999, 41.754000000000005]]]}, "properties": {"ward": "18", "alderman": null, "cyclist_crashes": 7, "injuries": 3, "fatalities": 0, "complaints_311": 0, "density_band": "low", "data_tier": "real"}}, {"type": "Feature", "geometry": {"type": "Polygon", "coordinates": [[[-87.652, 41.754000000000005], [-87.586, 41.754000000000005], [-87.586, 41.792], [-87.652, 41.792], [-87.652, 41.754000000000005]]]}, "properties": {"ward": "19", "alderman": null, "cyclist_crashes": 51, "injuries": 22, "fatalities": 1, "complaints_311": 51, "density_band": "high", "data_tier": "real"}}, {"type": "Feature", "geometry": {"type": "Polygon", "coordinates": [[[-87.586, 41.754000000000005], [-87.52, 41.754000000000005], [-87.52, 41.792], [-87.586, 41.792], [-87.586, 41.754000000000005]]]}, "properties": {"ward": "20", "alderman": null, "cyclist_crashes": 41, "injuries": 24, "fatalities": 0, "complaints_311": 29, "density_band": "high", "data_tier": "real"}}, {"type": "Feature", "geometry": {"type": "Polygon", "coordinates": [[[-87.85, 41.792], [-87.78399999999999, 41.792], [-87.78399999999999, 41.83], [-87.85, 41.83], [-87.85, 41.792]]]}, "properties": {"ward": "21", "alderman": null, "cyclist_crashes": 7, "injuries": 5, "fatalities": 0, "complaints_311": 0, "density_band": "low", "data_tier": "real"}}, {"type": "Feature", "geometry": {"type": "Polygon", "coordinates": [[[-87.78399999999999, 41.792], [-87.71799999999999, 41.792], [-87.71799999999999, 41.83], [-87.78399999999999, 41.83], [-87.78399999999999, 41.792]]]}, "properties": {"ward": "22", "alderman": null, "cyclist_crashes": 12, "injuries": 5, "fatalities": 0, "complaints_311": 3, "density_band": "medium", "data_tier": "real"}}, {"type": "Feature", "geometry": {"type": "Polygon", "coordinates": [[[-87.71799999999999, 41.792], [-87.652, 41.792], [-87.652, 41.83], [-87.71799999999999, 41.83], [-87.71799999999999, 41.792]]]}, "properties": {"ward": "23", "alderman": null, "cyclist_crashes": 62, "injuries": 37, "fatalities": 0, "complaints_311": 52, "density_band": "high", "data_tier": "real"}}, {"type": "Feature", "geometry": {"type": "Polygon", "coordinates": [[[-87.652, 41.792], [-87.586, 41.792], [-87.586, 41.83], [-87.652, 41.83], [-87.652, 41.792]]]}, "properties": {"ward": "24", "alderman": null, "cyclist_crashes": 54, "injuries": 26, "fatalities": 0, "complaints_311": 48, "density_band": "high", "data_tier": "real"}}, {"type": "Feature", "geometry": {"type": "Polygon", "coordinates": [[[-87.586, 41.792], [-87.52, 41.792], [-87.52, 41.83], [-87.586, 41.83], [-87.586, 41.792]]]}, "properties": {"ward": "25", "alderman": null, "cyclist_crashes": 21, "injuries": 16, "fatalities": 0, "complaints_311": 10, "density_band": "high", "data_tier": "real"}}, {"type": "Feature", "geometry": {"type": "Polygon", "coordinates": [[[-87.85, 41.83], [-87.78399999999999, 41.83], [-87.78399999999999, 41.868], [-87.85, 41.868], [-87.85, 41.83]]]}, "properties": {"ward": "26", "alderman": null, "cyclist_crashes": 2, "injuries": 1, "fatalities": 0, "complaints_311": 0, "density_band": "low", "data_tier": "real"}}, {"type": "Feature", "geometry": {"type": "Polygon", "coordinates": [[[-87.78399999999999, 41.83], [-87.71799999999999, 41.83], [-87.71799999999999, 41.868], [-87.78399999999999, 41.868], [-87.78399999999999, 41.83]]]}, "properties": {"ward": "27", "alderman": null, "cyclist_crashes": 6, "injuries": 4, "fatalities": 0, "complaints_311": 0, "density_band": "low", "data_tier": "real"}}, {"type": "Feature", "geometry": {"type": "Polygon", "coordinates": [[[-87.71799999999999, 41.83], [-87.652, 41.83], [-87.652, 41.868], [-87.71799999999999, 41.868], [-87.71799999999999, 41.83]]]}, "properties": {"ward": "28", "alderman": null, "cyclist_crashes": 11, "injuries": 6, "fatalities": 0, "complaints_311": 9, "density_band": "medium", "data_tier": "real"}}, {"type": "Feature", "geometry": {"type": "Polygon", "coordinates": [[[-87.652, 41.83], [-87.586, 41.83], [-87.586, 41.868], [-87.652, 41.868], [-87.652, 41.83]]]}, "properties": {"ward": "29", "alderman": null, "cyclist_crashes": 47, "injuries": 23, "fatalities": 0, "complaints_311": 32, "density_band": "high", "data_tier": "real"}}, {"type": "Feature", "geometry": {"type": "Polygon", "coordinates": [[[-87.586, 41.83], [-87.52, 41.83], [-87.52, 41.868], [-87.586, 41.868], [-87.586, 41.83]]]}, "properties": {"ward": "30", "alderman": null, "cyclist_crashes": 6, "injuries": 3, "fatalities": 0, "complaints_311": 0, "density_band": "low", "data_tier": "real"}}, {"type": "Feature", "geometry": {"type": "Polygon", "coordinates": [[[-87.85, 41.868], [-87.78399999999999, 41.868], [-87.78399999999999, 41.906000000000006], [-87.85, 41.906000000000006], [-87.85, 41.868]]]}, "properties": {"ward": "31", "alderman": null, "cyclist_crashes": 5, "injuries": 3, "fatalities": 0, "complaints_311": 0, "density_band": "low", "data_tier": "real"}}, {"type": "Feature", "geometry": {"type": "Polygon", "coordinates": [[[-87.78399999999999, 41.868], [-87.71799999999999, 41.868], [-87.71799999999999, 41.906000000000006], [-87.78399999999999, 41.906000000000006], [-87.78399999999999, 41.868]]]}, "properties": {"ward": "32", "alderman": null, "cyclist_crashes": 19, "injuries": 10, "fatalities": 0, "complaints_311": 19, "density_band": "high", "data_tier": "real"}}, {"type": "Feature", "geometry": {"type": "Polygon", "coordinates": [[[-87.71799999999999, 41.868], [-87.652, 41.868], [-87.652, 41.906000000000006], [-87.71799999999999, 41.906000000000006], [-87.71799999999999, 41.868]]]}, "properties": {"ward": "33", "alderman": null, "cyclist_crashes": 131, "injuries": 75, "fatalities": 0, "complaints_311": 110, "density_band": "high", "data_tier": "real"}}, {"type": "Feature", "geometry": {"type": "Polygon", "coordinates": [[[-87.652, 41.868], [-87.586, 41.868], [-87.586, 41.906000000000006], [-87.652, 41.906000000000006], [-87.652, 41.868]]]}, "properties": {"ward": "34", "alderman": null, "cyclist_crashes": 132, "injuries": 72, "fatalities": 2, "complaints_311": 112, "density_band": "high", "data_tier": "real"}}, {"type": "Feature", "geometry": {"type": "Polygon", "coordinates": [[[-87.586, 41.868], [-87.52, 41.868], [-87.52, 41.906000000000006], [-87.586, 41.906000000000006], [-87.586, 41.868]]]}, "properties": {"ward": "35", "alderman": null, "cyclist_crashes": 9, "injuries": 5, "fatalities": 0, "complaints_311": 0, "density_band": "medium", "data_tier": "real"}}, {"type": "Feature", "geometry": {"type": "Polygon", "coordinates": [[[-87.85, 41.906000000000006], [-87.78399999999999, 41.906000000000006], [-87.78399999999999, 41.944], [-87.85, 41.944], [-87.85, 41.906000000000006]]]}, "properties": {"ward": "36", "alderman": null, "cyclist_crashes": 9, "injuries": 5, "fatalities": 0, "complaints_311": 0, "density_band": "medium", "data_tier": "real"}}, {"type": "Feature", "geometry": {"type": "Polygon", "coordinates": [[[-87.78399999999999, 41.906000000000006], [-87.71799999999999, 41.906000000000006], [-87.71799999999999, 41.944], [-87.78399999999999, 41.944], [-87.78399999999999, 41.906000000000006]]]}, "properties": {"ward": "37", "alderman": null, "cyclist_crashes": 18, "injuries": 7, "fatalities": 0, "complaints_311": 7, "density_band": "high", "data_tier": "real"}}, {"type": "Feature", "geometry": {"type": "Polygon", "coordinates": [[[-87.71799999999999, 41.906000000000006], [-87.652, 41.906000000000006], [-87.652, 41.944], [-87.71799999999999, 41.944], [-87.71799999999999, 41.906000000000006]]]}, "properties": {"ward": "38", "alderman": null, "cyclist_crashes": 129, "injuries": 74, "fatalities": 1, "complaints_311": 135, "density_band": "high", "data_tier": "real"}}, {"type": "Feature", "geometry": {"type": "Polygon", "coordinates": [[[-87.652, 41.906000000000006], [-87.586, 41.906000000000006], [-87.586, 41.944], [-87.652, 41.944], [-87.652, 41.906000000000006]]]}, "properties": {"ward": "39", "alderman": null, "cyclist_crashes": 83, "injuries": 49, "fatalities": 1, "complaints_311": 47, "density_band": "high", "data_tier": "real"}}, {"type": "Feature", "geometry": {"type": "Polygon", "coordinates": [[[-87.586, 41.906000000000006], [-87.52, 41.906000000000006], [-87.52, 41.944], [-87.586, 41.944], [-87.586, 41.906000000000006]]]}, "properties": {"ward": "40", "alderman": null, "cyclist_crashes": 4, "injuries": 0, "fatalities": 0, "complaints_311": 0, "density_band": "low", "data_tier": "real"}}, {"type": "Feature", "geometry": {"type": "Polygon", "coordinates": [[[-87.85, 41.944], [-87.78399999999999, 41.944], [-87.78399999999999, 41.982], [-87.85, 41.982], [-87.85, 41.944]]]}, "properties": {"ward": "41", "alderman": null, "cyclist_crashes": 14, "injuries": 6, "fatalities": 0, "complaints_311": 0, "density_band": "medium", "data_tier": "real"}}, {"type": "Feature", "geometry": {"type": "Polygon", "coordinates": [[[-87.78399999999999, 41.944], [-87.71799999999999, 41.944], [-87.71799999999999, 41.982], [-87.78399999999999, 41.982], [-87.78399999999999, 41.944]]]}, "properties": {"ward": "42", "alderman": null, "cyclist_crashes": 40, "injuries": 19, "fatalities": 1, "complaints_311": 24, "density_band": "high", "data_tier": "real"}}, {"type": "Feature", "geometry": {"type": "Polygon", "coordinates": [[[-87.71799999999999, 41.944], [-87.652, 41.944], [-87.652, 41.982], [-87.71799999999999, 41.982], [-87.71799999999999, 41.944]]]}, "properties": {"ward": "43", "alderman": null, "cyclist_crashes": 55, "injuries": 31, "fatalities": 0, "complaints_311": 46, "density_band": "high", "data_tier": "real"}}, {"type": "Feature", "geometry": {"type": "Polygon", "coordinates": [[[-87.652, 41.944], [-87.586, 41.944], [-87.586, 41.982], [-87.652, 41.982], [-87.652, 41.944]]]}, "properties": {"ward": "44", "alderman": null, "cyclist_crashes": 26, "injuries": 11, "fatalities": 0, "complaints_311": 18, "density_band": "high", "data_tier": "real"}}, {"type": "Feature", "geometry": {"type": "Polygon", "coordinates": [[[-87.586, 41.944], [-87.52, 41.944], [-87.52, 41.982], [-87.586, 41.982], [-87.586, 41.944]]]}, "properties": {"ward": "45", "alderman": null, "cyclist_crashes": 8, "injuries": 2, "fatalities": 0, "complaints_311": 0, "density_band": "medium", "data_tier": "real"}}, {"type": "Feature", "geometry": {"type": "Polygon", "coordinates": [[[-87.85, 41.982], [-87.78399999999999, 41.982], [-87.78399999999999, 42.02], [-87.85, 42.02], [-87.85, 41.982]]]}, "properties": {"ward": "46", "alderman": null, "cyclist_crashes": 5, "injuries": 2, "fatalities": 0, "complaints_311": 0, "density_band": "low", "data_tier": "real"}}, {"type": "Feature", "geometry": {"type": "Polygon", "coordinates": [[[-87.78399999999999, 41.982], [-87.71799999999999, 41.982], [-87.71799999999999, 42.02], [-87.78399999999999, 42.02], [-87.78399999999999, 41.982]]]}, "properties": {"ward": "47", "alderman": null, "cyclist_crashes": 3, "injuries": 2, "fatalities": 0, "complaints_311": 0, "density_band": "low", "data_tier": "real"}}, {"type": "Feature", "geometry": {"type": "Polygon", "coordinates": [[[-87.71799999999999, 41.982], [-87.652, 41.982], [-87.652, 42.02], [-87.71799999999999, 42.02], [-87.71799999999999, 41.982]]]}, "properties": {"ward": "48", "alderman": null, "cyclist_crashes": 6, "injuries": 5, "fatalities": 0, "complaints_311": 0, "density_band": "low", "data_tier": "real"}}, {"type": "Feature", "geometry": {"type": "Polygon", "coordinates": [[[-87.652, 41.982], [-87.586, 41.982], [-87.586, 42.02], [-87.652, 42.02], [-87.652, 41.982]]]}, "properties": {"ward": "49", "alderman": null, "cyclist_crashes": 6, "injuries": 4, "fatalities": 0, "complaints_311": 0, "density_band": "low", "data_tier": "real"}}, {"type": "Feature", "geometry": {"type": "Polygon", "coordinates": [[[-87.586, 41.982], [-87.52, 41.982], [-87.52, 42.02], [-87.586, 42.02], [-87.586, 41.982]]]}, "properties": {"ward": "50", "alderman": null, "cyclist_crashes": 6, "injuries": 4, "fatalities": 0, "complaints_311": 0, "density_band": "low", "data_tier": "real"}}]}